{"type":"FeatureCollection","features":[{"type":"Feature","properties":{"osmType":"way","osmId":53156732,"name":"Alte Mulde Roitzschjora","waterway":"stream"},"geometry":{"type":"LineString","coordinates":[[12.4868301,51.6015012],[12.487640500000001,51.601546500000005],[12.487681,51.601998900000005],[12.487426800000001,51.602723700000006],[12.4875898,51.6029045],[12.487565900000002,51.6030365],[12.487536200000001,51.6030692],[12.487452000000001,51.603155],[12.4873519,51.603206400000005],[12.487294700000001,51.603276900000004],[12.4870874,51.6034152],[12.486915600000001,51.6035838],[12.4868266,51.603629700000006],[12.486725600000002,51.603659400000005],[12.4865039,51.603668400000004],[12.486432,51.6036932],[12.4864078,51.603741500000005],[12.486380700000002,51.6038359],[12.4863338,51.6038785],[12.486258000000001,51.604005],[12.4862537,51.604064900000004],[12.4862634,51.6041322],[12.4862493,51.604192700000006],[12.4862658,51.6043603]]}},{"type":"Feature","properties":{"osmType":"way","osmId":1147473418,"name":"Alte Mulde Roitzschjora","waterway":"stream"},"geometry":{"type":"LineString","coordinates":[[12.4866924,51.601107600000006],[12.486741400000001,51.6013845]]}},{"type":"Feature","properties":{"osmType":"way","osmId":1147473419,"name":"Alte Mulde Roitzschjora","waterway":"stream"},"geometry":{"type":"LineString","coordinates":[[12.4858297,51.5944026],[12.4851921,51.593637],[12.484082200000001,51.5929699],[12.483656400000001,51.592804900000004],[12.4832034,51.592673600000005],[12.482791200000001,51.592629200000005],[12.4822292,51.592629200000005],[12.4818783,51.5927244],[12.4814287,51.5928556],[12.4804408,51.5934503],[12.4803659,51.593609],[12.480083100000002,51.593761400000005],[12.479381400000001,51.5941677],[12.4777532,51.5952659],[12.477620300000002,51.595621400000006],[12.477589700000001,51.595902900000006],[12.477640800000001,51.5961653],[12.4778622,51.596692100000006],[12.478110800000001,51.596986300000005],[12.478325400000001,51.5971513],[12.478999900000002,51.597528000000004],[12.479378,51.5977121],[12.4809484,51.598495],[12.4812072,51.5986071],[12.482815100000002,51.5989943],[12.483527,51.5991213],[12.4840209,51.5992905],[12.484889500000001,51.5996608],[12.485472000000001,51.599887200000005],[12.4863236,51.600331600000004],[12.486882300000001,51.600778000000005],[12.4866854,51.6010787],[12.4866924,51.601107600000006]]}}]}