{"type":"FeatureCollection","features":[{"type":"Feature","properties":{"osmType":"way","osmId":76752149,"name":"Alte Mulde","waterway":"canal"},"geometry":{"type":"LineString","coordinates":[[12.3515229,51.633849100000006],[12.350872800000001,51.6359544],[12.3508635,51.6367453],[12.3513166,51.637474600000004],[12.351585400000001,51.6380278],[12.3520242,51.638462700000005],[12.3534033,51.6390102],[12.3539606,51.6393307],[12.354820700000001,51.6396181],[12.355663000000002,51.6394497],[12.356526800000001,51.6392347]]}}]}