{"type":"FeatureCollection","features":[{"type":"Feature","properties":{"osmId":371369036,"name":"Altarm Baggerelbe","natural":"water"},"geometry":{"type":"Polygon","coordinates":[[[11.994751800000001,52.4118738],[11.9950279,52.4116225],[11.9951769,52.4114488],[11.9952441,52.4112214],[11.9952799,52.41107160000001],[11.9953078,52.410778900000004],[11.9952299,52.410539],[11.9951518,52.410355800000005],[11.995022500000001,52.4100693],[11.9946888,52.40985980000001],[11.994403100000001,52.409662100000006],[11.994330600000001,52.4095844],[11.9942215,52.4095043],[11.993564300000001,52.409185300000004],[11.992450600000002,52.4088232],[11.990515,52.40829],[11.990135100000002,52.4081971],[11.989044600000001,52.4078193],[11.9881142,52.407467700000005],[11.9871865,52.4069476],[11.986473700000001,52.4066034],[11.9860504,52.40635210000001],[11.985219,52.406157300000004],[11.984444300000002,52.405673],[11.984141600000001,52.4054426],[11.983937800000001,52.405141500000006],[11.983712500000001,52.4048012],[11.983530100000001,52.4044542],[11.983455000000001,52.404166200000006],[11.9834121,52.4038393],[11.983391500000002,52.4035456],[11.983379900000001,52.403381100000004],[11.9835086,52.403263300000006],[11.9837232,52.4031455],[11.983776800000001,52.403008],[11.983809,52.4027789],[11.983787600000001,52.402504],[11.983851900000001,52.402255200000006],[11.983970000000001,52.402013000000004],[11.9841738,52.401842800000004],[11.9828971,52.402202900000006],[11.9830365,52.40222910000001],[11.9831116,52.402288000000006],[11.9831331,52.402432000000005],[11.9831438,52.402576],[11.9829936,52.40308],[11.9829722,52.40328950000001],[11.983015100000001,52.4040618],[11.9830365,52.404166200000006],[11.982940000000001,52.404257900000005],[11.982779,52.404257900000005],[11.982661,52.404257900000005],[11.9825108,52.404225200000006],[11.9822748,52.4042382],[11.9820817,52.4043233],[11.9816847,52.4045001],[11.9814755,52.4046097],[11.981280100000001,52.4045004],[11.9805954,52.40390480000001],[11.980413,52.40404710000001],[11.980148400000001,52.4051775],[11.9801458,52.405279900000004],[11.980049800000002,52.405347000000006],[11.979528700000001,52.405337900000006],[11.979378500000001,52.4054099],[11.978649,52.406005500000006],[11.978531,52.406142900000006],[11.978541700000001,52.406260800000005],[11.9785953,52.4063524],[11.9786704,52.4064113],[11.9793249,52.406535700000006],[11.979518,52.406561800000006],[11.9798077,52.4065291],[11.980043700000001,52.4064964],[11.9804943,52.4063328],[11.980558700000001,52.4061888],[11.9805694,52.406071000000004],[11.980515800000001,52.405979300000006],[11.980376300000001,52.40583530000001],[11.980301200000001,52.405730600000005],[11.9803978,52.405619300000005],[11.9804943,52.4055211],[11.980783500000001,52.405351],[11.9813521,52.405089200000006],[11.981434100000001,52.4050608],[11.9817491,52.404951700000005],[11.982146,52.4048601],[11.9827898,52.404781500000006],[11.9831116,52.404755300000005],[11.9833048,52.404761900000004],[11.983455000000001,52.404807700000006],[11.9835086,52.4049059],[11.983594400000001,52.4051088],[11.983744600000001,52.405344400000004],[11.9839163,52.405567000000005],[11.984195300000001,52.405815700000005],[11.984412800000001,52.4059619],[11.9848283,52.4062411],[11.9850857,52.4063655],[11.9855364,52.406535700000006],[11.9857402,52.4066077],[11.985836800000001,52.40669930000001],[11.985976200000001,52.4068106],[11.986062100000002,52.4069087],[11.986158600000001,52.406980700000005],[11.9863839,52.407098500000004],[11.9867273,52.407150900000005],[11.986888200000001,52.40717050000001],[11.9870169,52.407203300000006],[11.987328100000001,52.407406200000004],[11.987403200000001,52.4075305],[11.9874139,52.407681100000005],[11.9874354,52.407812],[11.987489,52.407929800000005],[11.9875427,52.407988700000004],[11.987886000000001,52.4080018],[11.988315100000001,52.4079756],[11.9886155,52.4080279],[11.989633300000001,52.40835130000001],[11.9906144,52.4086013],[11.9916485,52.408841800000005],[11.9924894,52.40909430000001],[11.9934588,52.40937580000001],[11.9940087,52.4096357],[11.9945166,52.409945500000006],[11.994726,52.41028],[11.9948536,52.410578900000004],[11.994865200000001,52.41099620000001],[11.994792700000001,52.4111908],[11.9947695,52.411332300000005],[11.9944678,52.4117387],[11.9940403,52.4120214],[11.9931298,52.412295400000005],[11.992381,52.412502800000006],[11.9918911,52.4126405],[11.991614100000001,52.4127183],[11.991077500000001,52.412788500000005],[11.9910622,52.412660200000005],[11.9909254,52.412655300000004],[11.990836900000001,52.412781300000006],[11.9905176,52.4129683],[11.9899831,52.413240300000005],[11.989525800000001,52.4135105],[11.989120000000002,52.4137685],[11.988768400000001,52.4140038],[11.9885769,52.4141187],[11.9883881,52.414273900000005],[11.9882468,52.414476400000005],[11.9882772,52.4145106],[11.988296400000001,52.414532200000004],[11.9885987,52.4147387],[11.988669400000001,52.414786400000004],[11.9887434,52.414808400000005],[11.9888518,52.414828],[11.9889148,52.414833300000005],[11.9889703,52.4148215],[11.989073600000001,52.41479],[11.9893613,52.4146008],[11.989434900000001,52.414492],[11.9894963,52.4144306],[11.989635900000001,52.414401000000005],[11.9899112,52.4141484],[11.990116500000001,52.4139276],[11.9901543,52.413803],[11.9901946,52.4137848],[11.9902326,52.4137848],[11.9902729,52.413794100000004],[11.9908102,52.4132988],[11.991287100000001,52.4131153],[11.992329300000002,52.4127645],[11.9924891,52.412725900000005],[11.992753700000002,52.412661400000005],[11.9932099,52.412528800000004],[11.9934089,52.4124709],[11.993495300000001,52.4124482],[11.9934846,52.412430900000004],[11.993508,52.412406000000004],[11.99362,52.4123585],[11.993890700000001,52.412275900000004],[11.994066,52.4122064],[11.994169300000001,52.41216240000001],[11.994218,52.4121517],[11.994287100000001,52.4121523],[11.9943339,52.412144000000005],[11.9943641,52.41211130000001],[11.994421500000001,52.4120495],[11.994751800000001,52.4118738]]]}},{"type":"Feature","properties":{"osmId":1230430858,"name":"Elbe/Altarm Baggerelbe Derben","natural":"water","water":"oxbow","wikimedia_commons":"File:Baggerelbe Derben, August 02.jpg"},"geometry":{"type":"Polygon","coordinates":[[[11.9938956,52.4295996],[11.994003800000002,52.4294662],[11.9940125,52.428747200000004],[11.994035,52.428460900000005],[11.9941688,52.428247000000006],[11.994198800000001,52.4281706],[11.994264800000002,52.4278167],[11.9943798,52.4276434],[11.994431800000001,52.427523400000005],[11.994519700000001,52.427285000000005],[11.9945555,52.427151200000004],[11.994836600000001,52.4264171],[11.994856100000002,52.4260261],[11.9947561,52.4256563],[11.9947452,52.425622100000005],[11.994762300000001,52.4255566],[11.9948136,52.4254368],[11.9948563,52.4253385],[11.994836800000002,52.425235],[11.994776900000002,52.42503850000001],[11.994729300000001,52.4250422],[11.994679300000001,52.424722900000006],[11.9947183,52.424725800000004],[11.9947171,52.424702800000006],[11.994646300000001,52.4245919],[11.9945999,52.4244981],[11.9945596,52.424331300000006],[11.994541300000002,52.4241735],[11.9944681,52.423988900000005],[11.994333800000001,52.4239345],[11.9942679,52.423868500000005],[11.9942341,52.4237947],[11.994026900000001,52.42346920000001],[11.993942500000001,52.423342600000005],[11.993966400000001,52.4233107],[11.9939859,52.423283100000006],[11.9939932,52.423234],[11.993983400000001,52.4231491],[11.993983400000001,52.423117100000006],[11.9939554,52.4230159],[11.9939017,52.4228469],[11.993826,52.4226742],[11.993783200000001,52.42261310000001],[11.99371,52.422546100000005],[11.9935986,52.4223153],[11.993488600000001,52.4220921],[11.993445900000001,52.422000800000006],[11.993284300000001,52.4219291],[11.9931055,52.422000100000005],[11.9929587,52.422058400000004],[11.9926749,52.421865000000004],[11.9913875,52.421058800000004],[11.990896800000002,52.420920900000006],[11.9906196,52.4206288],[11.990328700000001,52.420500200000006],[11.9898115,52.4207661],[11.9891927,52.4210982],[11.989040200000002,52.4212951],[11.989249000000001,52.421409000000004],[11.989305300000002,52.421508800000005],[11.989549400000001,52.421508800000005],[11.9896191,52.421620000000004],[11.989873900000001,52.421656000000006],[11.9900113,52.4216921],[11.991429400000001,52.422358100000004],[11.9921576,52.4228625],[11.9928845,52.4235453],[11.9935357,52.4245748],[11.993560500000001,52.424775000000004],[11.9936561,52.425548000000006],[11.9936974,52.425882200000004],[11.993675900000001,52.426070200000005],[11.993550800000001,52.4271614],[11.992943100000002,52.4285932],[11.992740300000001,52.429468500000006],[11.993075900000001,52.4297594],[11.993575900000002,52.430192700000006],[11.993812,52.430001100000005],[11.9938956,52.4295996]]]}}]}