{"type":"FeatureCollection","features":[{"type":"Feature","properties":{"osmType":"way","osmId":371369031,"name":"Altarm Baggerelbe","waterway":"river"},"geometry":{"type":"LineString","coordinates":[[11.983458200000001,52.401732900000006],[11.9834628,52.402445400000005],[11.983265800000002,52.403124600000005],[11.983197200000001,52.403425000000006],[11.9832271,52.4039238],[11.9832897,52.4042789],[11.9835404,52.404761400000005],[11.983877600000001,52.4052857],[11.9841969,52.40565350000001],[11.9847461,52.405993900000006],[11.9852056,52.4062561],[11.9858741,52.4065237],[11.987199100000002,52.4071864],[11.988184,52.407679800000004],[11.9889062,52.4079856],[11.9899328,52.408300600000004],[11.9908579,52.408550000000005],[11.9914549,52.408697800000006],[11.9918726,52.408801200000006],[11.992818600000001,52.4090706],[11.9936094,52.4093237],[11.9942767,52.4096618],[11.994466800000001,52.409788400000004],[11.994681700000001,52.4099505],[11.994892700000001,52.4101374],[11.995050800000001,52.4105052],[11.9951045,52.4108146],[11.995068700000001,52.4111296],[11.994937400000001,52.411459],[11.994662900000002,52.4117467],[11.994212200000002,52.4120288],[11.9936751,52.412241800000004],[11.992469400000001,52.4125949],[11.9913264,52.4129335],[11.9906102,52.4131556],[11.990126700000001,52.4134869],[11.989497100000001,52.413992900000004],[11.988634900000001,52.4147064]]}}]}