{"type":"FeatureCollection","features":[{"type":"Feature","properties":{"osmType":"way","osmId":101153585,"name":"Dollgraben","waterway":"stream"},"geometry":{"type":"LineString","coordinates":[[11.770538,52.4416291],[11.7707671,52.441794],[11.7719044,52.442264900000005],[11.776079600000001,52.443892600000005],[11.776428200000002,52.444071],[11.776932400000002,52.4444329],[11.780629900000001,52.447777],[11.7810392,52.448171200000004]]}},{"type":"Feature","properties":{"osmType":"way","osmId":113049784,"name":"Dollgraben","waterway":"stream"},"geometry":{"type":"LineString","coordinates":[[11.770453100000001,52.441557800000005],[11.7704866,52.441586300000004],[11.770538,52.4416291]]}},{"type":"Feature","properties":{"osmType":"way","osmId":117553341,"name":"Dollgraben","waterway":"stream"},"geometry":{"type":"LineString","coordinates":[[11.781168300000001,52.4483235],[11.781903100000001,52.449255400000006],[11.7820855,52.4494124],[11.7824074,52.4496151],[11.7932435,52.454832700000004],[11.793610900000001,52.454992600000004]]}},{"type":"Feature","properties":{"osmType":"way","osmId":117553346,"name":"Dollgraben","waterway":"stream"},"geometry":{"type":"LineString","coordinates":[[11.7568798,52.430921000000005],[11.7569912,52.431033000000006],[11.762484500000001,52.4377587],[11.762591700000002,52.4378764],[11.762967300000001,52.4380268],[11.769243600000001,52.440708300000004],[11.7697479,52.440969900000006],[11.770048300000001,52.4411269],[11.7702092,52.441303500000004],[11.770453100000001,52.441557800000005]]}},{"type":"Feature","properties":{"osmType":"way","osmId":117553352,"name":"Dollgraben","waterway":"stream"},"geometry":{"type":"LineString","coordinates":[[11.7810392,52.448171200000004],[11.781168300000001,52.4483235]]}},{"type":"Feature","properties":{"osmType":"way","osmId":126268645,"name":"Dollgraben","waterway":"stream"},"geometry":{"type":"LineString","coordinates":[[11.793610900000001,52.454992600000004],[11.7936604,52.4550142]]}},{"type":"Feature","properties":{"osmType":"way","osmId":126268653,"name":"Dollgraben","waterway":"stream"},"geometry":{"type":"LineString","coordinates":[[11.799353100000001,52.4619446],[11.7993655,52.46196320000001],[11.8001752,52.463168],[11.8002181,52.4633052],[11.800239600000001,52.4634294],[11.800143,52.463632100000005],[11.7989736,52.4655081],[11.7989414,52.4656126],[11.798956500000001,52.4673511],[11.7989691,52.467455],[11.7990165,52.4675839],[11.7994547,52.4684383],[11.800564600000001,52.4705158],[11.8009544,52.4712661],[11.801101500000001,52.4715628],[11.801180100000002,52.471646],[11.801279300000001,52.471709800000006],[11.802032500000001,52.4721616],[11.803036800000001,52.472779900000006],[11.803124700000001,52.472852100000004],[11.8031769,52.472915500000006],[11.803204800000001,52.4730281],[11.8038079,52.4767869],[11.8038153,52.4768922],[11.8038474,52.4770157],[11.8044667,52.478755400000004],[11.8045456,52.4790962],[11.804751000000001,52.47990780000001],[11.804792500000001,52.480204400000005],[11.805213100000001,52.4819273],[11.8052133,52.481976],[11.805237100000001,52.4820257]]}},{"type":"Feature","properties":{"osmType":"way","osmId":139077401,"name":"Dollgraben","waterway":"stream"},"geometry":{"type":"LineString","coordinates":[[11.699572,52.4092423],[11.700656400000002,52.409111800000005],[11.7007253,52.40882250000001],[11.7036923,52.4085696],[11.7061685,52.409034600000005],[11.713583300000002,52.4104855],[11.7137937,52.410519],[11.713981200000001,52.410513400000006],[11.714223700000002,52.4104911],[11.714781700000001,52.41040460000001],[11.7156234,52.410293],[11.7161951,52.4102735],[11.716455900000001,52.410279],[11.7169041,52.410309700000006],[11.7177915,52.4104297],[11.7186698,52.410549700000004],[11.7202341,52.4107227],[11.721186300000001,52.41081500000001],[11.7217496,52.410867200000006],[11.7222057,52.41096580000001],[11.7224483,52.4110546],[11.722822500000001,52.41118650000001],[11.7232433,52.411393000000004],[11.723421700000001,52.4114767],[11.723773900000001,52.4116329],[11.723998,52.4117222],[11.7245515,52.412151900000005],[11.7246796,52.41222440000001],[11.724954,52.412297],[11.726346600000001,52.412679600000004],[11.7265666,52.412718000000005],[11.727004800000001,52.412778200000005],[11.7289168,52.4130364]]}},{"type":"Feature","properties":{"osmType":"way","osmId":976669789,"name":"Dollgraben","waterway":"stream"},"geometry":{"type":"LineString","coordinates":[[11.729072100000002,52.4130581],[11.7292953,52.4132218],[11.729711,52.413510800000005],[11.7308207,52.4144738],[11.7321079,52.415597700000006],[11.7321994,52.415720500000006],[11.7322793,52.415886500000006]]}},{"type":"Feature","properties":{"osmType":"way","osmId":976669790,"name":"Dollgraben","waterway":"stream"},"geometry":{"type":"LineString","coordinates":[[11.7289168,52.4130364],[11.729072100000002,52.4130581]]}},{"type":"Feature","properties":{"osmType":"way","osmId":1247004082,"name":"Dollgraben","waterway":"stream"},"geometry":{"type":"LineString","coordinates":[[11.799277700000001,52.461838900000004],[11.799353100000001,52.4619446]]}},{"type":"Feature","properties":{"osmType":"way","osmId":1247004083,"name":"Dollgraben","waterway":"stream"},"geometry":{"type":"LineString","coordinates":[[11.7936604,52.4550142],[11.793769200000002,52.455061500000006],[11.7948743,52.4556565],[11.7959686,52.4563168],[11.7962798,52.456519500000006],[11.7970951,52.457232100000006],[11.797459900000002,52.45749360000001],[11.797567200000001,52.4576113],[11.7976972,52.4578701],[11.797800500000001,52.458064900000004],[11.7978638,52.4582161],[11.7978933,52.458343400000004],[11.797963300000001,52.460089700000005],[11.7979725,52.4602006],[11.7980032,52.4602816],[11.799277700000001,52.461838900000004]]}}]}