{"type":"FeatureCollection","features":[{"type":"Feature","properties":{"osmType":"way","osmId":7977726,"name":"Elbe-Havel-Kanal","waterway":"canal"},"geometry":{"type":"LineString","coordinates":[[11.9941107,52.375524000000006],[11.9973384,52.3804816],[11.9997393,52.384303],[12.000596100000001,52.3858526],[12.002362900000001,52.388713100000004],[12.003125800000001,52.3899053]]}},{"type":"Feature","properties":{"osmType":"way","osmId":50693978,"name":"Elbe-Havel-Kanal","waterway":"canal"},"geometry":{"type":"LineString","coordinates":[[12.088937300000001,52.4111087],[12.0911369,52.411738],[12.0913252,52.411777900000004],[12.0936841,52.412221100000004],[12.094779800000001,52.4122957],[12.0966921,52.4124282],[12.098522800000001,52.4123656],[12.101813900000002,52.4122819],[12.1060446,52.41213260000001],[12.1081005,52.412104400000004],[12.110854300000002,52.4123001],[12.1126073,52.412502100000005],[12.1157331,52.4129912],[12.1172801,52.4131769],[12.1184387,52.413270700000005],[12.1196596,52.4132595],[12.120279100000001,52.4132254],[12.1209576,52.4131864],[12.121643,52.413090100000005],[12.123153100000001,52.4129251],[12.1265388,52.412604400000006],[12.1309114,52.4121839],[12.13484,52.411788900000005],[12.1397516,52.411287900000005],[12.1402938,52.41120900000001],[12.1423055,52.410900100000006],[12.1440169,52.4106151],[12.145055000000001,52.4103992],[12.1461491,52.410258500000005],[12.147859700000001,52.410091800000004],[12.149158,52.4100023],[12.151052100000001,52.40999],[12.1527679,52.410104700000005],[12.153152200000001,52.410152700000005],[12.153811200000002,52.4102137],[12.154678,52.4103019],[12.157046500000002,52.410523000000005],[12.1579926,52.4106285],[12.1597018,52.410797800000005],[12.161024800000002,52.410820400000006],[12.162815400000001,52.410788100000005],[12.1636105,52.410774100000005],[12.1645724,52.4108134],[12.165476,52.4108564],[12.1667207,52.410983400000006],[12.168364200000001,52.410982700000005],[12.1696962,52.4109837],[12.1708396,52.4109446]]}},{"type":"Feature","properties":{"osmType":"way","osmId":54045642,"name":"Elbe-Havel-Kanal","waterway":"canal"},"geometry":{"type":"LineString","coordinates":[[11.937319700000002,52.3247154],[11.938492100000001,52.3252906],[11.9395173,52.3258748],[11.940738000000001,52.326712300000004],[11.9419704,52.328113300000005],[11.942622400000001,52.3288571],[11.9442368,52.330745500000006],[11.9487093,52.33601650000001],[11.948784100000001,52.3360878],[11.9498276,52.3370484],[11.9505122,52.3374697],[11.9512137,52.337832000000006],[11.9552159,52.339508900000006],[11.957225300000001,52.340276200000005],[11.958538,52.340934600000004],[11.959640400000001,52.341601700000005],[11.959873900000002,52.3418763],[11.9608548,52.342773400000006],[11.9619134,52.344158500000006],[11.9624625,52.34476]]}},{"type":"Feature","properties":{"osmType":"way","osmId":54045647,"name":"Elbe-Havel-Kanal","waterway":"canal"},"geometry":{"type":"LineString","coordinates":[[11.990974600000001,52.37074500000001],[11.991926000000001,52.3720871],[11.992848,52.3734831],[11.9936421,52.3747471],[11.9941107,52.375524000000006]]}},{"type":"Feature","properties":{"osmType":"way","osmId":56640517,"name":"Elbe-Havel-Kanal","waterway":"canal"},"geometry":{"type":"LineString","coordinates":[[11.8940309,52.306405700000006],[11.8968919,52.3066419],[11.8992885,52.3069836],[11.9008008,52.3072579],[11.902506,52.3076397],[11.9057966,52.3085918],[11.9096115,52.310127800000004],[11.9110344,52.3107832],[11.913486500000001,52.31223060000001],[11.9154982,52.3137276],[11.9176003,52.3152089],[11.9189054,52.316174200000006]]}},{"type":"Feature","properties":{"osmType":"way","osmId":100302251,"name":"Elbe-Havel-Kanal","waterway":"canal"},"geometry":{"type":"LineString","coordinates":[[12.190993,52.405056900000005],[12.1929485,52.4048196],[12.195282800000001,52.4046182],[12.197202500000001,52.404446400000005],[12.2075451,52.4035194],[12.216777200000001,52.4027438],[12.222147000000001,52.4022986],[12.2272861,52.401883000000005],[12.2367831,52.4011051],[12.240208500000001,52.4008084],[12.2441204,52.400544100000005],[12.245347,52.4005109],[12.2465229,52.400524700000005],[12.248205700000002,52.400693000000004],[12.251216600000001,52.40117720000001],[12.252704600000001,52.401418500000005],[12.253740400000002,52.401549],[12.2553055,52.401741400000006],[12.2567385,52.4018552],[12.2582749,52.401880600000005],[12.259386000000001,52.4018109],[12.260416800000002,52.4017143],[12.2631727,52.4012448],[12.2660446,52.400472900000004],[12.266748100000001,52.4002623],[12.2680003,52.399841],[12.270589900000001,52.3990652],[12.2730542,52.398261700000006],[12.2749626,52.3977288],[12.2752713,52.3976673],[12.2756591,52.397609800000005],[12.2797952,52.3971643],[12.284110400000001,52.396765900000005],[12.286056700000001,52.3966769],[12.2898837,52.3966397],[12.2916865,52.396524400000004],[12.293708200000001,52.396320700000004],[12.296894900000002,52.395912200000005],[12.2991434,52.3955143],[12.3008219,52.395217200000005],[12.3042718,52.394716900000006],[12.3080429,52.3941675],[12.3159492,52.392954800000005],[12.3179382,52.392736000000006],[12.318677300000001,52.392695200000006],[12.319992200000002,52.3926195],[12.3221746,52.3926219],[12.3254868,52.392849500000004],[12.3267536,52.392841700000005],[12.3280998,52.3928085],[12.330252900000001,52.39268070000001],[12.333377200000001,52.392492000000004],[12.3354075,52.392400900000005],[12.3380752,52.3924535],[12.3411307,52.392529],[12.348064800000001,52.392468300000004],[12.353215200000001,52.392475600000004],[12.3544675,52.39248490000001],[12.355394200000001,52.392577800000005],[12.356098900000001,52.392748100000006],[12.3576841,52.3927471]]}},{"type":"Feature","properties":{"osmType":"way","osmId":161202825,"name":"Elbe-Havel-Kanal","waterway":"canal"},"geometry":{"type":"LineString","coordinates":[[11.9624625,52.34476],[11.964255900000001,52.3465489]]}},{"type":"Feature","properties":{"osmType":"way","osmId":161202826,"name":"Elbe-Havel-Kanal","waterway":"canal"},"geometry":{"type":"LineString","coordinates":[[11.964255900000001,52.3465489],[11.9644112,52.34674570000001],[11.9647857,52.3471242],[11.9654167,52.34756],[11.9658773,52.3478781],[11.9666397,52.348562400000006],[11.9677463,52.3497235],[11.9683878,52.3503934],[11.9691007,52.351243800000006],[11.969682200000001,52.3518807],[11.969842,52.3519841],[11.9708073,52.3526309],[11.9732713,52.3539663],[11.9773855,52.356025800000005],[11.977619800000001,52.356151700000005],[11.9786301,52.356821100000005],[11.9803475,52.3584778],[11.980855,52.3590202],[11.9822316,52.360838400000006],[11.9829033,52.36169],[11.9835437,52.362501800000004],[11.98484,52.36421360000001],[11.9857384,52.365239300000006],[11.9868822,52.3664677],[11.9886608,52.368120100000006],[11.9902862,52.369916700000005],[11.990974600000001,52.37074500000001]]}},{"type":"Feature","properties":{"osmType":"way","osmId":244020189,"name":"Elbe-Havel-Kanal","waterway":"canal"},"geometry":{"type":"LineString","coordinates":[[11.9189054,52.316174200000006],[11.9199766,52.317044100000004],[11.922541200000001,52.318947300000005],[11.923410800000001,52.319536400000004],[11.924257,52.3200176],[11.925635100000001,52.3206422],[11.926736400000001,52.321136],[11.929290400000001,52.322020200000004],[11.9347583,52.323844300000005],[11.937319700000002,52.3247154]]}},{"type":"Feature","properties":{"osmType":"way","osmId":244020191,"name":"Elbe-Havel-Kanal","waterway":"canal"},"geometry":{"type":"LineString","coordinates":[[11.749244200000001,52.2462669],[11.749798700000001,52.2464998],[11.753679100000001,52.248007],[11.7583388,52.2496146],[11.759147400000002,52.2498761],[11.7624388,52.251022600000006],[11.7665305,52.252430800000006],[11.774014300000001,52.25524660000001],[11.774919,52.2555568],[11.774971500000001,52.255574100000004],[11.7854731,52.259329900000004],[11.787690300000001,52.260134],[11.7897651,52.2609201],[11.7920311,52.2617922],[11.794030900000001,52.262701],[11.7978872,52.264793600000004],[11.7993307,52.265833400000005],[11.7997294,52.2661194],[11.8033678,52.2683158],[11.805619,52.2695701],[11.8080861,52.2706784],[11.8102079,52.271511800000006],[11.8121457,52.2721444],[11.8137381,52.2726513],[11.8140424,52.272723000000006],[11.8200357,52.2740918],[11.820511400000001,52.27421450000001],[11.8232212,52.2749133],[11.824355800000001,52.2752064],[11.825670500000001,52.275545],[11.8323201,52.2770559],[11.8338994,52.2773769],[11.8374532,52.278083900000006],[11.838527800000001,52.278308100000004],[11.840266300000001,52.2787864],[11.841983200000001,52.2792935],[11.845932000000001,52.2809545],[11.847855800000001,52.281797600000004],[11.849925200000001,52.2826712],[11.8504214,52.2828681],[11.851333700000001,52.283261100000004],[11.8525462,52.2838112],[11.8537774,52.284334300000005],[11.8550071,52.2852344],[11.856542200000002,52.286514600000004],[11.8584303,52.288302900000005],[11.859489100000001,52.289329900000006],[11.8600968,52.2899613],[11.860630500000001,52.290677],[11.8609051,52.291096800000005],[11.8610682,52.2913392],[11.861460800000001,52.292044000000004],[11.861973,52.294101500000004],[11.862578800000001,52.2957125],[11.8631755,52.2967467],[11.8637776,52.297806400000006],[11.8650614,52.299663100000004],[11.866283000000001,52.30133480000001],[11.8675046,52.3025564],[11.868887,52.3035209],[11.870590900000002,52.3045175],[11.8717874,52.3050896],[11.872988300000001,52.305478900000004],[11.8743271,52.305875],[11.875020000000001,52.3060284],[11.876100200000002,52.3062327],[11.876699,52.3063427],[11.8783448,52.3065213],[11.8808523,52.306575300000006],[11.881146800000002,52.3065816],[11.8832763,52.3065317],[11.885856100000002,52.3065043],[11.8893736,52.306420200000005],[11.8920364,52.3064133],[11.8940309,52.306405700000006]]}},{"type":"Feature","properties":{"osmType":"way","osmId":244021207,"name":"Elbe-Havel-Kanal","waterway":"canal"},"geometry":{"type":"LineString","coordinates":[[12.003125800000001,52.3899053],[12.0048168,52.391369000000005],[12.0063662,52.3925865],[12.0091596,52.3943385],[12.009601700000001,52.39465190000001],[12.010442300000001,52.3950976],[12.0118231,52.395854500000006],[12.014660300000001,52.397221900000005],[12.0161625,52.3978556],[12.0176352,52.3983021],[12.0190526,52.398693400000006],[12.0233494,52.3998046],[12.0264354,52.400584200000004],[12.0293466,52.40130490000001],[12.0307542,52.401690900000006],[12.032231000000001,52.4021051],[12.0364856,52.4034551],[12.0385928,52.4041268],[12.039991,52.404578400000005],[12.041525700000001,52.4052079],[12.045444600000002,52.4070052],[12.0474992,52.40789830000001],[12.048533500000001,52.408354900000006],[12.0498182,52.408859500000005],[12.050753400000001,52.4091564],[12.051942400000001,52.409492900000004]]}},{"type":"Feature","properties":{"osmType":"way","osmId":244021679,"name":"Elbe-Havel-Kanal","waterway":"canal"},"geometry":{"type":"LineString","coordinates":[[12.1708396,52.4109446],[12.1719831,52.4108749],[12.1731438,52.4107739],[12.175127400000001,52.4103001],[12.1769838,52.40963360000001],[12.177067200000002,52.409596400000005],[12.177384100000001,52.4095044],[12.179380400000001,52.40859390000001],[12.179965300000001,52.408287],[12.180941800000001,52.407775900000004],[12.1824712,52.407028600000004],[12.185070300000001,52.4060708],[12.1877998,52.4055485],[12.190993,52.405056900000005]]}},{"type":"Feature","properties":{"osmType":"way","osmId":247267160,"name":"Elbe-Havel-Kanal","waterway":"canal"},"geometry":{"type":"LineString","coordinates":[[12.0662625,52.408766500000006],[12.069601500000001,52.4085394],[12.073490300000001,52.408511100000005],[12.074969000000001,52.4085751],[12.078416,52.4088623],[12.080499600000001,52.4092032],[12.0827431,52.409681500000005],[12.0858272,52.4104637],[12.087839800000001,52.410954000000004],[12.088937300000001,52.4111087]]}},{"type":"Feature","properties":{"osmType":"way","osmId":603119106,"name":"Elbe-Havel-Kanal","waterway":"canal"},"geometry":{"type":"LineString","coordinates":[[11.9647324,52.3462521],[11.965372,52.346908400000004],[11.9658773,52.3478781]]}},{"type":"Feature","properties":{"osmType":"way","osmId":603119107,"name":"Elbe-Havel-Kanal","waterway":"canal"},"geometry":{"type":"LineString","coordinates":[[11.9608548,52.342773400000006],[11.962507400000002,52.343998400000004],[11.9631472,52.3446657]]}},{"type":"Feature","properties":{"osmType":"way","osmId":603119108,"name":"Elbe-Havel-Kanal","waterway":"canal"},"geometry":{"type":"LineString","coordinates":[[11.9631472,52.3446657],[11.9647324,52.3462521]]}},{"type":"Feature","properties":{"osmType":"way","osmId":795024137,"name":"Elbe-Havel-Kanal","waterway":"canal"},"geometry":{"type":"LineString","coordinates":[[12.051942400000001,52.409492900000004],[12.052104100000001,52.4095219],[12.0538334,52.4098501],[12.0549826,52.4099948],[12.056644,52.41005740000001],[12.057939300000001,52.4100781],[12.0589166,52.410025700000006],[12.059921800000001,52.409928],[12.061387100000001,52.409708200000004],[12.0622682,52.409545900000005],[12.0629828,52.4093765],[12.0650043,52.408899600000005],[12.0662625,52.408766500000006]]}}]}