{"type":"FeatureCollection","features":[{"type":"Feature","properties":{"osmType":"way","osmId":4444840,"name":"Elbe","waterway":"river"},"geometry":{"type":"LineString","coordinates":[[12.263930700000001,51.8770559],[12.2624028,51.877647800000005],[12.2590876,51.8785509],[12.256321600000001,51.87914000000001],[12.255074100000002,51.8793949],[12.254045600000001,51.8795549],[12.2528625,51.8798347],[12.2520425,51.87997420000001],[12.2493724,51.880227500000004],[12.2458632,51.8804066],[12.241342600000001,51.880672800000006],[12.2393672,51.8808288],[12.238291400000001,51.8809708],[12.236822400000001,51.8810562],[12.236471400000001,51.8810761],[12.2357847,51.8811114],[12.2351728,51.881126800000004],[12.2342373,51.8810623],[12.2329088,51.8808621],[12.2322501,51.880672700000005],[12.230468700000001,51.8799427],[12.2298541,51.879427400000004],[12.2288773,51.8786542],[12.227924000000002,51.877763],[12.227552900000001,51.876711900000004],[12.227433300000001,51.875363500000006],[12.227624800000001,51.873985000000005],[12.2293661,51.8705341],[12.230299400000002,51.8686312],[12.230976400000001,51.867166700000006],[12.2315476,51.8659047],[12.231712900000002,51.8653605],[12.231837200000001,51.8647536],[12.2318733,51.864372],[12.231791000000001,51.863244300000005],[12.2313515,51.862376600000005],[12.230928,51.861551000000006],[12.230288300000002,51.860675500000006],[12.228918,51.859633200000005],[12.2275618,51.858721800000005],[12.2252898,51.8576786],[12.2233932,51.8572805],[12.220226100000001,51.8570538],[12.2177249,51.857176800000005],[12.2155676,51.8574695],[12.2135017,51.857978200000005],[12.211529,51.8588983],[12.210507000000002,51.8596422],[12.2092048,51.8607012],[12.2082809,51.861760200000006],[12.2077831,51.8628396],[12.2074879,51.864004300000005],[12.207441500000002,51.865832000000005],[12.207748400000002,51.867350300000005],[12.2085647,51.869148100000004],[12.208976300000002,51.8704563],[12.2090665,51.872288100000006]]}},{"type":"Feature","properties":{"osmType":"way","osmId":4445192,"name":"Elbe","waterway":"river"},"geometry":{"type":"LineString","coordinates":[[12.3104732,51.884318900000004],[12.308947100000001,51.8845113],[12.3081078,51.884610900000006],[12.3071503,51.8846775],[12.3064949,51.8846867],[12.3057551,51.8846531],[12.3044571,51.884399],[12.303212700000001,51.8840087],[12.3020294,51.8834911],[12.3002263,51.882439600000005],[12.2999766,51.8823091],[12.2985655,51.881542700000004],[12.2967399,51.8806074],[12.2957169,51.880222800000006],[12.2897762,51.87833070000001],[12.288022400000001,51.877592500000006],[12.286757000000001,51.87692800000001],[12.2843496,51.875273],[12.282721200000001,51.8744692],[12.281440100000001,51.8741117],[12.2792784,51.873809800000004],[12.275587300000002,51.8739153],[12.2734462,51.874130300000004],[12.2709974,51.874629600000006],[12.268990200000001,51.875239500000006],[12.263930700000001,51.8770559]]}},{"type":"Feature","properties":{"osmType":"way","osmId":4445598,"name":"Elbe","waterway":"river"},"geometry":{"type":"LineString","coordinates":[[12.408212500000001,51.8664483],[12.407037200000001,51.8656493],[12.406020900000001,51.8650838],[12.4045178,51.8643787],[12.4031157,51.8639306],[12.4015754,51.8635098],[12.399188800000001,51.863100100000004],[12.397171,51.862927600000006],[12.3951287,51.862927600000006],[12.3921693,51.863164600000005],[12.3902961,51.8633092],[12.388698900000001,51.8632822],[12.3870456,51.8631089],[12.3856225,51.8627556],[12.3843122,51.8622127],[12.383325200000002,51.861509600000005],[12.3820682,51.860176100000004],[12.381205900000001,51.85864230000001],[12.380982000000001,51.857304000000006],[12.380923500000002,51.856476400000005],[12.3809708,51.8554546],[12.3811186,51.854636500000005],[12.3813983,51.853756700000005],[12.3814893,51.8529733],[12.3814718,51.8517706],[12.3811493,51.850615000000005],[12.380370300000001,51.8495271],[12.379305700000002,51.8489501],[12.3778424,51.8482251],[12.376104000000002,51.847550000000005],[12.373663800000001,51.846927],[12.371171200000001,51.846704700000004],[12.368804500000001,51.84674570000001],[12.367347800000001,51.8467921],[12.36538,51.847034],[12.3623317,51.8476451],[12.3602433,51.8481291],[12.358551400000001,51.8490477],[12.357512400000001,51.849817300000005],[12.3562145,51.851251700000006],[12.3551073,51.8526807],[12.3540235,51.8546939],[12.352779100000001,51.8568672],[12.3509933,51.859312300000006],[12.350016400000001,51.860231600000006],[12.3482184,51.8616474],[12.3468788,51.8624747],[12.3449968,51.863364000000004],[12.3423241,51.8644565],[12.3387668,51.865506700000005],[12.3338119,51.8663559],[12.330210800000001,51.867067500000005],[12.3272966,51.8678389],[12.324588400000001,51.8687179],[12.3229383,51.8697358],[12.321605900000002,51.870932800000006],[12.320682900000001,51.8723055],[12.3203446,51.873669500000005],[12.3194494,51.877278800000006],[12.3189524,51.8783875],[12.318161100000001,51.8796255],[12.3160963,51.8816435],[12.313304200000001,51.8834323],[12.3104732,51.884318900000004]]}},{"type":"Feature","properties":{"osmType":"way","osmId":4445996,"name":"Elbe","waterway":"river"},"geometry":{"type":"LineString","coordinates":[[12.4872957,51.8787287],[12.4866703,51.8782263],[12.4847841,51.876544300000006],[12.4825516,51.874178500000006],[12.481500800000001,51.8725584],[12.480907,51.871084800000006],[12.480776200000001,51.8707031],[12.4805677,51.8696764],[12.480648100000002,51.8688318],[12.480850700000001,51.863756900000006],[12.4810932,51.8622524],[12.481170500000001,51.861681000000004],[12.481145300000001,51.8610198],[12.4806916,51.859879600000006],[12.4801044,51.858851400000006],[12.4791778,51.858198800000004],[12.4779307,51.857570700000004],[12.4761799,51.8570356],[12.474266700000001,51.8568263],[12.4708436,51.856781100000006],[12.4685313,51.8568751],[12.466228800000001,51.8571643],[12.4639647,51.8575327],[12.458335100000001,51.858777200000006],[12.456810500000001,51.859238100000006],[12.4532349,51.860570900000006],[12.451477200000001,51.8614545],[12.4500633,51.862484200000004],[12.448742600000001,51.86381900000001],[12.4476448,51.86596350000001],[12.447295400000002,51.867449500000006],[12.447360000000002,51.868997400000005],[12.447886,51.8705263],[12.4491487,51.8723547],[12.450397500000001,51.873619700000006],[12.451272000000001,51.874451300000004],[12.4523813,51.8759005],[12.4529302,51.877091500000006],[12.4526456,51.878134100000004],[12.4521768,51.879434200000006],[12.451878500000001,51.8797973],[12.451566900000001,51.880134700000006],[12.451507600000001,51.880182000000005],[12.451133100000002,51.8804675],[12.4500226,51.881069200000006],[12.4494693,51.8813109],[12.4489031,51.8815156],[12.4481908,51.881683],[12.4477021,51.8817778],[12.446859400000001,51.8818957],[12.446016700000001,51.8819499],[12.4448296,51.881921000000006],[12.442674100000001,51.8819857],[12.439264300000001,51.88099630000001],[12.437349900000001,51.8801933],[12.434727500000001,51.878949000000006],[12.430785700000001,51.877707400000006],[12.4286259,51.8771581],[12.426951800000001,51.876845800000005],[12.4211307,51.8759409],[12.4184709,51.875289800000004],[12.4167324,51.874670800000004],[12.4149081,51.873955800000005],[12.4129839,51.872858400000005],[12.4118388,51.871822800000004],[12.411086200000002,51.8710509],[12.4105941,51.870132600000005],[12.4100452,51.868599700000004],[12.409438100000001,51.8676284],[12.408212500000001,51.8664483]]}},{"type":"Feature","properties":{"osmType":"way","osmId":4446554,"name":"Elbe","waterway":"river"},"geometry":{"type":"LineString","coordinates":[[12.2090665,51.872288100000006],[12.20912,51.874069000000006],[12.208914100000001,51.8748875],[12.2079997,51.876203100000005],[12.2065617,51.8773345],[12.204776,51.878096600000006],[12.202937,51.8785352],[12.2008259,51.878621],[12.196977700000001,51.878486800000005],[12.1944572,51.87826930000001],[12.192402000000001,51.8779259],[12.187850800000001,51.876682800000005],[12.185414900000001,51.8766596],[12.1827169,51.8760021],[12.180647,51.87558610000001],[12.179979900000001,51.875446100000005],[12.174672500000002,51.874844700000004],[12.169864400000002,51.8745903],[12.1663248,51.87402530000001],[12.1646432,51.873763800000006],[12.1625983,51.8735597],[12.1609286,51.873566000000004],[12.159160400000001,51.873670800000006],[12.154682900000001,51.8741914],[12.153056000000001,51.8742632]]}},{"type":"Feature","properties":{"osmType":"way","osmId":4447541,"name":"Elbe","waterway":"river"},"geometry":{"type":"LineString","coordinates":[[12.5778488,51.867730200000004],[12.575261000000001,51.868177200000005],[12.5733317,51.8683184],[12.5709554,51.8683259],[12.568256700000001,51.868165000000005],[12.5663365,51.867922],[12.5642867,51.867473100000005],[12.5622971,51.8668558],[12.560334200000002,51.8661321],[12.558679900000001,51.865346800000005],[12.557483000000001,51.8645955],[12.5547485,51.862725700000006],[12.553237000000001,51.8620444],[12.551512800000001,51.861578900000005],[12.5497709,51.861363100000005],[12.548409900000001,51.8613499],[12.5467543,51.8614399],[12.545158800000001,51.861697500000005],[12.543750000000001,51.8620949],[12.541864400000001,51.862919600000005],[12.541196900000001,51.863299700000006],[12.540665,51.863769500000004],[12.539904,51.8645943],[12.5386357,51.866282500000004],[12.537942500000002,51.8671124],[12.536922500000001,51.867868],[12.535616000000001,51.868679],[12.534170600000001,51.869368400000006],[12.5324454,51.8699488],[12.5321189,51.870030400000005],[12.531314100000001,51.870238300000004],[12.5297117,51.8705245],[12.528207400000001,51.8705839],[12.5261276,51.8704413],[12.523881500000002,51.870355100000005],[12.522525100000001,51.8700064],[12.521245500000001,51.86953990000001],[12.519088100000001,51.8681769],[12.518370500000001,51.867550200000004],[12.517314800000001,51.86629670000001],[12.5166673,51.8652214],[12.5160286,51.862688500000004],[12.515772100000001,51.861706000000005],[12.514997600000001,51.8608307],[12.514511500000001,51.8603503],[12.5135301,51.8596852],[12.511831,51.859116],[12.5103752,51.8588766],[12.509412300000001,51.858837300000005],[12.506987400000002,51.8590383],[12.5054868,51.8595763],[12.503535600000001,51.860699700000005],[12.502702800000002,51.8613536],[12.501886,51.8624291],[12.5016054,51.8629546],[12.501372900000002,51.8639078],[12.5013161,51.864745600000006],[12.501549800000001,51.8664002],[12.502064200000001,51.8678316],[12.5032121,51.869764],[12.5041027,51.871309000000004],[12.5044932,51.8722105],[12.5047312,51.8728592],[12.505095,51.874067800000006],[12.5051614,51.874666700000006],[12.5049679,51.8754932],[12.504729900000001,51.8760795],[12.5043343,51.8767459],[12.503059100000002,51.87811060000001],[12.502208900000001,51.878802500000006],[12.501331100000002,51.879442000000004],[12.500927200000001,51.8796151],[12.500143900000001,51.8801548],[12.4992669,51.8803691],[12.4980028,51.880589300000004],[12.4957101,51.8807078],[12.4936504,51.880737700000005],[12.4919097,51.8805119],[12.490115900000001,51.8801028],[12.488620500000001,51.879530800000005],[12.4872957,51.8787287]]}},{"type":"Feature","properties":{"osmType":"way","osmId":4580338,"name":"Elbe","waterway":"river"},"geometry":{"type":"LineString","coordinates":[[12.9643645,51.629274200000005],[12.9607595,51.6289341],[12.9584515,51.6288434],[12.9567341,51.628916200000006],[12.9554238,51.6291315],[12.953501800000002,51.629524200000006],[12.951331300000001,51.6302384],[12.9497928,51.630954800000005],[12.9483891,51.631757],[12.947119800000001,51.632674],[12.9467335,51.6329531],[12.944842300000001,51.6349461],[12.9433103,51.63675670000001],[12.9412073,51.6400087],[12.938960300000002,51.6431028],[12.9374351,51.64481850000001]]}},{"type":"Feature","properties":{"osmType":"way","osmId":4580386,"name":"Elbe","waterway":"river"},"geometry":{"type":"LineString","coordinates":[[13.0013348,51.608084600000005],[13.0021576,51.611073600000005],[13.002295,51.6124031],[13.0020615,51.613243800000006],[13.001592200000001,51.6142394],[13.000894800000001,51.615033000000004],[12.9994876,51.616297100000004],[12.9982325,51.6171677],[12.996992700000002,51.617749800000006],[12.995646200000001,51.618181500000006],[12.993469500000002,51.618599100000004],[12.991131900000001,51.618839200000004],[12.988726100000001,51.6188939],[12.9817289,51.6187862],[12.980093100000001,51.619006000000006],[12.9785857,51.6194732],[12.9771915,51.620242600000005],[12.976339500000002,51.6209981],[12.975995800000002,51.6213786],[12.9752235,51.622667],[12.974617,51.6247279],[12.9738915,51.626319900000006],[12.9731071,51.627383900000005],[12.9718649,51.6282605],[12.9707798,51.628727500000004],[12.9696499,51.629078400000004],[12.9680785,51.629406700000004],[12.9669868,51.629505800000004],[12.9643645,51.629274200000005]]}},{"type":"Feature","properties":{"osmType":"way","osmId":4580610,"name":"Elbe","waterway":"river"},"geometry":{"type":"LineString","coordinates":[[12.041859700000002,52.840336],[12.041773800000001,52.8425469],[12.041267900000001,52.84357850000001],[12.040561100000001,52.84479150000001],[12.039708200000002,52.845964800000004],[12.038732600000001,52.846828],[12.0377612,52.847729900000004],[12.0361667,52.848729500000005],[12.034140800000001,52.8497215],[12.031767700000001,52.850567700000006],[12.028782000000001,52.8517786],[12.0273193,52.8525269],[12.025742200000002,52.8535375],[12.024415000000001,52.854638],[12.023183900000001,52.8562571],[12.022525100000001,52.857543500000006],[12.0221728,52.8585993],[12.0221163,52.8598573],[12.0222163,52.861257900000005],[12.022505800000001,52.863306400000006],[12.0228712,52.8665904],[12.0233717,52.8679289],[12.0237619,52.869045500000006],[12.0232788,52.8706888],[12.0224498,52.8717363],[12.021537400000001,52.87239640000001],[12.0202328,52.8730264],[12.018857800000001,52.8734193],[12.0160864,52.8736782],[12.010142400000001,52.874091400000005],[12.006175500000001,52.8739294],[12.0039808,52.873848100000004],[12.0018159,52.873960100000005],[12.001018700000001,52.8740675],[11.997913,52.8743902],[11.994892400000001,52.874482],[11.991499800000001,52.8744061],[11.988752700000001,52.8741732],[11.9861704,52.8737992],[11.9826803,52.873133],[11.979502700000001,52.8723284],[11.977324600000001,52.8720404],[11.9754983,52.8719972],[11.973538000000001,52.872135],[11.9715074,52.8724938],[11.970014500000001,52.872877],[11.968555,52.8733723],[11.9672026,52.8740596],[11.966114600000001,52.874638000000004],[11.9650406,52.875246700000005],[11.9627751,52.877014300000006],[11.961448200000001,52.8784385],[11.960286900000002,52.8798955],[11.958717400000001,52.8816076]]}},{"type":"Feature","properties":{"osmType":"way","osmId":4607029,"name":"Elbe","waterway":"river"},"geometry":{"type":"LineString","coordinates":[[11.8724588,52.9094794],[11.8692337,52.910077300000005],[11.865587000000001,52.910277],[11.862123,52.9100837],[11.858374000000001,52.9096916],[11.8527239,52.908971],[11.847233300000001,52.9087344],[11.8431764,52.90866260000001],[11.8397752,52.908895],[11.8390239,52.908946300000004],[11.834775200000001,52.909760500000004],[11.832353600000001,52.9104383],[11.8294691,52.9115589],[11.8269178,52.912866300000005],[11.8251188,52.9141947],[11.824034300000001,52.915397000000006],[11.822666900000002,52.917558400000004],[11.8221366,52.919622000000004],[11.8222509,52.921803600000004],[11.822804900000001,52.923753700000006],[11.8246053,52.9266391],[11.826192800000001,52.9284972],[11.8283603,52.9302642],[11.831102000000001,52.9321235],[11.834328500000002,52.933718000000006],[11.8380077,52.93543390000001],[11.842020300000001,52.93677],[11.8441177,52.9376381],[11.8453988,52.938469600000005],[11.8464162,52.9392949],[11.8485194,52.941683700000006],[11.8496473,52.944118200000005],[11.849889500000002,52.9465353],[11.8495,52.9481958],[11.8486062,52.949883500000006],[11.847165700000001,52.951274000000005],[11.845266800000001,52.9526393],[11.843113800000001,52.953934200000006],[11.8398473,52.9553534],[11.8338511,52.957213200000005],[11.830384400000002,52.9579359],[11.827265200000001,52.958358000000004],[11.825759900000001,52.958466200000004],[11.823761900000001,52.9585681],[11.8190428,52.9584739],[11.8134288,52.9582544],[11.810719200000001,52.957949400000004],[11.8085064,52.9575869],[11.8054234,52.95747050000001],[11.7976691,52.9579935],[11.7956292,52.9583627],[11.7912523,52.9598865],[11.7889184,52.960424100000004],[11.785964700000001,52.9607265],[11.7847155,52.9610781],[11.7834157,52.961626800000005],[11.782034300000001,52.962352],[11.77933,52.9642387],[11.7772462,52.9664343],[11.775952,52.968069],[11.7754676,52.970468600000004],[11.775042200000001,52.9714589],[11.772663000000001,52.9745928],[11.7701098,52.9776479],[11.769080200000001,52.978678800000004],[11.7678191,52.9796181],[11.7654241,52.9814019],[11.7613283,52.983674300000004],[11.759552900000001,52.9845897],[11.7584631,52.9850587],[11.7545918,52.986436700000006],[11.7506573,52.987506700000004],[11.7479378,52.9881572]]}},{"type":"Feature","properties":{"osmType":"way","osmId":4607030,"name":"Elbe","waterway":"river"},"geometry":{"type":"LineString","coordinates":[[11.979206300000001,52.5359325],[11.9802739,52.537805600000006],[11.9808912,52.5398021],[11.980937500000001,52.542778600000005],[11.9810621,52.544213600000006],[11.9820677,52.5461928],[11.9836118,52.5485721],[11.985165,52.5509239],[11.9857715,52.552564100000005],[11.9858066,52.554705600000005],[11.985630100000002,52.556685800000004],[11.9854926,52.557484300000006],[11.984790100000001,52.5607988],[11.9845351,52.563590100000006],[11.9845865,52.5653391],[11.984721400000002,52.566480500000004],[11.9848332,52.567136100000006],[11.985410600000002,52.56958],[11.986742300000001,52.573154900000006],[11.987686400000001,52.57530860000001],[11.988799100000001,52.577967300000005],[11.990077600000001,52.5797613],[11.9917045,52.581599800000006],[11.993894000000001,52.583526500000005],[11.9973579,52.5864993],[11.9991973,52.588675],[12.0007897,52.5914408],[12.001604100000002,52.5931714],[12.0029888,52.5961659],[12.0032858,52.596923000000004],[12.003877800000001,52.598749100000006],[12.004051800000001,52.6002638],[12.003979200000002,52.6015712],[12.0034519,52.604857100000004],[12.0030657,52.607384700000004],[12.003150600000001,52.60937680000001],[12.003651900000001,52.611536400000006],[12.005113900000001,52.6148856],[12.0052517,52.6152013],[12.006137800000001,52.618251900000004],[12.0064153,52.621051300000005],[12.006240400000001,52.624461800000006],[12.0061195,52.626221300000005],[12.006266,52.6272716],[12.0068069,52.6287631],[12.0082284,52.6307016],[12.0090581,52.631841400000006],[12.0110501,52.633769400000006],[12.0126617,52.635577700000006],[12.014012500000002,52.6376689],[12.0147057,52.6392894],[12.0155565,52.6418417],[12.0158378,52.6444319],[12.015637,52.6466214],[12.014608200000001,52.64998670000001],[12.012752,52.6533603],[12.0114441,52.6562604],[12.010752400000001,52.658992100000006],[12.010588,52.660657400000005],[12.0106342,52.66230770000001],[12.0110755,52.665015100000005],[12.0122973,52.668420600000005],[12.013614400000002,52.6711966],[12.0145537,52.673436800000005],[12.014881500000001,52.675899400000006],[12.0146016,52.6786316],[12.0144126,52.6801887],[12.014509,52.681602000000005],[12.015064800000001,52.683104500000006],[12.0159277,52.684650600000005],[12.017728900000002,52.6864592],[12.020075,52.68857920000001],[12.022406400000001,52.691228100000004],[12.024306200000002,52.69468560000001],[12.025119100000001,52.6971173],[12.0257453,52.6991705],[12.026053000000001,52.701798000000004],[12.0260432,52.703819100000004],[12.025870300000001,52.7061347],[12.0254937,52.708828100000005],[12.025546100000001,52.7101392],[12.0255813,52.7110198],[12.026273600000001,52.713921500000005],[12.026739200000002,52.715051300000006],[12.027671600000001,52.7168797],[12.0296789,52.7191807],[12.0317795,52.720885200000005],[12.034964800000001,52.7227103],[12.0374549,52.7243757],[12.039299300000001,52.7262707],[12.0405203,52.728166],[12.0415539,52.730803300000005],[12.0422945,52.7332745],[12.0424159,52.7360059],[12.0420955,52.737812100000006],[12.041538800000001,52.7398773],[12.0410362,52.7417322],[12.040401800000001,52.744265500000004],[12.0403189,52.7465957],[12.0405309,52.7488869],[12.0408874,52.7503237],[12.0416336,52.7522736],[12.041716500000001,52.7541159],[12.0412374,52.755785800000005],[12.040431,52.757851800000005],[12.039254000000001,52.7600549],[12.0360788,52.764136],[12.0346218,52.7663006],[12.032916700000001,52.769548],[12.031954500000001,52.7721135],[12.0313967,52.7751281],[12.031338,52.7759385],[12.031490900000001,52.7791043],[12.032265800000001,52.7841468],[12.032834000000001,52.786077600000006],[12.0334813,52.788501200000006],[12.0335517,52.790093500000005],[12.033257500000001,52.7912709],[12.032320700000001,52.7931712],[12.030298100000001,52.79643960000001],[12.0279322,52.798532900000005],[12.026492000000001,52.800414],[12.0258675,52.801526200000005],[12.025159100000002,52.803510700000004],[12.0247215,52.807915200000004],[12.023612900000002,52.8104042],[12.021745600000001,52.813690900000005],[12.0215793,52.815389],[12.0221078,52.8169174],[12.023007400000001,52.818484600000005],[12.023616700000002,52.8192901],[12.0236554,52.819334600000005],[12.0241965,52.8199571],[12.0269299,52.822143800000006],[12.0282247,52.8231909],[12.0289605,52.824382],[12.0299194,52.8255956],[12.031784,52.826961600000004],[12.0365468,52.8305146],[12.038469300000001,52.832449000000004],[12.0398112,52.834623300000004],[12.040367700000001,52.835853900000004],[12.0408541,52.8372265],[12.041859700000002,52.840336]]}},{"type":"Feature","properties":{"osmType":"way","osmId":4607035,"name":"Elbe","waterway":"river"},"geometry":{"type":"LineString","coordinates":[[11.7670024,52.3110487],[11.768626900000001,52.3124106],[11.7707508,52.313667900000006],[11.7709814,52.3137647],[11.774089400000001,52.3150696],[11.778475,52.316907],[11.7820911,52.318746700000005],[11.784953000000002,52.3207272],[11.785339200000001,52.32102810000001],[11.786889,52.3223247],[11.788073,52.323425300000004],[11.791857100000001,52.327396400000005],[11.792963700000001,52.328706700000005],[11.7944414,52.330254700000005],[11.7964564,52.331654300000004],[11.79917,52.333015200000006],[11.8022483,52.3341167],[11.804118,52.3345046],[11.806170300000002,52.3348176],[11.809135300000001,52.3350644],[11.8127183,52.334970000000006],[11.8165545,52.3345107],[11.818844400000001,52.3341112],[11.8210137,52.3336544],[11.824950000000001,52.332494100000005],[11.829968500000001,52.3307067],[11.8322125,52.3302065],[11.8344731,52.329921000000006],[11.8385677,52.3296355],[11.841314500000001,52.329630800000004],[11.844508300000001,52.3298378],[11.847073700000001,52.330231000000005],[11.8508657,52.331067600000004],[11.854098800000001,52.3320918],[11.8584347,52.333759400000005],[11.860194,52.33457670000001],[11.863129800000001,52.3360142],[11.867353000000001,52.3385424],[11.8705555,52.340938900000005],[11.8726351,52.3426449],[11.8753025,52.34410870000001],[11.8783414,52.3454544],[11.881818200000001,52.3467375],[11.887355300000001,52.3484874],[11.8900325,52.349189200000005],[11.892194100000001,52.3496497],[11.895145600000001,52.3506912],[11.897417800000001,52.351702100000004],[11.9000749,52.353182700000005],[11.9019306,52.3543856],[11.903777000000002,52.3558973],[11.9052486,52.3574816],[11.9067646,52.3595976],[11.907531700000002,52.3615903],[11.9082153,52.3662891],[11.908438,52.367844700000006],[11.909206200000002,52.3692374],[11.910650100000002,52.3705049],[11.9126703,52.3716142],[11.9161066,52.3724946],[11.9175728,52.3727019],[11.920717900000001,52.3730313],[11.9230969,52.373026800000005],[11.9285376,52.3724512],[11.9323919,52.372337200000004],[11.9354318,52.3727066],[11.9370221,52.373123400000004],[11.938343300000001,52.373578],[11.940298100000001,52.374705000000006],[11.941289600000001,52.3756768],[11.942155600000001,52.37695780000001],[11.942226100000001,52.378258900000006],[11.9416396,52.379632],[11.9409141,52.380691500000005],[11.939555200000001,52.382022000000006],[11.9374249,52.3832487],[11.933879000000001,52.384476600000006],[11.932610400000002,52.3848932],[11.930652400000001,52.3856479],[11.9289245,52.3866104],[11.927772200000001,52.387963600000006],[11.9272866,52.3894518],[11.9276706,52.390921500000005],[11.928376400000001,52.391958200000005],[11.9293031,52.3927114],[11.931924,52.3940952],[11.9351958,52.395409900000004],[11.939036100000001,52.396593200000005],[11.9421081,52.3973091],[11.9457398,52.3979099],[11.949435800000002,52.398149100000005],[11.9523284,52.3982259],[11.9542306,52.3983306],[11.9568258,52.3986966],[11.9595926,52.399382900000006],[11.962153800000001,52.4004203],[11.9640407,52.4015028],[11.965625300000001,52.402674000000005],[11.9677529,52.4046183],[11.969779500000001,52.407209900000005],[11.971122300000001,52.409761700000004],[11.9727128,52.413198],[11.9743274,52.4166049],[11.9755862,52.418747],[11.977187500000001,52.4204062],[11.9786693,52.421494],[11.982295500000001,52.423336500000005],[11.986883800000001,52.4253075],[11.988462700000001,52.4262566],[11.9899409,52.4274537],[11.9915949,52.4291337],[11.992218000000001,52.4299485],[11.9931365,52.431149700000006],[11.9940701,52.433198600000004],[11.994511200000002,52.434758300000006],[11.9946541,52.4360489],[11.994618000000001,52.437698100000006],[11.994133900000001,52.439259400000005],[11.9923473,52.4448675],[11.992291400000001,52.4467532],[11.9928036,52.44843710000001],[11.993768800000002,52.4504747],[11.9957165,52.4528678],[11.9966462,52.453688500000005],[12.000075200000001,52.4562491],[12.0012494,52.4574501],[12.002187900000001,52.4589447],[12.0026658,52.460287400000006],[12.002510000000001,52.461696700000005],[12.0020456,52.4626055],[12.0011171,52.463844200000004],[11.9999806,52.465130200000004],[11.997977800000001,52.4666809],[11.9939912,52.4690621],[11.9913754,52.4704496],[11.9894768,52.47154260000001],[11.9887765,52.473002300000005],[11.987273,52.475085500000006],[11.986453500000001,52.476531],[11.985794,52.47871850000001],[11.9855236,52.4790694],[11.9854611,52.4800186],[11.9852781,52.481783300000004],[11.9854816,52.4843884],[11.985604,52.485611000000006],[11.9857961,52.4868912],[11.9858235,52.488075],[11.9856721,52.490087900000006],[11.985477000000001,52.492031000000004],[11.9847508,52.4943855],[11.983481900000001,52.496340800000006],[11.981440000000001,52.498893200000005],[11.9780131,52.502611900000005],[11.974948300000001,52.5053591],[11.9735714,52.5065183],[11.970921200000001,52.50818700000001],[11.968992400000001,52.5091704],[11.9684384,52.509439],[11.967112,52.510100900000005],[11.963916900000001,52.511511500000005],[11.961875800000001,52.5128101],[11.960601700000002,52.514219100000005],[11.959612,52.5166046],[11.959421500000001,52.518585200000004],[11.9599702,52.5206614],[11.961291500000002,52.5227865],[11.9625818,52.524098300000006],[11.964147200000001,52.5252412],[11.967543200000001,52.5274427],[11.9719707,52.529820900000004],[11.9747426,52.531680200000004],[11.976832700000001,52.5332744],[11.9781963,52.5345917],[11.979206300000001,52.5359325]]}},{"type":"Feature","properties":{"osmType":"way","osmId":4942313,"name":"Elbe","waterway":"river"},"geometry":{"type":"LineString","coordinates":[[11.989864800000001,51.90193300000001],[11.987190100000001,51.9035225],[11.9844676,51.9050596],[11.981684600000001,51.90638190000001],[11.9745942,51.90909550000001],[11.973246300000001,51.9097104],[11.9724059,51.9101846],[11.970995,51.91108860000001],[11.969572600000001,51.9124027],[11.968433500000002,51.913794900000006],[11.9676229,51.915607],[11.967214,51.917858300000006],[11.9672078,51.918453500000005],[11.9672403,51.9191512],[11.9675451,51.9212355],[11.967723600000001,51.9222849],[11.9675618,51.922914000000006],[11.967398000000001,51.9235508],[11.9668302,51.9246154],[11.9652987,51.926154700000005],[11.9640147,51.9269991],[11.9621358,51.928082],[11.9600085,51.929006900000005],[11.956471500000001,51.9300246],[11.9512733,51.9312121],[11.949723200000001,51.9316346],[11.948313800000001,51.9321478],[11.9472526,51.932673900000005],[11.945813800000002,51.9334463],[11.9433316,51.9352231],[11.9409656,51.9375264],[11.9396134,51.9392542]]}},{"type":"Feature","properties":{"osmType":"way","osmId":4942355,"name":"Elbe","waterway":"river"},"geometry":{"type":"LineString","coordinates":[[12.153056000000001,51.8742632],[12.151860800000001,51.874183],[12.1501066,51.8740041],[12.149910400000001,51.8739841],[12.1479967,51.87364650000001],[12.143225500000002,51.872775000000004],[12.137745200000001,51.871988900000005],[12.1314202,51.871209400000005],[12.127536000000001,51.8708485],[12.123366800000001,51.870709000000005],[12.1204999,51.870876],[12.1157163,51.8715228],[12.114238,51.87172],[12.112732800000002,51.8717611],[12.108891600000002,51.8716026],[12.106525900000001,51.871443000000006],[12.1041637,51.871062800000004],[12.0992797,51.870095400000004],[12.0947575,51.86939],[12.093429,51.869164500000004],[12.092162400000001,51.8688233],[12.081708,51.8653648],[12.0753418,51.8636643],[12.0717757,51.8627558],[12.0708546,51.862476400000006],[12.0686575,51.8614302],[12.0673101,51.860897],[12.0647567,51.8602495],[12.060155700000001,51.8593161],[12.057622700000001,51.858956600000006],[12.056725400000001,51.858829300000004],[12.054898300000001,51.858622600000004],[12.0518236,51.858522400000005],[12.0493252,51.858614800000005],[12.0448509,51.8590025],[12.0406136,51.860049100000005],[12.037772200000001,51.860458200000004],[12.0340573,51.8611002],[12.031555200000001,51.861556900000004],[12.028521300000001,51.862107300000005],[12.0267043,51.8625297],[12.024994600000001,51.863009500000004],[12.023263700000001,51.8635783],[12.0221327,51.8640636],[12.0213649,51.864526700000006],[12.0203898,51.865482300000004],[12.019379,51.8666623],[12.018574800000001,51.8680475],[12.018255400000001,51.8691508],[12.0181863,51.8700154],[12.018419600000001,51.8711975],[12.0192341,51.8746184],[12.0201794,51.8763288],[12.020434400000001,51.8771665],[12.020555900000002,51.8780255],[12.0205248,51.878958600000004],[12.0203968,51.879794800000006],[12.018903400000001,51.883321800000004],[12.017884800000001,51.884819],[12.016088,51.8865549],[12.014200800000001,51.8881644],[12.012164100000001,51.889540200000006],[12.011447800000001,51.889936600000006],[12.0104973,51.890543400000006],[12.0056922,51.8928038],[11.9981858,51.8970506],[11.995049000000002,51.8989084],[11.989864800000001,51.90193300000001]]}},{"type":"Feature","properties":{"osmType":"way","osmId":4942467,"name":"Elbe","waterway":"river"},"geometry":{"type":"LineString","coordinates":[[12.6917887,51.8555337],[12.689361600000002,51.8558456],[12.686942100000001,51.856343],[12.684862800000001,51.857048500000005],[12.681164,51.8584441],[12.678845800000001,51.8597047],[12.6774891,51.8604253],[12.675973200000001,51.86112850000001],[12.674980600000001,51.8614716],[12.672753400000001,51.862118800000005],[12.6718404,51.8623157],[12.6699237,51.862596],[12.6684291,51.862619800000004],[12.6667091,51.862534000000004],[12.6657004,51.8623543],[12.6643462,51.862131600000005],[12.6628608,51.8617293],[12.6611173,51.8611451],[12.660002800000001,51.8606509],[12.658503300000001,51.8599387],[12.6573884,51.859434500000006],[12.6556633,51.8587013],[12.6537369,51.8580538],[12.651901500000001,51.8574933],[12.6511633,51.8573511],[12.6497612,51.857118],[12.6491699,51.8570773],[12.648401300000002,51.8570714],[12.646195200000001,51.85697630000001],[12.644474500000001,51.8571487],[12.642337300000001,51.857344600000005],[12.640229300000001,51.8576495],[12.634126400000001,51.8586219],[12.6290805,51.85949900000001],[12.6261197,51.859986500000005],[12.6235101,51.8606258],[12.6204482,51.861335600000004],[12.616937700000001,51.8621002],[12.6146729,51.862473900000005],[12.6144633,51.8624895],[12.612509600000001,51.862634500000006],[12.610677500000001,51.8626188],[12.6086171,51.862432000000005],[12.606454900000001,51.862031],[12.6051395,51.861694400000005],[12.6038031,51.86125800000001],[12.6023885,51.8607292],[12.601327300000001,51.860115300000004],[12.600278300000001,51.859273400000006],[12.598678600000001,51.8576344],[12.597450400000001,51.8565186],[12.5963302,51.8559624],[12.5953815,51.855629300000004],[12.594106700000001,51.8553056],[12.592802,51.8551322],[12.591943,51.855082200000005],[12.590871700000001,51.8551347],[12.5895565,51.8552941],[12.588537200000001,51.8555908],[12.587291200000001,51.8561476],[12.585920300000002,51.856959800000006],[12.5853152,51.8576764],[12.5847563,51.858459100000005],[12.5843626,51.859462400000005],[12.5838798,51.860913200000006],[12.583382100000001,51.862802900000005],[12.5831315,51.8635353],[12.582719500000001,51.864287100000006],[12.581972400000001,51.8652299],[12.581384400000001,51.865832100000006],[12.5810817,51.866105000000005],[12.580274800000002,51.866769000000005],[12.579277800000002,51.8673481],[12.578597400000001,51.867568600000006],[12.5778488,51.867730200000004]]}},{"type":"Feature","properties":{"osmType":"way","osmId":4942468,"name":"Elbe","waterway":"river"},"geometry":{"type":"LineString","coordinates":[[12.805019300000001,51.736858100000006],[12.8063167,51.738683900000005],[12.807767400000001,51.740297500000004],[12.8090217,51.7414095],[12.8106947,51.7426328],[12.812535200000001,51.7438128],[12.814785700000002,51.745034100000005],[12.8166276,51.745813500000004],[12.8186067,51.746580200000004],[12.820029400000001,51.747178000000005],[12.821449900000001,51.747865000000004],[12.8224125,51.7484782],[12.8231728,51.7491922],[12.823625000000002,51.749928000000004],[12.8238306,51.750671600000004],[12.8238471,51.751469400000005],[12.8236377,51.75217730000001],[12.823159700000001,51.753059500000006],[12.822560600000001,51.75369250000001],[12.821787700000002,51.754317500000006],[12.8183658,51.757068100000005],[12.8161,51.758659900000005],[12.8141367,51.7597815],[12.812074800000001,51.760844000000006],[12.810704800000002,51.761829000000006],[12.8082139,51.7645253],[12.8070579,51.767763300000006],[12.806996100000001,51.769112],[12.807507500000002,51.771145700000005],[12.808705600000001,51.77511440000001],[12.8084836,51.777061200000006],[12.8078649,51.777920400000006],[12.8068132,51.778824300000004],[12.8032046,51.782050600000005],[12.8025558,51.785133200000004],[12.8027136,51.785952],[12.804073,51.78858],[12.804769400000001,51.789635200000006],[12.8071373,51.793223100000006],[12.8072984,51.794446400000005],[12.807335,51.7956975],[12.807627400000001,51.800842300000006],[12.8086535,51.8033227],[12.810554000000002,51.806859800000005],[12.813241900000001,51.811861900000004],[12.814549000000001,51.8134962],[12.815843600000001,51.814652300000006],[12.8168077,51.8151359],[12.817216700000001,51.815294200000004],[12.8183556,51.815659000000004],[12.819811900000001,51.8158949],[12.824573000000001,51.8162923],[12.830649900000001,51.8166814],[12.832408800000001,51.816898900000005],[12.8337611,51.817293500000005],[12.834654400000002,51.817696500000004],[12.8356863,51.8183658],[12.836388600000001,51.8190644],[12.8367935,51.81961930000001],[12.836830800000001,51.8197021],[12.8369838,51.820091500000004],[12.8371331,51.8207844],[12.8369794,51.821996000000006],[12.8367278,51.8227075],[12.8361745,51.823504],[12.835708200000001,51.8240045],[12.834799,51.824745500000006],[12.833346,51.82535],[12.831753500000001,51.8257885],[12.830930500000001,51.825964000000006],[12.8294194,51.826188900000005],[12.828368000000001,51.826256],[12.8261371,51.826281300000005],[12.8250484,51.8263784],[12.8223652,51.8264058],[12.820312000000001,51.826344600000006],[12.814928400000001,51.8264171]]}},{"type":"Feature","properties":{"osmType":"way","osmId":4942469,"name":"Elbe","waterway":"river"},"geometry":{"type":"LineString","coordinates":[[12.9374351,51.64481850000001],[12.9358836,51.646266100000005],[12.9356279,51.646469100000004],[12.9343356,51.647459000000005],[12.9323955,51.648451],[12.929353500000001,51.6495789],[12.9282538,51.649864900000004],[12.926509300000001,51.6501339],[12.924042400000001,51.6501552],[12.9219269,51.6499437],[12.919461100000001,51.64956960000001],[12.9171049,51.648965100000005],[12.915454200000001,51.648436200000006],[12.9126761,51.647548300000004],[12.910492900000001,51.646963400000004],[12.9079739,51.646413200000005],[12.9062888,51.646108000000005],[12.904541,51.645958900000004],[12.9029424,51.6459556],[12.901838300000001,51.6460876],[12.900496200000001,51.646334],[12.8988694,51.646889],[12.897435300000001,51.647537400000004],[12.8960653,51.64838760000001],[12.895361600000001,51.648937000000004],[12.895335800000002,51.648961500000006],[12.894928100000001,51.649303800000006],[12.8939746,51.6504234],[12.8933943,51.651537100000006],[12.8930615,51.652699600000005],[12.892839200000001,51.654641100000006],[12.893077100000001,51.655987800000005],[12.8936381,51.6574043],[12.8952161,51.659857],[12.896008100000001,51.6613636],[12.896157400000002,51.662291700000004],[12.896070100000001,51.663105300000005],[12.8955116,51.664138400000006],[12.894663300000001,51.6649133],[12.892713,51.6660388],[12.8912513,51.6666795],[12.8895976,51.6672809],[12.887703,51.6677206],[12.886287000000001,51.667891000000004],[12.884869700000001,51.667966400000005],[12.883068600000001,51.66783890000001],[12.880847800000002,51.667525600000005],[12.879036500000002,51.6670651],[12.8774513,51.666467600000004],[12.874296800000002,51.665171400000006]]}},{"type":"Feature","properties":{"osmType":"way","osmId":26006020,"name":"Elbe","waterway":"river"},"geometry":{"type":"LineString","coordinates":[[11.958717400000001,52.8816076],[11.9559271,52.8841509],[11.9528633,52.8861817],[11.9498802,52.887684],[11.946755000000001,52.8888632],[11.9434754,52.8897148],[11.9395348,52.890399900000006],[11.9344116,52.8912138],[11.9296842,52.8917215],[11.9247735,52.8919718],[11.9180381,52.891955100000004],[11.9115269,52.891678500000005],[11.9098705,52.8916088],[11.907243600000001,52.8917967],[11.9044529,52.89212920000001],[11.900689600000002,52.8925543],[11.897515100000001,52.8930707],[11.895105200000001,52.8936976],[11.891713300000001,52.8947839],[11.8886982,52.896142000000005],[11.885898300000001,52.8978406],[11.8837624,52.8997577],[11.880795800000001,52.902852200000005],[11.879373600000001,52.9054561],[11.878827800000002,52.906252],[11.8767271,52.90771530000001],[11.8755313,52.908362200000006],[11.8724588,52.9094794]]}},{"type":"Feature","properties":{"osmType":"way","osmId":26178264,"name":"Elbe","waterway":"river"},"geometry":{"type":"LineString","coordinates":[[11.5974149,53.035706600000005],[11.5946692,53.035186200000005],[11.5920632,53.0348746],[11.5887147,53.034773],[11.5854415,53.03503430000001],[11.583682600000001,53.035302300000005],[11.5807274,53.0359726],[11.577654800000001,53.037143400000005],[11.5747549,53.0381647],[11.5709152,53.0392146],[11.567852,53.0401382],[11.564887200000001,53.041155200000006]]}},{"type":"Feature","properties":{"osmType":"way","osmId":30613639,"name":"Elbe","waterway":"river"},"geometry":{"type":"LineString","coordinates":[[11.669922900000001,52.1519246],[11.671452700000001,52.1529389],[11.672582700000001,52.1536862],[11.6728704,52.153887000000005],[11.6736372,52.154389300000005],[11.6753876,52.155834500000005],[11.676513,52.15689690000001],[11.6775509,52.158002],[11.678714600000001,52.1596787],[11.6794268,52.1609564],[11.6798979,52.161801700000005],[11.680721100000001,52.163988200000006],[11.6812822,52.1672353],[11.681731200000002,52.170749900000004],[11.681976500000001,52.1726943],[11.6823311,52.1755043],[11.6826632,52.1774149],[11.682833700000002,52.17839540000001],[11.6830321,52.179233700000005],[11.6831888,52.1797186],[11.683675000000001,52.1812327],[11.6843961,52.1827442],[11.685363,52.18464590000001],[11.6865707,52.186443700000005],[11.687985000000001,52.1882402],[11.6894316,52.1898143],[11.690049700000001,52.1903869],[11.6920091,52.192202],[11.6927541,52.192756700000004],[11.6941992,52.1938327],[11.6951853,52.194566900000005],[11.696258700000001,52.195250400000006],[11.696764400000001,52.195572500000004],[11.699424,52.197107100000004],[11.7023148,52.19855080000001],[11.7085951,52.200969400000005],[11.7098592,52.201547500000004],[11.711358800000001,52.2024528],[11.7134899,52.204514200000006],[11.7143253,52.2064041],[11.7143473,52.2065239],[11.7144233,52.2085389],[11.714433900000001,52.20882],[11.7140213,52.2101382],[11.713535,52.210995700000005],[11.713309,52.2113943],[11.7122191,52.2125008],[11.711624400000002,52.2128966],[11.7083232,52.2150934],[11.7070351,52.216396800000005],[11.7069039,52.2165296],[11.7060729,52.217489],[11.705407800000001,52.218494400000004],[11.705155300000001,52.2189727],[11.704735600000001,52.2197675],[11.70439,52.2207482],[11.7042547,52.2211319],[11.7036742,52.222737200000005],[11.703538100000001,52.223113500000004],[11.7033292,52.2239176],[11.7032395,52.224263],[11.7029852,52.225241700000005],[11.701478900000001,52.2298866],[11.701188,52.230659],[11.7011508,52.2308693],[11.701118000000001,52.231036200000005],[11.700247300000001,52.234045200000004],[11.699925100000002,52.235706900000004],[11.6999571,52.238124400000004],[11.700450700000001,52.2400236],[11.7011488,52.24184210000001],[11.701921500000001,52.2429762],[11.7029083,52.244094600000004],[11.7046766,52.245352600000004],[11.7075794,52.2466104],[11.7103859,52.2472373],[11.714105,52.247738700000006],[11.7173923,52.2481938],[11.7200497,52.2487663],[11.723116300000001,52.2496669],[11.727389200000001,52.2514769],[11.7283694,52.2519483],[11.730998300000001,52.2536252],[11.733289300000001,52.255507400000006],[11.735088500000002,52.2573408],[11.7362049,52.258743],[11.7372373,52.260564],[11.7381451,52.2624988],[11.7387484,52.2643853],[11.7408158,52.267293800000004],[11.742469300000002,52.2690661],[11.7444837,52.270668300000004],[11.7475395,52.2725949],[11.750185700000001,52.27421390000001],[11.7519215,52.275299700000005],[11.753180700000001,52.2763344],[11.7542492,52.277532],[11.7555691,52.2794466],[11.756215000000001,52.2809168],[11.756647000000001,52.2822784],[11.7571767,52.2842664],[11.7583753,52.2862682],[11.761813,52.290522900000006],[11.761992000000001,52.2907729],[11.7630599,52.2920141],[11.764111100000001,52.293431600000005],[11.764954600000001,52.2948223],[11.7655665,52.2963638],[11.7657187,52.297853100000005],[11.7654644,52.299199400000006],[11.764529600000001,52.302221800000005],[11.7642442,52.3033968],[11.764110500000001,52.3045387],[11.7640825,52.3057292],[11.764369400000001,52.307076300000006],[11.764805500000001,52.308201100000005],[11.7655855,52.309434100000004],[11.7670024,52.3110487]]}},{"type":"Feature","properties":{"osmType":"way","osmId":103385972,"name":"Elbe","waterway":"river"},"geometry":{"type":"LineString","coordinates":[[11.681061600000001,53.006182300000006],[11.679035500000001,53.0076922],[11.6774901,53.008504800000004],[11.6761768,53.0089783],[11.6746704,53.0094665],[11.6728228,53.0098174],[11.670038900000002,53.0101687],[11.6673623,53.0101658],[11.664289100000001,53.00979220000001],[11.6605632,53.0088097],[11.657117000000001,53.007721800000006],[11.655727800000001,53.00716490000001],[11.652659600000002,53.005803400000005],[11.650452900000001,53.0051398],[11.647524500000001,53.0048113],[11.644340000000001,53.0048174],[11.6413907,53.0051045],[11.63912,53.005478700000005],[11.636468800000001,53.0061399],[11.633868000000001,53.006998100000004],[11.631574200000001,53.0080493],[11.6293327,53.0093072],[11.6281537,53.0101239],[11.626005200000002,53.011946],[11.624678300000001,53.0139505],[11.6240795,53.0157801],[11.624156300000001,53.0175866],[11.6244993,53.01899160000001],[11.625909400000001,53.021397400000005],[11.627707200000001,53.023340600000004],[11.6325357,53.026737700000005],[11.6353682,53.0286337],[11.6366504,53.0292412],[11.6385251,53.0300298],[11.6400518,53.030813],[11.6413683,53.031930700000004],[11.6419964,53.032773500000005],[11.642355700000001,53.033602900000005],[11.642558300000001,53.034803100000005],[11.642204300000001,53.036654000000006],[11.6414773,53.037871100000004],[11.640165000000001,53.0388627],[11.6387909,53.0396305],[11.634793400000001,53.040940500000005],[11.6312888,53.0417124],[11.6275331,53.042135900000005],[11.6249008,53.0422177],[11.6222259,53.0421397],[11.6197453,53.041914600000005],[11.6175186,53.041651200000004],[11.6129727,53.040716800000006],[11.609310800000001,53.039581000000005],[11.6057684,53.038554100000006],[11.6032379,53.037690000000005],[11.5974149,53.035706600000005]]}},{"type":"Feature","properties":{"osmType":"way","osmId":169134581,"name":"Elbe","waterway":"river"},"geometry":{"type":"LineString","coordinates":[[11.9396134,51.9392542],[11.9376023,51.9424301],[11.9362379,51.9440194],[11.934519700000001,51.945544700000006],[11.9312828,51.947398],[11.928101300000002,51.94952],[11.9259894,51.9507622],[11.9243828,51.9517456],[11.921956600000001,51.9526796],[11.918907,51.953577100000004],[11.917519,51.954026600000006],[11.9157437,51.954743],[11.914265,51.955436600000006],[11.9117951,51.9566339],[11.9107958,51.957262400000005],[11.9090913,51.958516800000005],[11.9080177,51.9594438],[11.9075465,51.9599947],[11.903979000000001,51.9642126],[11.901632900000001,51.966429000000005],[11.898736600000001,51.968626],[11.897355500000002,51.9692342],[11.896540900000002,51.969710000000006],[11.894560400000001,51.9709804],[11.894221400000001,51.9711797],[11.892898,51.9719259],[11.8917674,51.9725103],[11.890732300000002,51.97308700000001],[11.890125600000001,51.973455],[11.8901125,51.973463100000004],[11.888926000000001,51.9742181],[11.8883411,51.974622700000005],[11.8864987,51.9761308],[11.885662900000002,51.97693640000001],[11.885090600000002,51.9777032],[11.8846544,51.978606500000005],[11.884248000000001,51.9796059],[11.883927400000001,51.9809095],[11.883733900000001,51.983507100000004],[11.88371,51.986392200000004],[11.8838954,51.988100800000005],[11.8845671,51.990317700000006],[11.8848195,51.990998700000006],[11.886465000000001,51.994657100000005],[11.8869302,51.99517590000001],[11.8896063,51.9983433],[11.890524000000001,51.9998888],[11.891503400000001,52.0021253],[11.8917009,52.003728900000006],[11.891663000000001,52.0055107],[11.8914395,52.006921600000005],[11.891108500000001,52.00810310000001],[11.890383400000001,52.0097351],[11.8897285,52.0108102],[11.889087400000001,52.011648],[11.8883913,52.012448000000006],[11.8868165,52.013983800000005],[11.8855679,52.0149613],[11.884538500000001,52.0158829],[11.8832093,52.0171441],[11.882009100000001,52.0187771],[11.881137,52.020228800000005],[11.880144300000001,52.021893500000004],[11.8794272,52.0228735],[11.878483600000001,52.023715300000006],[11.8769419,52.024829700000005],[11.8753446,52.025620700000005],[11.873350100000001,52.0262509],[11.871455300000001,52.0267106],[11.868193600000001,52.027006300000004],[11.865560400000001,52.0269209],[11.8632965,52.026584500000006],[11.861524000000001,52.0261372],[11.8600629,52.0256241],[11.858585900000001,52.025009100000005],[11.857393100000001,52.0244298],[11.8563261,52.0237707],[11.8547936,52.0226411],[11.853500200000001,52.02139390000001],[11.8525542,52.019971500000004],[11.8510202,52.016352700000006],[11.849937200000001,52.014080400000005],[11.849068500000001,52.012948200000004],[11.8488026,52.0126952],[11.847566,52.011518300000006],[11.8458324,52.010358800000006],[11.842770100000001,52.0091856],[11.8417145,52.008921900000004],[11.8400996,52.0085989],[11.838526100000001,52.0083952],[11.8356375,52.008355800000004],[11.833411600000002,52.0084802],[11.828221000000001,52.0087793],[11.8245594,52.009265000000006],[11.8202242,52.0101451],[11.817299400000001,52.010924800000005],[11.8144647,52.011845],[11.810276700000001,52.013468100000004],[11.808872800000001,52.0141616],[11.807686200000001,52.0148736],[11.8059928,52.016078300000004],[11.8049119,52.0170832],[11.803959,52.018191400000006],[11.8032293,52.019333100000004],[11.8022161,52.021436400000006],[11.8014968,52.022800600000004],[11.8004949,52.024571800000004],[11.798869700000001,52.0265549],[11.7981385,52.027345600000004],[11.7973327,52.02804810000001],[11.795987100000001,52.029295100000006],[11.7948047,52.0302146],[11.7932497,52.031112400000005],[11.7916887,52.0318613],[11.790098500000001,52.032363600000004],[11.7883774,52.0327515],[11.786621700000001,52.033008200000005],[11.784060400000001,52.0331556],[11.7813543,52.0329891],[11.779163200000001,52.0326096],[11.777434000000001,52.0322182],[11.7761587,52.0317616],[11.7743421,52.0309803],[11.772551700000001,52.030059800000004],[11.770323600000001,52.028916300000006],[11.7685031,52.027789000000006],[11.765225800000001,52.0257506],[11.763415100000001,52.024841900000006],[11.762447400000001,52.0244538],[11.761183200000001,52.0239338],[11.759136300000002,52.0233033],[11.7573699,52.0229252],[11.7553598,52.022572700000005],[11.752940200000001,52.0223151],[11.7494338,52.022288],[11.7471242,52.02243300000001],[11.745546000000001,52.0225835],[11.7426011,52.0231812],[11.7386952,52.0243333],[11.735513800000001,52.025380600000005],[11.7340111,52.0260727],[11.7328604,52.0266328],[11.7314261,52.0275151],[11.7294753,52.028948400000004],[11.727706300000001,52.030326],[11.7254929,52.032004900000004],[11.7236043,52.0332275],[11.720990800000001,52.034676600000004],[11.714112,52.0376355],[11.7136068,52.0379152],[11.711371000000002,52.039240500000005],[11.709312800000001,52.0410417],[11.707908000000002,52.042199100000005],[11.705810000000001,52.0437391],[11.704548,52.044533200000004],[11.701757500000001,52.046126900000004],[11.6980214,52.047929700000005],[11.6948927,52.0492542],[11.6931635,52.0503039],[11.691416100000001,52.051801700000006],[11.6898476,52.054197800000004],[11.688067,52.056344],[11.686525000000001,52.0583405],[11.6837839,52.062254300000006],[11.6824893,52.064034500000005],[11.6806444,52.06657130000001],[11.6805251,52.0667606],[11.679354,52.0685305],[11.6782295,52.070730600000005],[11.677241800000001,52.07308080000001],[11.676567100000002,52.075234800000004],[11.675889300000001,52.0784753],[11.6757065,52.0808279],[11.6759029,52.082622400000005],[11.676202900000002,52.0842016],[11.676692500000001,52.0858627],[11.6769935,52.08686530000001],[11.6771603,52.0875027],[11.6777756,52.0895998],[11.6779557,52.0910852],[11.6778285,52.092166600000006],[11.6774687,52.093167900000005],[11.6768409,52.094395600000006],[11.6757945,52.0957713],[11.673884000000001,52.0981364],[11.6726457,52.0993277],[11.6703574,52.101021700000004],[11.668048,52.1023604],[11.664478200000001,52.103905700000006],[11.662123600000001,52.1047038],[11.6607195,52.1050661]]}},{"type":"Feature","properties":{"osmType":"way","osmId":753101432,"name":"Elbe","waterway":"river"},"geometry":{"type":"LineString","coordinates":[[12.874296800000002,51.665171400000006],[12.8729986,51.664703900000006],[12.8714323,51.6643185],[12.8692405,51.663947300000004],[12.8676463,51.663834200000004],[12.8659622,51.66389830000001],[12.8629695,51.6641643],[12.860292900000001,51.664678300000006],[12.8564471,51.665736700000004],[12.85448,51.6664163],[12.8528745,51.6670663],[12.850367100000001,51.6681472],[12.8480656,51.669381300000005],[12.845823000000001,51.671039],[12.844395400000002,51.672396500000005],[12.843119000000002,51.673866200000006],[12.842154200000001,51.675474400000006],[12.841617600000001,51.67716780000001],[12.841284300000002,51.67983400000001],[12.8415367,51.68158450000001],[12.842150100000001,51.683025],[12.8431195,51.6843498],[12.844717300000001,51.685707],[12.8478311,51.68801860000001],[12.848396800000002,51.688844100000004],[12.8488573,51.6902647],[12.8489319,51.6912181],[12.848715100000001,51.692446800000006],[12.8482243,51.6937203],[12.8478043,51.6948189],[12.8464319,51.697039600000004],[12.8453999,51.6986779],[12.844783600000001,51.7003232],[12.844703800000001,51.7006743],[12.844538700000001,51.702334500000006],[12.844549200000001,51.706237800000004],[12.844191200000001,51.7079807],[12.8437099,51.7088812],[12.843056,51.709681700000004],[12.8414967,51.71093990000001],[12.839875900000001,51.712001400000005],[12.837619700000001,51.7128786],[12.834555400000001,51.7136465],[12.8288696,51.7149793],[12.820689100000001,51.7171943],[12.818746800000001,51.7177665],[12.8157168,51.718704],[12.8150773,51.7188911],[12.8132488,51.719498800000004],[12.8110481,51.720414600000005],[12.808704700000002,51.7214916],[12.806858700000001,51.722574800000004],[12.805807600000001,51.723395100000005],[12.8048585,51.724377800000006],[12.803891700000001,51.72557380000001],[12.8031102,51.7269578],[12.8028458,51.7280104],[12.8027633,51.728849200000006],[12.802747400000001,51.730472000000006],[12.802843200000002,51.731782100000004],[12.8031734,51.7330732],[12.803891700000001,51.7349181],[12.804627900000002,51.736326700000006],[12.805019300000001,51.736858100000006]]}},{"type":"Feature","properties":{"osmType":"way","osmId":993518013,"name":"Elbe","waterway":"river"},"geometry":{"type":"LineString","coordinates":[[12.728834500000001,51.8424952],[12.7282015,51.842802000000006],[12.7262315,51.8438455],[12.724516900000001,51.844870400000005],[12.722725500000001,51.8460301],[12.720035900000001,51.847870300000004]]}},{"type":"Feature","properties":{"osmType":"way","osmId":993518014,"name":"Elbe","waterway":"river"},"geometry":{"type":"LineString","coordinates":[[12.720035900000001,51.847870300000004],[12.718818500000001,51.84868650000001],[12.7165218,51.850023],[12.714265900000001,51.851104500000005],[12.711466900000001,51.852288900000005],[12.708689600000001,51.8532061],[12.7062764,51.8538292],[12.7039036,51.854360400000004],[12.7012224,51.8547212],[12.6996166,51.8549428]]}},{"type":"Feature","properties":{"osmType":"way","osmId":993518015,"name":"Elbe","waterway":"river"},"geometry":{"type":"LineString","coordinates":[[12.6996166,51.8549428],[12.6979,51.8551525],[12.696155000000001,51.855307],[12.693618,51.855413000000006],[12.6917887,51.8555337]]}},{"type":"Feature","properties":{"osmType":"way","osmId":993518016,"name":"Elbe","waterway":"river"},"geometry":{"type":"LineString","coordinates":[[12.814928400000001,51.8264171],[12.809048800000001,51.826768400000006],[12.803913000000001,51.8277027],[12.800820000000002,51.828344],[12.7998531,51.828554100000005],[12.798827900000001,51.8288364],[12.795634900000001,51.829682000000005],[12.792953500000001,51.8304589],[12.790685700000001,51.831143600000004],[12.7893374,51.831461000000004],[12.787617000000001,51.8317588],[12.7847085,51.832225400000006],[12.782708000000001,51.8324342],[12.7803298,51.8324792],[12.7777487,51.832345200000006],[12.773217500000001,51.831805100000004],[12.7714032,51.831658000000004],[12.769456400000001,51.831664100000005],[12.7667771,51.8318238],[12.763673200000001,51.832320200000005],[12.7610098,51.833108300000006],[12.7594375,51.833733200000005],[12.757840400000001,51.834483000000006],[12.7562841,51.835390600000004],[12.755173800000001,51.8362357],[12.754049,51.837313800000004],[12.7529675,51.838971400000005],[12.752080300000001,51.839846],[12.7507508,51.8407301],[12.749397400000001,51.841382200000005],[12.7478333,51.841919000000004],[12.7460535,51.8422642],[12.744259000000001,51.842483900000005],[12.7422231,51.842472900000004],[12.740758600000001,51.842364100000005],[12.7394005,51.84208580000001],[12.737108000000001,51.8416556],[12.7354847,51.8414993],[12.734081000000002,51.841388300000006],[12.7326305,51.841412000000005],[12.7315105,51.841612500000004],[12.7301271,51.84197330000001],[12.728834500000001,51.8424952]]}},{"type":"Feature","properties":{"osmType":"way","osmId":1077727150,"name":"Elbe","waterway":"river"},"geometry":{"type":"LineString","coordinates":[[11.7479378,52.9881572],[11.7448026,52.988788400000004],[11.743302100000001,52.9889792],[11.7410282,52.98929570000001],[11.737613300000001,52.9893979],[11.735187900000001,52.989237800000005],[11.732798500000001,52.9889505],[11.7300088,52.988312900000004],[11.7274477,52.98754520000001],[11.7251369,52.986668200000004],[11.721019,52.9851583],[11.7183112,52.9833397],[11.7175901,52.983036600000005],[11.7138618,52.98174220000001],[11.7094679,52.980095000000006],[11.707976500000001,52.979718500000004],[11.705407600000001,52.979255],[11.704372800000002,52.9789121],[11.701068300000001,52.977644500000004],[11.6990344,52.9772103],[11.696267200000001,52.977227400000004],[11.6934863,52.977642200000005],[11.6902606,52.978686700000004],[11.6888673,52.9793856],[11.6870018,52.9807677],[11.684955500000001,52.9826702],[11.683681700000001,52.9845606],[11.682817400000001,52.986616700000006],[11.6824347,52.9885583],[11.6827292,52.9916622],[11.6831511,52.9929563],[11.6842815,52.9956207],[11.6848229,52.997475800000004],[11.684754900000001,52.9991792],[11.684481100000001,53.0003395],[11.6838119,53.001756900000004],[11.6832223,53.002982800000005],[11.682365800000001,53.0046649],[11.6817492,53.0054491],[11.681061600000001,53.006182300000006]]}}]}