{"type":"FeatureCollection","features":[{"type":"Feature","properties":{"osmType":"way","osmId":28851393,"name":"Fuhne","waterway":"river"},"geometry":{"type":"LineString","coordinates":[[11.934238500000001,51.64644740000001],[11.9340384,51.646414500000006],[11.9331139,51.6463333],[11.932224900000001,51.646252600000004],[11.9321406,51.646245300000004],[11.930182,51.6460754],[11.9267508,51.645792500000006],[11.9259561,51.64576640000001],[11.9244208,51.645727400000006],[11.9237426,51.6457945],[11.9231783,51.6459191],[11.9207867,51.6465423],[11.920321900000001,51.646667900000004],[11.920171700000001,51.6467043],[11.9163438,51.6477404],[11.9161012,51.647787],[11.915561100000001,51.647853100000006],[11.9140397,51.6479884],[11.913580000000001,51.648051],[11.9132692,51.648127300000006],[11.9131177,51.6481884],[11.9127211,51.6484219],[11.912109300000001,51.6487868],[11.9117478,51.648999],[11.9114877,51.6492075],[11.910868500000001,51.6497491],[11.909812,51.650655500000006],[11.909693800000001,51.650755200000006],[11.9091252,51.6512498],[11.9089006,51.651433700000005],[11.908820400000002,51.6515107],[11.9086999,51.6515902],[11.908647100000001,51.6516133],[11.9084532,51.651673200000005],[11.9078075,51.6517916],[11.9077373,51.6518092],[11.907667100000001,51.6518347],[11.907590800000001,51.6518821],[11.907521500000001,51.651954200000006],[11.9074693,51.652032500000004],[11.9073778,51.652188200000005],[11.9073056,51.652262],[11.907205600000001,51.652323700000004],[11.906516100000001,51.65263890000001],[11.905791,51.6529523],[11.903748400000001,51.6538514],[11.902624300000001,51.654433100000006],[11.902480200000001,51.6545039],[11.9023196,51.6545537],[11.901777800000001,51.6547021],[11.901342600000001,51.654822900000006],[11.900776800000001,51.654979600000004],[11.9001271,51.6551589],[11.899847600000001,51.6552542],[11.8996235,51.6553643],[11.899169500000001,51.655571900000005],[11.898971900000001,51.655661300000006],[11.898302600000001,51.6559645],[11.8977024,51.6562264],[11.897335,51.656392200000006],[11.8969523,51.656558100000005],[11.8966936,51.6566382],[11.896233400000002,51.656724800000006],[11.8954961,51.656815900000005],[11.895339700000001,51.656833500000005],[11.8951662,51.656863200000004],[11.8948698,51.656991700000006],[11.8944009,51.6572327],[11.894113800000001,51.6573866],[11.8938141,51.6576767],[11.8935224,51.658001600000006],[11.893444,51.658098800000005],[11.8933747,51.658236200000005],[11.8932211,51.658495200000004],[11.8930664,51.6589012],[11.8929231,51.65915630000001],[11.892753,51.6593621],[11.8926496,51.6595372],[11.8925458,51.659765400000005],[11.892506500000001,51.659826900000006],[11.8924669,51.659876700000005],[11.892410900000002,51.659907700000005],[11.8920692,51.659945300000004],[11.8918155,51.6599859],[11.891559,51.6600807],[11.890823200000002,51.660401300000004],[11.890251500000002,51.660635000000006],[11.8894794,51.660899],[11.888495,51.6612864],[11.888156700000001,51.661400500000006],[11.887893700000001,51.6614714],[11.887595000000001,51.6615144],[11.887427500000001,51.6615605],[11.887214400000001,51.661628300000004],[11.8871015,51.661714200000006],[11.8867892,51.66195870000001],[11.8863667,51.662303200000004],[11.8862214,51.662469900000005],[11.8859875,51.6628308],[11.885925400000001,51.663114900000004],[11.8859505,51.6635228],[11.8860205,51.663784400000004],[11.886042600000001,51.665313700000006],[11.8860275,51.6655827],[11.886026600000001,51.6655871],[11.8860053,51.6656908],[11.886000800000001,51.6656999],[11.8859087,51.66580870000001],[11.8858113,51.665917400000005],[11.8847947,51.666918],[11.8847199,51.667031800000004],[11.884552000000001,51.667159100000006],[11.8842973,51.667374300000006],[11.8836607,51.668044200000004],[11.883264200000001,51.6683685],[11.882593700000001,51.668916800000005],[11.8824512,51.6690155],[11.880883500000001,51.6703066],[11.8796245,51.6713193],[11.878970500000001,51.6718416],[11.877274,51.6731829],[11.876471700000002,51.6738118],[11.8761457,51.67407660000001],[11.875330700000001,51.6746764],[11.8743572,51.6754217],[11.8738902,51.6757422],[11.8736733,51.67589520000001],[11.873512700000001,51.675985700000005],[11.873257,51.676067800000006],[11.8728101,51.67616640000001],[11.872057700000001,51.676341400000005],[11.871265200000002,51.6765246],[11.871151600000001,51.6765625],[11.871122000000002,51.6766209],[11.8711184,51.676695300000006],[11.871102,51.6767686],[11.871069700000001,51.676793100000005],[11.8710327,51.676813200000005],[11.8709264,51.6768318],[11.87082,51.676845900000004],[11.870616,51.6768604],[11.870298700000001,51.67689480000001],[11.869834200000001,51.6769376],[11.869496400000001,51.67699270000001],[11.8692042,51.6770282],[11.8689133,51.677074100000006],[11.8683603,51.677125100000005],[11.8674855,51.677088100000006],[11.8674075,51.677120300000006],[11.867336600000002,51.6771942],[11.8672479,51.6773515],[11.866976600000001,51.6777128],[11.8668613,51.677849800000004],[11.8668382,51.677877300000006],[11.8667558,51.67797],[11.8665453,51.6781555],[11.8663463,51.6782746],[11.866145900000001,51.6783561],[11.8659719,51.6784339],[11.8659134,51.6784802],[11.8658737,51.678536],[11.865825000000001,51.678618500000006],[11.865745400000002,51.678704100000004],[11.86538,51.6789683],[11.865311700000001,51.6790613],[11.865279200000002,51.679112100000005],[11.865201,51.6792153],[11.865116400000002,51.679287],[11.865016,51.679347],[11.8645443,51.67950140000001],[11.864074100000002,51.6797255],[11.8637894,51.679832700000006],[11.863263,51.680001600000004],[11.8629516,51.680091000000004],[11.8627701,51.6801286],[11.8622805,51.6801626],[11.8617393,51.6801661],[11.8614989,51.6801704],[11.8603553,51.6802386],[11.859766,51.6803406],[11.8594547,51.6804184],[11.859201,51.6805036],[11.8589654,51.680564200000006],[11.857978500000002,51.6807126],[11.8577667,51.680751900000004],[11.857404500000001,51.6807888],[11.856734900000001,51.680782300000004],[11.856053500000002,51.680764800000006],[11.8555319,51.6807723],[11.8552955,51.6807807],[11.8550473,51.680786100000006],[11.854612900000001,51.680783600000005],[11.854318200000002,51.680770300000006],[11.8539841,51.6807134],[11.8536309,51.680678900000004],[11.853299600000001,51.6806756],[11.852994500000001,51.6806411],[11.8526719,51.6805943],[11.852306500000001,51.680520400000006],[11.851942900000001,51.6804902],[11.8516855,51.6804867],[11.8515824,51.680499000000005],[11.8513958,51.680520800000004],[11.851135300000001,51.680593900000005],[11.8508233,51.680747800000006],[11.850269800000001,51.6809956],[11.8500236,51.6811073],[11.849689600000001,51.6812813],[11.8492873,51.681459600000004],[11.849117300000001,51.681546600000004],[11.848879,51.6816456],[11.8487041,51.681697],[11.848373500000001,51.6818369],[11.8482187,51.68191770000001],[11.8481175,51.6819848],[11.847969800000001,51.682119500000006],[11.847878300000001,51.6821646],[11.8477604,51.6821914],[11.8475955,51.6821915],[11.847418300000001,51.682157700000005],[11.847234,51.682172200000004],[11.8466146,51.682277600000006],[11.8462919,51.6823306],[11.8457065,51.6824317],[11.8453725,51.6825236],[11.8450348,51.682586400000005],[11.844671100000001,51.6826468],[11.8439616,51.682700800000006],[11.843353800000001,51.6827729],[11.842956500000001,51.6828493],[11.842708100000001,51.6828766],[11.8424774,51.682873300000004],[11.8422684,51.682866600000004],[11.841849300000002,51.682907500000006],[11.8417027,51.682936500000004],[11.841406000000001,51.682931100000005],[11.8412121,51.6828949],[11.840940600000001,51.682825],[11.840827200000001,51.682853],[11.840536400000001,51.683060600000005],[11.8404275,51.6831011],[11.840054400000001,51.6832098],[11.839861200000001,51.6832374],[11.8396422,51.6832422],[11.839397400000001,51.683241900000006],[11.8392596,51.6832414],[11.8390678,51.6832724],[11.838831800000001,51.683354],[11.8385464,51.68344080000001],[11.8380281,51.68356970000001],[11.8374158,51.6836994],[11.837249900000002,51.6836974],[11.8370853,51.6836861],[11.8369649,51.6836892],[11.8363172,51.683885100000005],[11.836057400000001,51.6840138],[11.835901600000001,51.684063200000004],[11.8357088,51.684090000000005],[11.8355254,51.6841335],[11.835388700000001,51.68420690000001],[11.835016900000001,51.6844678],[11.8349147,51.6845695],[11.834659700000001,51.6848486],[11.834542200000001,51.684983900000006],[11.834442600000001,51.6852158],[11.8343301,51.6854413],[11.834244400000001,51.6855185],[11.834144,51.6855855],[11.8338227,51.685769500000006],[11.833640800000001,51.685856300000005],[11.8333013,51.685972500000005],[11.833115600000001,51.6860237],[11.8328947,51.6860439],[11.832722200000001,51.6860286],[11.8324425,51.6859595],[11.831961300000001,51.6858267],[11.831596900000001,51.685705500000005],[11.8313691,51.6855929],[11.8311893,51.685481300000006],[11.8307683,51.6852882],[11.830489400000001,51.68519860000001],[11.8300885,51.685134600000005],[11.8297529,51.685111600000006],[11.8294256,51.68508490000001],[11.829192,51.685048300000005],[11.8282655,51.684914000000006],[11.827892700000001,51.6848655],[11.8276918,51.684831800000005],[11.826555500000001,51.684681000000005],[11.8261886,51.6846492],[11.8261199,51.684652400000004],[11.825990500000001,51.6846772],[11.825514100000001,51.6848411],[11.825298100000001,51.6848941],[11.8250712,51.684927200000004],[11.824885400000001,51.684938700000004],[11.8247713,51.684928400000004],[11.8245958,51.684900500000005],[11.823922300000001,51.684755200000005],[11.823726500000001,51.6847325],[11.823424000000001,51.6847561],[11.823279300000001,51.684753],[11.8225455,51.684594100000005],[11.822344800000002,51.6845616],[11.822198,51.6845707],[11.8220472,51.684596400000004],[11.821889700000002,51.684662200000005],[11.8217499,51.684756500000006],[11.8212442,51.68498030000001],[11.8210137,51.6850985],[11.820897,51.685189],[11.820522700000001,51.6856985],[11.820343000000001,51.6858458],[11.8202642,51.6859333],[11.8200657,51.686229700000005],[11.8199929,51.686311700000005],[11.8198977,51.686383600000006],[11.819779700000002,51.686429600000004],[11.8195929,51.686475400000006],[11.8193721,51.6865165],[11.8183491,51.686635200000005],[11.8182164,51.686632100000004],[11.818104900000002,51.686614500000005],[11.8175814,51.6865486],[11.817399400000001,51.6865655],[11.816821200000001,51.686649900000006],[11.816676300000001,51.6866624],[11.8165291,51.686665100000006],[11.815988,51.6866217],[11.815752100000001,51.686641],[11.8147927,51.686776],[11.8140818,51.686830500000006],[11.8138518,51.6868429],[11.8137419,51.6868418],[11.813327200000002,51.6868142],[11.813190200000001,51.6868173],[11.8130036,51.6868823],[11.8128907,51.6870052],[11.812743600000001,51.68711570000001],[11.812539500000002,51.6872367],[11.8123061,51.6873373],[11.811826900000002,51.6875341],[11.810574500000001,51.68810130000001],[11.8096438,51.688537000000004],[11.8092825,51.6886999],[11.8091114,51.6887868],[11.808779300000001,51.6889812],[11.808705300000002,51.689053200000004],[11.808543400000001,51.689134200000005],[11.808507200000001,51.6891814],[11.808446100000001,51.6893552],[11.8083747,51.689598800000006],[11.808288800000001,51.6898873],[11.8082889,51.6900272],[11.8083246,51.6901487],[11.808384,51.690223200000005],[11.8084781,51.6902824],[11.8087119,51.6904161],[11.8091323,51.6906527],[11.8091915,51.6907026],[11.8092334,51.6908058],[11.8093558,51.691217],[11.809391300000001,51.6914731],[11.8093526,51.691683600000005],[11.809277300000002,51.692032700000006],[11.809265,51.69215680000001],[11.8092742,51.6922561],[11.809265,51.6923478],[11.809250500000001,51.6924572],[11.809255700000001,51.6925407],[11.8093081,51.6926629],[11.8094221,51.692842500000005],[11.809557700000001,51.6931194],[11.8096305,51.693354500000005],[11.809673400000001,51.6935737],[11.809685700000001,51.6937781],[11.8096492,51.6940674],[11.8096125,51.6941745],[11.809555900000001,51.6942882],[11.8094555,51.6944195],[11.8093529,51.694516300000004],[11.8093032,51.694586],[11.809301300000001,51.6946346],[11.8093345,51.6947368],[11.809445400000001,51.6949793],[11.8094975,51.6950781],[11.8095101,51.6951698],[11.8095101,51.695256300000004],[11.8094724,51.695371300000005],[11.8094558,51.6954824],[11.809458300000001,51.6955741],[11.809491600000001,51.695686],[11.809542800000001,51.695787800000005],[11.8096172,51.695877],[11.8097135,51.6959419],[11.8098674,51.696020100000005],[11.8099336,51.696070000000006],[11.8099582,51.696135000000005],[11.809946700000001,51.696215300000006],[11.809868900000001,51.6963135],[11.809813100000001,51.6963796],[11.809701100000002,51.696468900000006],[11.8096118,51.6965644],[11.8095203,51.6967015],[11.809429000000002,51.696874300000005],[11.8093509,51.696963100000005],[11.8092371,51.697046900000004],[11.8089499,51.697206],[11.8087481,51.697320500000004],[11.8085885,51.6974013],[11.8084059,51.697459900000005],[11.808228600000001,51.6975118],[11.8080671,51.6975672],[11.807969600000002,51.697613200000006],[11.807761800000002,51.697735],[11.8074487,51.6979169],[11.8071642,51.6980646],[11.807066200000001,51.698092800000005],[11.8069324,51.698105500000004],[11.8067835,51.698090300000004],[11.8065996,51.6980397],[11.806443400000001,51.698019300000006],[11.8063175,51.6980176],[11.806052300000001,51.698033300000006],[11.805548900000002,51.698097000000004],[11.805219500000002,51.698176700000005],[11.8048021,51.6982889],[11.804249100000002,51.698460700000005],[11.8034678,51.698803000000005],[11.803227000000001,51.6989059],[11.8027735,51.6991134],[11.802662000000002,51.6991626],[11.802185600000001,51.69938500000001],[11.8021498,51.699431800000006],[11.802145900000001,51.699482800000006],[11.802183900000001,51.699610500000006],[11.802262800000001,51.699832900000004],[11.802277100000001,51.699892500000004],[11.8022612,51.699932700000005],[11.8022424,51.699962500000005],[11.8019163,51.700126600000004],[11.8018604,51.700166800000005],[11.801828200000001,51.7002424],[11.8017892,51.7002977],[11.8017176,51.700361],[11.8012224,51.7006449],[11.8011026,51.700774],[11.8010949,51.700833200000005],[11.801154700000001,51.700965700000005],[11.80118,51.701043600000006],[11.8011885,51.7011917],[11.8011149,51.7014288],[11.8007431,51.702458500000006],[11.800705500000001,51.702610400000005],[11.800699700000001,51.70285620000001],[11.8007845,51.703274300000004],[11.8008121,51.7033453],[11.8008454,51.703408100000004],[11.800889100000001,51.7034645],[11.800910100000001,51.703503700000006],[11.800920300000001,51.7035805],[11.8009888,51.703743900000006],[11.801014400000001,51.703785700000005],[11.801074900000001,51.703830100000005],[11.8012671,51.7039387],[11.801343800000001,51.703989400000005],[11.8013583,51.7040128],[11.8013726,51.7040403],[11.801381500000002,51.704086700000005],[11.8013673,51.704147500000005],[11.801329800000001,51.704251400000004],[11.8013133,51.704328700000005],[11.8013074,51.7043923],[11.801318,51.7044536],[11.8013452,51.7045035],[11.801393200000001,51.704551300000006],[11.801543,51.7046294],[11.8015933,51.7046724],[11.8016711,51.704776100000004],[11.801726,51.7048318],[11.801877300000001,51.7050113],[11.8019365,51.7051182],[11.8020074,51.705356],[11.8020379,51.7054429],[11.8021221,51.7055565],[11.8022457,51.7057056],[11.8022919,51.7057779],[11.802309500000002,51.7058484],[11.8023071,51.7059511],[11.802345800000001,51.7060912],[11.802458000000001,51.706409],[11.802524400000001,51.706615600000006],[11.802563500000002,51.706701200000005],[11.8026073,51.7067599],[11.802679600000001,51.70680350000001],[11.8028242,51.7069088],[11.8029469,51.7070042],[11.8032436,51.7073036],[11.803279300000002,51.7073711],[11.803249800000001,51.707630900000005],[11.803168000000001,51.707993],[11.8030807,51.7082399],[11.8029293,51.708469400000006],[11.802845300000001,51.708539800000004],[11.802767300000001,51.7085896],[11.8025097,51.708704000000004],[11.8023486,51.7088174],[11.8022276,51.708968000000006],[11.8021104,51.7090642],[11.801965200000001,51.709138700000004],[11.801826100000001,51.7092189],[11.8017324,51.7093107],[11.8017161,51.7093756],[11.801786900000002,51.709623300000004],[11.8017531,51.7098213],[11.8017274,51.7099254],[11.8016739,51.710036300000006],[11.8013578,51.7103255],[11.801251200000001,51.71040300000001],[11.800563,51.710615100000005],[11.8004827,51.7106615],[11.8004288,51.7107334],[11.8003113,51.710919000000004],[11.8002134,51.711033900000004],[11.8001673,51.711114900000005],[11.8000466,51.7112348],[11.799841500000001,51.7113777],[11.799663200000001,51.711500400000006],[11.799514700000001,51.71155460000001],[11.799416800000001,51.7115784],[11.7993173,51.7115966],[11.799229700000001,51.711618800000004],[11.799163100000001,51.711654100000004],[11.7991132,51.711690000000004],[11.7990429,51.71172850000001],[11.798430600000001,51.7119081],[11.798263700000001,51.712000100000004],[11.7979076,51.7122151],[11.797805700000001,51.7123074],[11.7977886,51.712389800000004],[11.7978226,51.7125586],[11.797802200000001,51.712649600000006],[11.797768300000001,51.712707200000004],[11.797749000000001,51.712912300000006],[11.7977057,51.713128000000005],[11.7975644,51.7133509],[11.7972962,51.71358],[11.797153600000001,51.7136895],[11.796785100000001,51.7138793],[11.796669900000001,51.713934900000005],[11.7963602,51.7141503],[11.7960831,51.714318000000006],[11.795926600000001,51.7144039],[11.795807600000002,51.714452300000005],[11.7955728,51.714528400000006],[11.7954605,51.714586800000006],[11.7953962,51.714651700000005],[11.7953434,51.71475220000001],[11.7952581,51.7148339],[11.795074900000001,51.7149468],[11.794904,51.71503190000001],[11.794765,51.715073600000004],[11.7945734,51.715111],[11.7944232,51.7151622],[11.7942575,51.7152517],[11.794038200000001,51.715374800000006],[11.7939003,51.7154797]]}},{"type":"Feature","properties":{"osmType":"way","osmId":89699664,"name":"Fuhne","waterway":"river"},"geometry":{"type":"LineString","coordinates":[[11.7939003,51.7154797],[11.7937857,51.715580700000004],[11.793706,51.715624600000005],[11.7935818,51.7156597],[11.793502,51.7157057],[11.793392,51.7158115],[11.793345500000001,51.7158795],[11.793283500000001,51.7159319],[11.793103700000001,51.7160467],[11.7930562,51.7160829],[11.7930249,51.716141500000006],[11.7929864,51.7163326],[11.792962200000002,51.7164043],[11.7928545,51.7165685],[11.792831600000001,51.7167066],[11.7928037,51.7168081],[11.7927789,51.7168591],[11.792668800000001,51.717026700000005],[11.792650100000001,51.717088800000006],[11.7926576,51.717149400000004],[11.792695,51.717213400000006],[11.7928916,51.717476600000005],[11.7929139,51.7175133],[11.7929758,51.717643100000004],[11.7932331,51.7182292],[11.7934368,51.718509700000006],[11.793734200000001,51.71891900000001],[11.7939279,51.719284],[11.7939322,51.7193723],[11.7938971,51.719557300000005],[11.793818,51.7196487],[11.793617800000002,51.7197406],[11.7932643,51.719860000000004],[11.7930468,51.7199796],[11.792886000000001,51.7201395],[11.7928615,51.7202269],[11.792864300000002,51.72060140000001],[11.7928935,51.720794700000006],[11.793041,51.721090000000004],[11.793058700000001,51.721336300000004],[11.793072,51.721681000000004],[11.7931155,51.7221102],[11.7932266,51.7223483],[11.793406300000001,51.7224657],[11.793633100000001,51.7226821],[11.793837400000001,51.7228046],[11.7942389,51.722932],[11.794441800000001,51.7230228],[11.7946594,51.7230774],[11.7950218,51.723145900000006],[11.795300800000001,51.7232737],[11.795590800000001,51.723370900000006],[11.796072800000001,51.723467400000004],[11.7963254,51.723567],[11.7965122,51.7236478],[11.7966449,51.723663800000004],[11.7968091,51.7236746],[11.797047300000001,51.723654700000004],[11.7972885,51.723669300000005],[11.797549,51.7237597],[11.7978556,51.723913100000004],[11.798046600000001,51.724061500000005],[11.798084000000001,51.7242078],[11.7980537,51.7244262],[11.798015300000001,51.7245105],[11.7979237,51.724615500000006],[11.7978514,51.7247106],[11.797829700000001,51.7247768],[11.7978474,51.72495],[11.7978736,51.725036100000004],[11.7979362,51.7251064],[11.7987447,51.725418100000006],[11.798842700000002,51.725527500000005],[11.79901,51.725759700000005],[11.7991121,51.725852],[11.799637800000001,51.7261886],[11.7996937,51.7262629],[11.799710800000001,51.726407300000005],[11.7997446,51.726463200000005],[11.8001451,51.7267651],[11.800261500000001,51.7268278],[11.800376900000002,51.7268662],[11.8012794,51.7270404],[11.801419500000002,51.7270581],[11.8015691,51.727045200000006],[11.801755400000001,51.727012800000004],[11.801889300000001,51.727009],[11.8019838,51.7270423],[11.8020627,51.72710300000001],[11.8027683,51.727907],[11.802934700000002,51.7280548],[11.803103400000001,51.7281301],[11.803953100000001,51.728299400000004],[11.8046263,51.7285265],[11.805151500000001,51.7288191],[11.806160100000001,51.729370800000005],[11.806374,51.7295414],[11.8064344,51.729602400000005],[11.806448300000001,51.729649],[11.8064535,51.729747700000004],[11.8063818,51.730172800000005],[11.8063759,51.7303514],[11.8064481,51.7307253],[11.806409,51.730874500000006],[11.8064035,51.731063400000004],[11.8064055,51.731220400000005],[11.8063994,51.731318300000005],[11.8063441,51.73146130000001],[11.8063401,51.7315819],[11.8063669,51.7317406],[11.806471100000001,51.7320093],[11.806493900000001,51.732137200000004],[11.806458300000001,51.7327341],[11.806409,51.7329049],[11.8064247,51.7330253],[11.806533700000001,51.733584900000004],[11.806601800000001,51.7336699],[11.8068928,51.7339476],[11.8070917,51.7341278],[11.8071839,51.734199700000005],[11.807249800000001,51.734242],[11.8073405,51.7343294],[11.807376900000001,51.7344072],[11.8073894,51.7344768],[11.8073852,51.73452940000001],[11.807387700000001,51.734689900000006],[11.807374000000001,51.7347395],[11.807333600000002,51.734780300000004],[11.807253900000001,51.7348213],[11.807155100000001,51.7349018],[11.8068238,51.735195100000006],[11.806511,51.7354775],[11.806242000000001,51.735691800000005],[11.806208700000001,51.7357948],[11.8062626,51.736274900000005],[11.806326700000001,51.736380600000004],[11.806496800000001,51.7365573],[11.806636300000001,51.7367136],[11.8066952,51.736831200000005],[11.806713,51.7369605],[11.8066638,51.737289600000004],[11.806603800000001,51.737903800000005],[11.8065785,51.7381589],[11.806604400000001,51.73834110000001],[11.8066457,51.738550800000006],[11.806733300000001,51.7389785],[11.806780400000001,51.739398300000005],[11.8067395,51.7398067],[11.8066773,51.739923100000006],[11.806455900000001,51.7401871],[11.8063356,51.7403574],[11.8062594,51.7404451],[11.8061415,51.740549],[11.805559500000001,51.740898400000006],[11.805176900000001,51.741144500000004],[11.804783500000001,51.741380400000004],[11.8045799,51.7415114],[11.8040289,51.741940400000004],[11.803662200000002,51.7422259],[11.8035086,51.7423486],[11.8033847,51.7423858],[11.803188500000001,51.742428600000004],[11.8029439,51.7424954],[11.802828600000002,51.7425329],[11.8024205,51.7426721],[11.802256700000001,51.742753400000005],[11.8018864,51.7429598],[11.8015564,51.743137600000004],[11.80145,51.743211200000005],[11.801351,51.743314000000005],[11.801228,51.7434894],[11.801068200000001,51.7436986],[11.8009205,51.743875800000005],[11.8007568,51.7440165],[11.8006886,51.744073500000006],[11.8005802,51.744131100000004],[11.800474300000001,51.744166400000005],[11.800297800000001,51.744219],[11.799991100000002,51.7442781],[11.799688600000001,51.7443394],[11.7995833,51.7443576],[11.7993912,51.744399200000004],[11.799305500000001,51.744435200000005],[11.799258700000001,51.7444767],[11.799160700000002,51.7446265],[11.799028700000001,51.7448745],[11.798741300000001,51.7452647],[11.798521000000001,51.7455664],[11.798405200000001,51.745697500000006],[11.798305800000001,51.7458266],[11.7982864,51.7458868],[11.798276000000001,51.7459494],[11.7983232,51.7460937],[11.798506000000001,51.74624],[11.79883,51.746468400000005],[11.798835200000001,51.746506600000004],[11.798809100000001,51.746574200000005],[11.798775800000001,51.7466348],[11.7987699,51.746684800000004],[11.798762,51.746835000000004],[11.798776700000001,51.7469921],[11.7987892,51.747076500000006],[11.7987833,51.747652900000006],[11.7988075,51.747793800000004],[11.798843000000002,51.7478805],[11.7993235,51.7487203],[11.7994269,51.7489713],[11.7996605,51.7493124],[11.7997527,51.749486600000004],[11.799771600000001,51.74954880000001],[11.7997888,51.7496786],[11.7997603,51.7498148],[11.799775400000001,51.749869800000006],[11.7998686,51.750040600000005],[11.7998776,51.750210700000004],[11.7998726,51.7503096],[11.799867,51.7504106],[11.7998104,51.7505827],[11.7998562,51.750703],[11.800042900000001,51.7510093],[11.8001392,51.751121600000005],[11.800234300000001,51.7512211],[11.8005685,51.751546600000005],[11.8007588,51.7518563],[11.8011402,51.7522481],[11.8011675,51.752395],[11.801173400000001,51.7525314],[11.801206500000001,51.752644200000006],[11.8012469,51.75274640000001],[11.801427200000001,51.753023400000004],[11.801538,51.753303800000005],[11.8016173,51.753508000000004],[11.801681400000001,51.753631500000004],[11.8017906,51.7537261],[11.801989500000001,51.7539955],[11.8020343,51.7540696],[11.802219500000001,51.7543634],[11.802290200000002,51.754524200000006],[11.802295,51.754656600000004],[11.8023156,51.7548958],[11.802291,51.755054400000006],[11.802307800000001,51.7551452],[11.8023165,51.755271400000005],[11.8023287,51.7554111],[11.802255,51.7555132],[11.802196200000001,51.75562600000001],[11.802253700000001,51.7557258],[11.802305800000001,51.755855200000006],[11.8022627,51.755934],[11.8021987,51.756007000000004],[11.8020382,51.756124500000006],[11.801872600000001,51.7562579],[11.801644900000001,51.7564222],[11.801587900000001,51.7564817],[11.801557,51.7565341],[11.8015562,51.756721600000006],[11.8014262,51.756967700000004],[11.801430900000002,51.7571055],[11.8014142,51.7572406],[11.8013828,51.7573237],[11.8012986,51.757418300000005],[11.801150000000002,51.7575355],[11.8011084,51.757642700000005],[11.801014200000001,51.7579307],[11.800964500000001,51.7580826],[11.8009143,51.758160100000005],[11.800816600000001,51.7582685],[11.800732,51.7583281],[11.8003839,51.7585567],[11.800132600000001,51.758668300000004],[11.7998597,51.7587763],[11.7997891,51.7588263],[11.7997317,51.758892800000005],[11.799620500000001,51.75914],[11.7995823,51.7592165],[11.7995289,51.759281300000005],[11.799352200000001,51.7593976],[11.799100200000002,51.7595273],[11.7989077,51.7595928],[11.7987173,51.75967300000001],[11.798559000000001,51.7598215],[11.7985023,51.759882600000005],[11.798504900000001,51.7599789],[11.7985614,51.76018740000001],[11.798627000000002,51.7604133],[11.798720900000001,51.760753],[11.798714,51.7608005],[11.7986555,51.760897500000006],[11.7985971,51.7609665],[11.798556300000001,51.7610691],[11.7985503,51.761125],[11.798574400000001,51.7611976],[11.798618900000001,51.7612552],[11.798725300000001,51.761341400000006],[11.7988294,51.7614334],[11.798869900000001,51.7614874],[11.7988899,51.7615774],[11.7988832,51.7616682],[11.7988323,51.7617339],[11.7987313,51.7618383],[11.798499300000001,51.76202790000001],[11.7980076,51.762475200000004],[11.7978409,51.762562700000004],[11.797202,51.762789700000006],[11.7965456,51.763053600000006],[11.796237600000001,51.7631961],[11.7955696,51.7634607],[11.795137,51.7636407],[11.7949471,51.763702200000004],[11.7946161,51.763735100000005],[11.794421300000002,51.7637542],[11.794256200000001,51.763797000000004],[11.7941128,51.7638605],[11.793901700000001,51.763998],[11.793824800000001,51.764067600000004]]}},{"type":"Feature","properties":{"osmType":"way","osmId":229413537,"name":"Fuhne","waterway":"river"},"geometry":{"type":"LineString","coordinates":[[11.793824800000001,51.764067600000004],[11.7936701,51.7641903],[11.7931647,51.764455000000005],[11.792878100000001,51.764622800000005],[11.792715000000001,51.7647023],[11.7925783,51.7647375],[11.7924462,51.7647564],[11.792235100000001,51.76480170000001],[11.7921177,51.7648603],[11.791890200000001,51.7650966],[11.7918102,51.765133000000006],[11.7915978,51.765176800000006],[11.7914122,51.7652408],[11.7909398,51.765512],[11.7905601,51.7657478],[11.7905148,51.765777500000006],[11.7903613,51.765878300000004],[11.7902532,51.765972100000006],[11.7901311,51.766130600000004],[11.7899787,51.7662859],[11.7898458,51.766361700000004],[11.789656,51.766406700000005],[11.788758000000001,51.766562500000006],[11.7886184,51.766627400000004],[11.788506900000002,51.7667032],[11.788440600000001,51.766780600000004],[11.7883834,51.766929100000006],[11.788332200000001,51.767236700000005],[11.7881979,51.767422200000006],[11.7881716,51.767484700000004],[11.788193000000001,51.767650100000004],[11.7881779,51.767705500000005],[11.7881312,51.7677819],[11.7880286,51.767887300000005],[11.7878281,51.768093300000004],[11.7877597,51.7681971],[11.787688200000002,51.768263000000005],[11.7871111,51.768555600000006],[11.7870266,51.768599900000005],[11.786653300000001,51.7687943],[11.7862673,51.7690264],[11.785862700000001,51.7692752],[11.7856386,51.769375200000006],[11.785184000000001,51.769557000000006],[11.7850771,51.7696084],[11.7849725,51.7696667],[11.7849029,51.7697275],[11.7848395,51.7697931],[11.7847551,51.769864500000004],[11.7846814,51.7699076],[11.784543000000001,51.7699428],[11.784360300000001,51.769957500000004],[11.78415,51.76998570000001],[11.7838246,51.770118000000004],[11.7837172,51.77015230000001],[11.7833182,51.7702091],[11.7831899,51.7702345],[11.782957600000001,51.7702698],[11.7827297,51.770330200000004],[11.782667400000001,51.770358200000004],[11.7824334,51.7705118],[11.7822977,51.770581],[11.7822084,51.770602200000006],[11.7821297,51.7706035],[11.781993700000001,51.7705977],[11.781746700000001,51.7705835],[11.7816513,51.770600900000005],[11.781118600000001,51.770910400000005],[11.7807642,51.771012500000005],[11.78053,51.771057500000005],[11.7803097,51.7710902],[11.7794927,51.7711978],[11.779197900000002,51.7712397],[11.7790371,51.771280100000006],[11.7789225,51.7713392],[11.7787267,51.771485000000006],[11.7785585,51.771627],[11.7783566,51.771824],[11.777573,51.7726544],[11.7766508,51.773633800000006],[11.776530500000002,51.7737993],[11.7764456,51.7738784],[11.7763375,51.773943700000004],[11.775784900000001,51.774196800000006],[11.7755278,51.774309200000005],[11.7754171,51.774374300000005],[11.7753324,51.7744641],[11.7752753,51.7745593],[11.775248300000001,51.77469120000001],[11.7752812,51.7750646],[11.7751937,51.7752114],[11.7750333,51.7753646],[11.774861600000001,51.7755054],[11.774813900000002,51.775565400000005],[11.7743996,51.7762377],[11.774118300000001,51.776703000000005],[11.7739081,51.777060000000006],[11.7730002,51.778475],[11.772154200000001,51.7797994],[11.7720356,51.7800152],[11.7719383,51.7802116],[11.7718754,51.780308600000005],[11.7718126,51.7803848],[11.7717332,51.7804687],[11.771552900000001,51.780625],[11.7714435,51.780692],[11.7711772,51.78080550000001],[11.770393700000001,51.7810496],[11.770093300000001,51.781145200000005],[11.769641700000001,51.7813048],[11.769296800000001,51.781442600000005],[11.769233900000001,51.7814665],[11.7687857,51.781624],[11.768578000000002,51.781704700000006],[11.7684282,51.7818005],[11.7681918,51.7819176],[11.768075900000001,51.781998300000005],[11.7679518,51.7821225],[11.767828100000001,51.782260400000006],[11.7676978,51.782504700000004],[11.767658800000001,51.7826351],[11.767612000000002,51.7828875],[11.767618500000001,51.7829697],[11.7676127,51.783037500000006],[11.7675935,51.7831648],[11.7676428,51.783413100000004],[11.767931,51.7836921],[11.767943200000001,51.783743400000006],[11.767949100000001,51.783842400000005],[11.7679425,51.7839352],[11.7679913,51.7840081],[11.768061900000001,51.7841005],[11.7681412,51.7841882],[11.7681719,51.7842928],[11.7681535,51.784898500000004],[11.7683268,51.7851979],[11.7684099,51.785367900000004],[11.7684721,51.785448],[11.768546,51.7855244],[11.7686629,51.785576000000006],[11.768786500000001,51.785622100000005],[11.7688582,51.7856712],[11.7688897,51.785718900000006],[11.768892200000002,51.785786900000005],[11.768820300000002,51.7859575],[11.768732400000001,51.7860838],[11.768663400000001,51.7862298],[11.768621900000001,51.786481300000005],[11.768633900000001,51.786695800000004],[11.768600900000001,51.7869127],[11.768551800000001,51.7872776],[11.768523,51.7876562],[11.768498300000001,51.7877701],[11.7684601,51.7878424],[11.7683896,51.787911],[11.768273800000001,51.7879925],[11.7681304,51.7881124],[11.7681205,51.78839120000001],[11.7681328,51.7885306],[11.7681143,51.788644100000006],[11.768051000000002,51.7887186],[11.767958100000001,51.788795400000005],[11.767869200000002,51.7888722],[11.7677376,51.788981],[11.767582800000001,51.7890783],[11.7674389,51.7891849],[11.7673164,51.789311700000006],[11.767090000000001,51.789701400000006],[11.767025700000001,51.789781500000004],[11.7669136,51.7898663],[11.7667418,51.789939000000004],[11.7664761,51.7900098],[11.7662577,51.790042400000004],[11.7659652,51.790092],[11.765737900000001,51.7901602],[11.7655562,51.7902423],[11.7653195,51.790355000000005],[11.7650304,51.7905115],[11.764864800000002,51.790589100000005],[11.763831300000001,51.791013400000004],[11.7634678,51.7911621],[11.763063,51.791336300000005],[11.7624265,51.79161130000001],[11.761992600000001,51.791796000000005],[11.761803200000001,51.79187640000001],[11.7612196,51.792116500000006],[11.761137900000001,51.792155],[11.7609659,51.792235700000006],[11.7608806,51.792299],[11.760846800000001,51.792335],[11.7603989,51.792781000000005],[11.7602604,51.792996200000005],[11.7602028,51.7933468],[11.760146500000001,51.7935285],[11.760119300000001,51.793832900000005],[11.7602281,51.794137000000006],[11.7602279,51.794260900000005],[11.7602328,51.7943256],[11.760332700000001,51.794519400000006],[11.7606661,51.7952318],[11.7607955,51.7954148],[11.7610322,51.795690500000006],[11.761171800000001,51.7959686],[11.7612216,51.796131100000004],[11.7612898,51.796406100000006],[11.761367400000001,51.7967115],[11.761485500000001,51.797038400000005],[11.7614949,51.797111400000006],[11.761433100000001,51.797244600000006],[11.761431100000001,51.7973237],[11.761455600000001,51.797455400000004],[11.7615239,51.7976929],[11.7617171,51.798162700000006],[11.761798200000001,51.798489800000006],[11.7618798,51.798803500000005],[11.761884700000001,51.798903800000005],[11.761909000000001,51.7990414],[11.761936200000001,51.799131100000004],[11.761994600000001,51.7991857],[11.762056900000001,51.79922620000001],[11.762116200000001,51.799243100000005],[11.762188400000001,51.7992458],[11.7622722,51.7992402],[11.7623364,51.799229100000005],[11.762490300000001,51.799256500000006],[11.7626661,51.799328100000004],[11.7628164,51.799365300000005],[11.7629573,51.799413900000005],[11.7632019,51.79953020000001],[11.763522400000001,51.799611500000005],[11.7637994,51.79989380000001]]}}]}