{"type":"FeatureCollection","features":[{"type":"Feature","properties":{"osmType":"way","osmId":307681892,"name":"Hauptseegraben","waterway":"ditch"},"geometry":{"type":"LineString","coordinates":[[11.382575500000002,51.8335608],[11.379195900000001,51.8339586],[11.3760255,51.834343100000005],[11.3720022,51.834820400000005],[11.371747300000001,51.8348467],[11.371616000000001,51.8348602],[11.371342400000001,51.834856900000005],[11.3704841,51.834827100000005]]}},{"type":"Feature","properties":{"osmType":"way","osmId":307681899,"name":"Hauptseegraben","waterway":"ditch"},"geometry":{"type":"LineString","coordinates":[[11.3598297,51.8347332],[11.358050100000002,51.8348097],[11.3564355,51.8348262],[11.3549334,51.8348461],[11.3532078,51.834885500000006],[11.352176100000001,51.834909100000004],[11.347393700000001,51.835015600000006],[11.3471627,51.835034]]}},{"type":"Feature","properties":{"osmType":"way","osmId":307681901,"name":"Hauptseegraben","waterway":"ditch"},"geometry":{"type":"LineString","coordinates":[[11.367963300000001,51.8345743],[11.367051400000001,51.834504700000004],[11.3664559,51.834504700000004],[11.365517200000001,51.834541200000004],[11.363881000000001,51.834594200000005],[11.360091800000001,51.8347252]]}},{"type":"Feature","properties":{"osmType":"way","osmId":307681914,"name":"Hauptseegraben","waterway":"ditch"},"geometry":{"type":"LineString","coordinates":[[11.360091800000001,51.8347252],[11.3598297,51.8347332]]}},{"type":"Feature","properties":{"osmType":"way","osmId":414512813,"name":"Hauptseegraben","waterway":"ditch"},"geometry":{"type":"LineString","coordinates":[[11.3471627,51.835034],[11.3470609,51.835035500000004]]}},{"type":"Feature","properties":{"osmType":"way","osmId":414512814,"name":"Hauptseegraben","waterway":"ditch"},"geometry":{"type":"LineString","coordinates":[[11.340662400000001,51.83304630000001],[11.3393213,51.832562300000006],[11.3388884,51.832449600000004],[11.3383734,51.8323435],[11.3376476,51.832297100000005],[11.3369073,51.832290500000006],[11.3361096,51.832297100000005],[11.335305,51.8323369],[11.3336527,51.8324894],[11.332429600000001,51.8325888],[11.332283200000001,51.8325888],[11.3320863,51.832568900000005],[11.3316035,51.8324695],[11.3216616,51.830487100000006],[11.3209643,51.830255],[11.3206102,51.830148900000005],[11.3201564,51.829877100000004],[11.316855100000001,51.827828200000006],[11.313772700000001,51.825892],[11.313236300000002,51.8255671],[11.3130968,51.82551410000001],[11.3127674,51.8254212],[11.3097387,51.824678500000005],[11.309577800000001,51.8246984],[11.309341700000001,51.8247647],[11.303283100000002,51.82627],[11.2980979,51.8275431],[11.2965744,51.827894500000006],[11.2960841,51.8280338],[11.294539100000001,51.8284515],[11.2930907,51.8288759],[11.292104700000001,51.829050900000006],[11.2916501,51.8291143],[11.290955700000001,51.8292207],[11.288885,51.8295838],[11.2887058,51.8296391],[11.287683000000001,51.830056600000006],[11.284604,51.831297400000004],[11.282443500000001,51.8321752],[11.2818717,51.832413700000004],[11.276023400000001,51.834809500000006],[11.2721301,51.8364181],[11.271396600000001,51.8366897],[11.270675,51.8369909],[11.270386400000001,51.837057900000005],[11.2699171,51.837144200000004],[11.2696828,51.837250000000004],[11.2694519,51.8374285],[11.269384800000001,51.8375247],[11.2693518,51.837662400000006],[11.269403200000001,51.837908600000006],[11.269407500000002,51.8379562],[11.269400200000002,51.838041100000005]]}},{"type":"Feature","properties":{"osmType":"way","osmId":878904357,"name":"Hauptseegraben","waterway":"ditch"},"geometry":{"type":"LineString","coordinates":[[11.3704841,51.834827100000005],[11.367963300000001,51.8345743]]}},{"type":"Feature","properties":{"osmType":"way","osmId":1245055830,"name":"Hauptseegraben","waterway":"ditch"},"geometry":{"type":"LineString","coordinates":[[11.3470609,51.835035500000004],[11.3467339,51.835024000000004],[11.3465102,51.835010800000006],[11.3461663,51.834982200000006],[11.345823000000001,51.834922500000005],[11.3453958,51.834819700000004],[11.340662400000001,51.83304630000001]]}}]}