{"type":"FeatureCollection","features":[{"type":"Feature","properties":{"osmType":"way","osmId":46263976,"name":"Helme","waterway":"river"},"geometry":{"type":"LineString","coordinates":[[11.045836900000001,51.454633400000006],[11.0465084,51.454982900000005],[11.046685100000001,51.455096000000005],[11.0467396,51.4551244],[11.047108900000001,51.4553431],[11.047629200000001,51.455529600000006],[11.0480914,51.4556492],[11.0485681,51.455723500000005],[11.0491088,51.4558158],[11.0503181,51.4560984],[11.0517502,51.4564158],[11.052105800000001,51.4564657],[11.0523421,51.4564734],[11.0531866,51.456433700000005],[11.0533946,51.45642470000001],[11.053700800000001,51.45642350000001],[11.0553658,51.456588700000005],[11.0559002,51.456687300000006],[11.056220900000001,51.456760300000006],[11.0566361,51.4568986],[11.0578426,51.4573994]]}},{"type":"Feature","properties":{"osmType":"way","osmId":163245031,"name":"Helme","waterway":"river"},"geometry":{"type":"LineString","coordinates":[[11.012937200000001,51.440422500000004],[11.0132714,51.440572100000004],[11.0138063,51.4408584],[11.013920200000001,51.440915700000005],[11.014076600000001,51.4409943],[11.014779500000001,51.441305400000005],[11.014929500000001,51.4413539],[11.015317900000001,51.4415016],[11.015748100000001,51.4416737],[11.016268400000001,51.441840400000004],[11.0168265,51.441940100000004],[11.0174748,51.442007100000005],[11.017928300000001,51.442030700000004],[11.0183672,51.4420397],[11.018875900000001,51.441992600000006],[11.0193788,51.441931000000004],[11.019881700000001,51.441827700000005],[11.020358700000001,51.4416743],[11.020832500000001,51.4415058],[11.0211319,51.441386200000004],[11.0213964,51.4412431],[11.0217016,51.4410456],[11.021998100000001,51.440911500000006],[11.022480700000001,51.4407738],[11.0232132,51.440561800000005],[11.0235911,51.4404857],[11.023783,51.440471200000005],[11.0240243,51.4404802],[11.024201600000001,51.4405002],[11.0244719,51.4405726],[11.0250591,51.440772],[11.025326600000001,51.440848100000004],[11.0256114,51.4408698],[11.0260242,51.4408644],[11.026312,51.440837200000004],[11.0267248,51.440752],[11.0274231,51.4405852],[11.027657300000001,51.440488200000004],[11.0278758,51.440387900000005],[11.028152700000001,51.4402539],[11.0284376,51.44009380000001],[11.028561300000002,51.4400331],[11.028698100000002,51.4399773],[11.028910100000001,51.4399066],[11.0293212,51.4397815],[11.029453,51.4397431],[11.0296255,51.439695300000004],[11.0297981,51.439651500000004],[11.029996200000001,51.439610300000005],[11.0302407,51.4395703],[11.0305063,51.439531900000006],[11.030666,51.439515500000006],[11.0308828,51.4394986],[11.0310488,51.4394889],[11.0312108,51.4394817],[11.0313732,51.4394774],[11.0318441,51.4394718],[11.0323816,51.439464400000006],[11.032968700000001,51.439452800000005],[11.0335742,51.439447],[11.034067400000001,51.4394475],[11.0343123,51.4394481],[11.0345785,51.439453],[11.034794900000001,51.43946510000001],[11.035093,51.439488600000004],[11.035242,51.4395055],[11.0354291,51.4395297],[11.0356083,51.4395576],[11.0357938,51.439594500000005],[11.0359943,51.439644900000005],[11.036259900000001,51.439728800000005],[11.0364134,51.4397935],[11.0366503,51.439909500000006],[11.0367452,51.43995090000001],[11.036824000000001,51.439979900000004],[11.0369151,51.4400051],[11.0369974,51.4400181],[11.0370895,51.44002690000001],[11.0371836,51.4400331],[11.037286700000001,51.440035900000005],[11.037394200000001,51.440035900000005],[11.037491500000002,51.4400343],[11.0379059,51.44001170000001],[11.037965900000001,51.4400119],[11.0380309,51.4400174],[11.0382061,51.4400331],[11.038264100000001,51.4400403],[11.038310800000001,51.440049200000004],[11.038355000000001,51.4400629],[11.038436200000001,51.440096200000006],[11.038650500000001,51.44019350000001],[11.0387441,51.4402411],[11.038813000000001,51.44027680000001],[11.038893300000002,51.4403226],[11.0389766,51.4403646],[11.039069900000001,51.4404041],[11.039167800000001,51.4404423],[11.0394892,51.4405513],[11.039718500000001,51.4406376],[11.0397958,51.440668],[11.0398502,51.440697300000004],[11.039893900000001,51.4407295],[11.039944400000001,51.440775800000004],[11.040028000000001,51.4408739],[11.040108700000001,51.4409755],[11.0405054,51.441524300000005],[11.041130200000001,51.4422891],[11.0416296,51.4429176],[11.0416792,51.44298920000001],[11.0417251,51.4430631],[11.0417552,51.4431297],[11.041772100000001,51.443207400000006],[11.0417722,51.4432885],[11.041767100000001,51.4433579],[11.0417422,51.4435232],[11.041639100000001,51.443615900000005],[11.041579500000001,51.4437172],[11.041556900000002,51.4438504],[11.0416124,51.4440144],[11.0418303,51.4443667],[11.0421695,51.4448561],[11.042516800000001,51.4452853],[11.042621700000002,51.445515900000004],[11.0426648,51.445685000000005],[11.0427487,51.446127800000006],[11.0428019,51.4463105],[11.042810600000001,51.446404300000005],[11.0428859,51.4467246],[11.043531300000001,51.4478571],[11.0436875,51.4482567],[11.0437081,51.448525800000006],[11.0436916,51.448823000000004],[11.0436382,51.4489536],[11.0436341,51.449156],[11.0436641,51.449332600000005],[11.0437081,51.449496800000006],[11.044229900000001,51.450992400000004],[11.0443491,51.451391],[11.044372300000001,51.4516265],[11.0443113,51.45193080000001],[11.044293900000001,51.452311200000004],[11.044337500000001,51.452570300000005],[11.0445252,51.453041600000006],[11.0448316,51.4536481],[11.045072900000001,51.454053800000004],[11.045244400000001,51.454222300000005],[11.0453246,51.454279400000004],[11.045604200000001,51.4544786],[11.0457104,51.454562200000005],[11.045836900000001,51.454633400000006]]}},{"type":"Feature","properties":{"osmType":"way","osmId":163273016,"name":"Helme","waterway":"river"},"geometry":{"type":"LineString","coordinates":[[11.2897966,51.436592000000005],[11.290955,51.4363046],[11.291686200000001,51.4362003],[11.292393500000001,51.436034600000006],[11.2932821,51.4356978],[11.295088600000001,51.4352317],[11.297482400000002,51.434510200000005],[11.29791,51.434388500000004],[11.298365500000001,51.434214600000004],[11.2994727,51.4337414]]}},{"type":"Feature","properties":{"osmType":"way","osmId":163273017,"name":"Helme","waterway":"river"},"geometry":{"type":"LineString","coordinates":[[11.0578426,51.4573994],[11.0594698,51.458144700000005],[11.060571600000001,51.458395700000004],[11.061788400000001,51.458616000000006],[11.063597300000001,51.458964300000005],[11.0644744,51.459040400000006],[11.064888100000001,51.4590309],[11.0653403,51.458964300000005],[11.065693900000001,51.458913100000004],[11.0660556,51.4588977],[11.066458500000001,51.4589438],[11.067149200000001,51.4590412],[11.067722100000001,51.459107],[11.0682673,51.4591129],[11.068908700000001,51.4590873],[11.0701476,51.459107],[11.0714904,51.459410000000005],[11.072222100000001,51.459533],[11.0728033,51.4595629],[11.0730936,51.459517600000005],[11.0733444,51.4594305],[11.073719800000001,51.4592764],[11.073973200000001,51.4590893],[11.0742436,51.4588863],[11.074772300000001,51.458507700000006],[11.0750074,51.458381300000006],[11.0755432,51.458177500000005],[11.075802600000001,51.4580646],[11.0762865,51.457827200000004],[11.0776632,51.457180300000005],[11.0808082,51.4557403],[11.0809879,51.4556696],[11.0811968,51.455601],[11.081566800000001,51.4555146],[11.0819158,51.4554473],[11.082331,51.455388400000004],[11.082892600000001,51.455351400000005],[11.0833999,51.45539350000001],[11.0845263,51.455606100000004],[11.084884,51.4556471],[11.085291000000002,51.4556625],[11.085759600000001,51.455642000000005],[11.086141900000001,51.455642000000005],[11.0867421,51.455683],[11.0871902,51.4557086],[11.0875479,51.455700900000004],[11.0878069,51.4556727],[11.0881152,51.4556394],[11.0883701,51.4556369],[11.0886332,51.455677900000005],[11.0893855,51.455806],[11.089599300000001,51.455811100000005],[11.089800700000001,51.455798300000005],[11.089998000000001,51.455775200000005],[11.0904585,51.455736800000004],[11.0907915,51.4557342],[11.0911121,51.4557598],[11.0913423,51.455788000000005],[11.0918069,51.4558982],[11.0924359,51.456169700000004],[11.0926907,51.4562722],[11.092962100000001,51.4563311],[11.0932373,51.45635],[11.0934472,51.456313200000004],[11.0939323,51.4562414],[11.094413300000001,51.4561338],[11.0954533,51.4559135],[11.0956712,51.4558879],[11.0959631,51.455893],[11.096292,51.455931500000005],[11.096653700000001,51.456026300000005],[11.0970648,51.4561338],[11.0973691,51.4561569],[11.0978089,51.4561518],[11.098207700000001,51.4561057],[11.099091600000001,51.456054400000006],[11.100316600000001,51.4559878],[11.1007318,51.4559238],[11.1009867,51.45584950000001],[11.101266800000001,51.455763700000006],[11.1014554,51.455706000000006],[11.1029107,51.4553602],[11.103293,51.4552654],[11.1037082,51.4552142],[11.1040124,51.455227],[11.1043947,51.455280800000004],[11.1060309,51.4556702],[11.107075100000001,51.4558802],[11.1079138,51.456026300000005],[11.1089579,51.456269600000006],[11.1092721,51.4563715],[11.109961,51.456594900000006],[11.110532500000001,51.4566974],[11.111036100000002,51.4567361],[11.1116618,51.456628300000006],[11.1116959,51.456579600000005],[11.111946600000001,51.4563439],[11.1122221,51.4561185],[11.1126085,51.4559263],[11.1129703,51.455811100000005],[11.113467700000001,51.455747],[11.113837700000001,51.45574190000001],[11.1141871,51.455800800000006],[11.114479000000001,51.4558162],[11.1147421,51.4557701],[11.115169700000001,51.4556599],[11.115667400000001,51.455514400000006],[11.1162709,51.4553214],[11.1165011,51.455254700000005],[11.116647200000001,51.455220800000006],[11.1167183,51.455209],[11.1167932,51.455202],[11.1168867,51.45519770000001],[11.116984200000001,51.4551984],[11.117075300000002,51.4552099],[11.1171588,51.455227300000004],[11.1175365,51.4553408],[11.1176662,51.455381200000005],[11.1177814,51.455417600000004],[11.118412600000001,51.455626900000006],[11.118487400000001,51.455645200000006],[11.1185703,51.455656000000005],[11.118634700000001,51.4556587],[11.1187024,51.4556593],[11.118899200000001,51.4556502],[11.1189535,51.45564460000001],[11.1190023,51.455637100000004],[11.119060900000001,51.4556273],[11.119114000000001,51.4556155],[11.1191916,51.455598],[11.119266000000001,51.455579500000006],[11.1193448,51.4555579],[11.119420400000001,51.4555352],[11.120408600000001,51.455222000000006],[11.1205768,51.45517460000001],[11.1207378,51.455131800000004],[11.1209029,51.455094100000004],[11.121193600000002,51.4550349],[11.121384500000001,51.4549978],[11.1214799,51.454979200000004],[11.1216101,51.454955000000005],[11.1217208,51.4549357],[11.121866200000001,51.4549108],[11.121996600000001,51.4548848],[11.1221168,51.4548557],[11.1222027,51.45483290000001],[11.122288600000001,51.45481100000001],[11.1223878,51.4547904],[11.122516200000002,51.4547694],[11.1226493,51.454753700000005],[11.1228259,51.4547381],[11.1229107,51.454732400000005],[11.122997600000001,51.454729400000005],[11.1230857,51.454729300000004],[11.123176,51.4547332],[11.1232781,51.454742100000004],[11.1233696,51.454755000000006],[11.1235397,51.454787200000005],[11.1236473,51.4548148],[11.1237414,51.4548423],[11.123903,51.4549225],[11.124437400000001,51.455250400000004],[11.125276000000001,51.4556449],[11.1261805,51.4559779],[11.127167100000001,51.4562444],[11.1275946,51.4562802],[11.128005700000001,51.4561982],[11.1284085,51.4560857],[11.1287087,51.4559779],[11.130011900000001,51.45573460000001],[11.131537100000001,51.455516800000005],[11.132170200000001,51.45538620000001],[11.1325689,51.455299100000005],[11.1337949,51.4550965],[11.134932200000002,51.4549901],[11.1357978,51.455069],[11.137321700000001,51.4553572],[11.1412066,51.456169300000006],[11.1426865,51.456481800000006],[11.1438129,51.456720000000004],[11.1445735,51.456866000000005],[11.1457821,51.4571837],[11.1464029,51.4572784],[11.147184000000001,51.4573041],[11.147817100000001,51.4573322],[11.1483638,51.4574014],[11.149716300000001,51.4575064],[11.1511346,51.457693400000004],[11.151866400000001,51.4577959],[11.152182900000001,51.457793300000006],[11.152443400000001,51.4577723],[11.152943500000001,51.457657600000005],[11.1537287,51.4575346],[11.154254900000002,51.457396300000006],[11.154715300000001,51.4572067],[11.154974300000001,51.457081200000005],[11.1559404,51.4564767],[11.1563145,51.4562333],[11.156865300000002,51.4560053],[11.1574162,51.455803],[11.1579054,51.455649300000005],[11.158629000000001,51.455472500000006],[11.1594183,51.455398200000005],[11.160010300000001,51.455385400000004],[11.161186,51.455290600000005],[11.1619835,51.4552497],[11.162313500000002,51.455200100000006],[11.162415900000001,51.455184700000004],[11.162682400000001,51.455144600000004],[11.1634621,51.454958500000004],[11.1635372,51.4549341],[11.1638406,51.4548354],[11.164392900000001,51.454686800000005],[11.165634200000001,51.454263000000005],[11.166526500000002,51.453965600000004],[11.166863900000001,51.453864900000006],[11.167600100000001,51.453658100000006],[11.168263900000001,51.453471],[11.1683868,51.453439],[11.1685119,51.45340830000001],[11.1686283,51.453383],[11.168746700000002,51.453359000000006],[11.1688595,51.4533398],[11.168970300000002,51.453327],[11.1690897,51.4533232],[11.169203000000001,51.4533232],[11.1694238,51.453333300000004],[11.1696811,51.4533532],[11.1699529,51.4533763],[11.1700902,51.453386300000005],[11.1702306,51.4533938],[11.1703886,51.4533982],[11.1705497,51.4533962],[11.1707091,51.453388000000004],[11.1708613,51.453374100000005],[11.1709914,51.4533591],[11.1711123,51.4533422],[11.1712524,51.4533159],[11.171400700000001,51.4532807],[11.1715482,51.4532335],[11.1716937,51.4531786],[11.1719509,51.4530715],[11.1722421,51.452944900000006],[11.172547400000001,51.452823300000006],[11.1727024,51.4527702],[11.172859500000001,51.4527207],[11.1730137,51.452686400000005],[11.1731656,51.452654200000005],[11.1734694,51.452589800000005],[11.174255500000001,51.4524265],[11.1748639,51.452301000000006],[11.1754435,51.4521473],[11.1759985,51.4519475],[11.1768824,51.451627200000004],[11.1778156,51.451225],[11.178308900000001,51.4510457],[11.1787118,51.4509253],[11.179192800000001,51.4508177],[11.179768300000001,51.450766400000006],[11.180331500000001,51.4507459],[11.1811825,51.450738300000005],[11.182156800000001,51.4507306],[11.1824771,51.4507166],[11.1825893,51.45071170000001],[11.183155800000002,51.450687],[11.183797100000001,51.450620400000005],[11.1842328,51.45057430000001],[11.1851936,51.4504627],[11.1868545,51.450478000000004],[11.1880384,51.4504755],[11.188741400000001,51.450552300000005],[11.189876,51.450741900000004],[11.1906982,51.45085460000001],[11.1911669,51.45085460000001],[11.191660200000001,51.4508341],[11.1924331,51.4507521],[11.1930168,51.450685500000006],[11.193867800000001,51.450516500000006],[11.1948586,51.4503192],[11.196387900000001,51.449981],[11.1971032,51.449796500000005],[11.1980117,51.4495045],[11.1989038,51.449245700000006],[11.2001659,51.448956200000005],[11.2014814,51.4487461],[11.202275100000001,51.4486618],[11.2028432,51.4485608],[11.2031013,51.448472300000006],[11.2032431,51.4484086],[11.2034415,51.44826320000001],[11.2036286,51.4480706],[11.203815,51.4478553],[11.203927700000001,51.447734100000005],[11.2040457,51.447636800000005],[11.204173800000001,51.447564],[11.2043166,51.4474901],[11.204498300000001,51.4474199],[11.204753100000001,51.4473526],[11.2049898,51.447302],[11.2052587,51.447264800000006],[11.205582600000001,51.447246400000004],[11.2059689,51.4472448],[11.206444900000001,51.4472414],[11.2073231,51.4472217],[11.2081206,51.4473088],[11.208675600000001,51.447554800000006],[11.2093909,51.447949300000005],[11.209810200000002,51.4481082],[11.210311800000001,51.448164500000004],[11.211076400000001,51.448244],[11.211968500000001,51.4483131],[11.213132600000002,51.448195500000004],[11.213864300000001,51.447943],[11.214447700000001,51.4471404],[11.215341800000001,51.4468984],[11.217911500000001,51.4466012],[11.2209929,51.4468041],[11.2224651,51.44708180000001],[11.2232602,51.4472317],[11.224620700000001,51.4472534],[11.2251013,51.447136300000004],[11.225412700000001,51.4469956],[11.2257753,51.4468508],[11.2263151,51.4463652],[11.226938800000001,51.4458836],[11.2275611,51.445604700000004],[11.228899400000001,51.4453432],[11.229527500000001,51.445253300000005],[11.233911200000001,51.4444054],[11.236783200000001,51.44369510000001],[11.2382018,51.442782],[11.2396901,51.4423254],[11.2421784,51.442013700000004],[11.2435621,51.4417746],[11.2455388,51.4417746],[11.2466182,51.4418865],[11.2470412,51.442166900000004],[11.246864400000002,51.442542800000005],[11.246665100000001,51.4427984],[11.2465981,51.442978200000006],[11.2467877,51.44314850000001],[11.2470259,51.443317900000004],[11.2480969,51.4439198],[11.249362300000001,51.444299900000004],[11.250274600000001,51.4442278],[11.2504661,51.4442127],[11.2516405,51.444046],[11.2526521,51.4437416],[11.2531288,51.443379300000004],[11.2539195,51.442734200000004],[11.2545125,51.4425748],[11.255107800000001,51.44257210000001],[11.2555706,51.442734200000004],[11.256282200000001,51.4428806],[11.256768300000001,51.4428719],[11.2578031,51.442806700000006],[11.2603156,51.4418542],[11.2606956,51.441720800000006],[11.261513200000001,51.4414339],[11.2621528,51.441368700000005],[11.2626469,51.441296200000004],[11.2633562,51.441173000000006],[11.2638678,51.4410353],[11.264584900000001,51.4408644],[11.265146900000001,51.4407562],[11.2658213,51.4407019],[11.266862000000001,51.4406837],[11.267920100000001,51.4407743],[11.2699026,51.44098820000001],[11.2705374,51.4410619],[11.271524600000001,51.441176600000006],[11.272617700000001,51.441335300000006],[11.273873400000001,51.441350500000006],[11.2743385,51.4413324],[11.274995500000001,51.4411983],[11.2755448,51.4410175],[11.276299100000001,51.440604],[11.276612,51.440457900000006],[11.276935900000002,51.4403067],[11.277932400000001,51.4398415],[11.2794778,51.439221],[11.2801185,51.4390525],[11.2811868,51.43862420000001],[11.281695500000001,51.4385138],[11.284316,51.4378073],[11.286073700000001,51.4374176],[11.2873982,51.4372142],[11.288188600000002,51.4370338],[11.289084200000001,51.43673020000001],[11.2897966,51.436592000000005]]}},{"type":"Feature","properties":{"osmType":"way","osmId":163507501,"name":"Helme","waterway":"river"},"geometry":{"type":"LineString","coordinates":[[11.2994727,51.4337414],[11.2996113,51.4336798],[11.3000135,51.433521500000005],[11.3002388,51.4334329],[11.301193000000001,51.4330239],[11.302017600000001,51.4326834],[11.302544500000002,51.4324962],[11.3027162,51.432428200000004],[11.3030743,51.432281200000006],[11.303698,51.4320669],[11.304277800000001,51.431931600000006],[11.3047096,51.4317962],[11.304869400000001,51.431717400000004],[11.3048807,51.431691400000005],[11.304909400000001,51.4316297],[11.304898000000001,51.4316058],[11.3048718,51.4314155],[11.304855400000001,51.4312739],[11.304885700000002,51.4310698],[11.304949800000001,51.430842600000005],[11.305115200000001,51.43055450000001],[11.305594300000001,51.429912900000005],[11.305881000000001,51.42956160000001],[11.3065423,51.4290231],[11.307034900000001,51.4286571],[11.3075579,51.42831210000001],[11.307905400000001,51.4281269],[11.308303500000001,51.427965],[11.3091605,51.427674700000004],[11.3096834,51.427495900000004],[11.3102975,51.427253900000004],[11.311778700000001,51.4264966],[11.3126086,51.426099],[11.313,51.4259349],[11.314633,51.4254174],[11.3163166,51.424902],[11.3171668,51.4246348],[11.31799,51.424409700000005],[11.3191068,51.4241383],[11.3205205,51.4238669],[11.3221366,51.4235429],[11.3231049,51.4233283],[11.323973200000001,51.423093900000005],[11.3248897,51.422846500000006],[11.325723,51.4226235],[11.326753,51.422333],[11.327001800000001,51.4222629],[11.327103000000001,51.42223430000001],[11.3276833,51.4221018],[11.328425600000001,51.4219991],[11.328580800000001,51.421977600000005],[11.3292151,51.421885100000004],[11.3300417,51.421697800000004],[11.3303419,51.421603100000006],[11.330517400000002,51.4214769],[11.3308177,51.42117390000001],[11.331064000000001,51.4209509],[11.3313237,51.420765800000005],[11.331772500000001,51.42062060000001],[11.332238100000001,51.420515400000006],[11.3328155,51.4204038],[11.3333426,51.4202498],[11.333902100000001,51.420080500000005],[11.3340788,51.4200279],[11.3347177,51.419728600000006],[11.3351935,51.419483500000005],[11.335681000000001,51.419237300000006],[11.3359661,51.4191294],[11.336219600000002,51.419046],[11.336618900000001,51.4189396],[11.3372395,51.418800000000005],[11.337631100000001,51.418707100000006],[11.3383751,51.41855880000001],[11.338636500000002,51.418502000000004],[11.339058300000001,51.418391500000006],[11.339773600000001,51.4181485],[11.340512400000001,51.417892800000004],[11.3410843,51.4177192],[11.3420442,51.4174804],[11.34308,51.4172206],[11.3437835,51.417067],[11.3441411,51.41695970000001],[11.3448159,51.4167198],[11.345068900000001,51.4166314],[11.34544,51.416524100000004],[11.3460254,51.4163505],[11.3463375,51.416293700000004],[11.3471591,51.4162285],[11.348000800000001,51.416083300000004],[11.348763400000001,51.416000200000006],[11.349370700000001,51.4158697],[11.3497114,51.415821300000005],[11.3500353,51.415730800000006],[11.350387900000001,51.415615100000004],[11.350587,51.4155919],[11.3507978,51.4156004],[11.351147000000001,51.4155267],[11.3517577,51.4153899],[11.352007400000002,51.4153321],[11.352272200000002,51.4152269],[11.352365,51.415169000000006],[11.352471300000001,51.41504380000001],[11.3527986,51.4144451],[11.353076900000001,51.4139727],[11.353308,51.413561300000005],[11.353468300000001,51.4133067],[11.353502,51.41323310000001],[11.3535105,51.413002600000006],[11.3534919,51.412886900000004],[11.3534497,51.4127743],[11.3532591,51.412515500000005],[11.352825500000002,51.412015700000005],[11.3525843,51.411855800000005],[11.352373400000001,51.411622200000004],[11.3522669,51.411490400000005],[11.3522063,51.411287900000005],[11.352187,51.411028],[11.352333000000002,51.410546800000006],[11.3524106,51.409626100000004],[11.3524527,51.4088422],[11.3524527,51.4083235],[11.3524156,51.407832000000006],[11.352306,51.4073648],[11.3522604,51.406985000000006],[11.352317800000002,51.4067219],[11.352365,51.406564],[11.352663600000001,51.4061147],[11.3529099,51.405665400000004],[11.353090400000001,51.4052055],[11.353245600000001,51.404925600000006],[11.353576200000001,51.4043099],[11.353728100000001,51.4040995],[11.3538259,51.403557500000005],[11.353844500000001,51.403155500000004],[11.3538411,51.402885000000005],[11.353866400000001,51.4025693],[11.3539592,51.40219990000001],[11.354053700000001,51.401715800000005],[11.354094100000001,51.40156210000001],[11.3541802,51.4010717],[11.354249300000001,51.4007044],[11.3543269,51.4002982],[11.3544821,51.3997614],[11.3545952,51.399263600000005],[11.354780700000001,51.3987289],[11.354917400000001,51.398262700000004],[11.3550591,51.397698500000004],[11.3552362,51.3972344],[11.355307100000001,51.397024900000005],[11.355403200000001,51.3967176],[11.3554454,51.396526],[11.3555787,51.396074500000005],[11.355776,51.3955661],[11.3559835,51.3951009],[11.3562028,51.3947104],[11.356312500000001,51.3945377],[11.356378300000001,51.3943146],[11.356380000000001,51.3941577],[11.356332700000001,51.3938999],[11.3562366,51.3936651],[11.3562028,51.393533600000005],[11.356192700000001,51.3934251],[11.3562062,51.393325100000006],[11.3562534,51.393227200000005],[11.3564424,51.3929272],[11.356550400000001,51.3927715],[11.356606000000001,51.3926536],[11.356633,51.3924578],[11.3566347,51.392389400000006],[11.356599300000001,51.392319900000004],[11.3565942,51.3922778],[11.356606000000001,51.3922315],[11.356673500000001,51.392130400000006],[11.3568844,51.391860900000005],[11.3571199,51.39157],[11.3571922,51.3914527],[11.3572153,51.391415200000004],[11.3572667,51.3913218]]}},{"type":"Feature","properties":{"osmType":"way","osmId":177197265,"name":"Helme","waterway":"river"},"geometry":{"type":"LineString","coordinates":[[11.3572667,51.3913218],[11.3573821,51.391079700000006],[11.357510000000001,51.390811500000005],[11.357569600000001,51.390683300000006],[11.3576478,51.390464900000005],[11.357715200000001,51.3901951],[11.357756,51.389978500000005],[11.357791500000001,51.3897619],[11.3578129,51.389603900000004],[11.357853700000001,51.3892329],[11.357880300000001,51.389030500000004],[11.357953100000001,51.3887323],[11.3580649,51.3883701],[11.3582602,51.3878215],[11.3583295,51.387638700000004],[11.3583774,51.3875321],[11.3584946,51.387324400000004],[11.358645500000002,51.3871167],[11.3589011,51.386727900000004],[11.3590289,51.3865114],[11.3591248,51.3862965],[11.3591976,51.3861013],[11.3592668,51.385842100000005],[11.359297000000002,51.3856468],[11.359300600000001,51.385574000000005],[11.3593059,51.385503],[11.3593574,51.3852065],[11.359401700000001,51.3850343],[11.359463900000002,51.3849029],[11.3598136,51.3843437],[11.359923700000001,51.384203500000005],[11.3600426,51.3840756],[11.360188200000001,51.3839674],[11.360376400000002,51.383852000000005],[11.360616,51.3837224],[11.3610652,51.383504],[11.3615765,51.383209300000004],[11.3619328,51.383003800000004],[11.3621466,51.382869500000005],[11.3623639,51.382715600000004],[11.3625121,51.382605700000006],[11.362652800000001,51.3824777],[11.3628303,51.382278400000004],[11.3632028,51.3818199],[11.3633346,51.3816342],[11.3634635,51.3813863],[11.3636236,51.381023400000004],[11.363669600000001,51.380877500000004],[11.363668800000001,51.380783400000006],[11.3636545,51.3806772],[11.363653900000001,51.380542600000005],[11.3636633,51.38038400000001],[11.363678400000001,51.3802375],[11.3636838,51.380099],[11.3636707,51.379965600000006],[11.3636429,51.3797617],[11.3636181,51.3795025],[11.3635438,51.3790653],[11.3634803,51.3787048],[11.3634337,51.378485700000006],[11.3634068,51.3783539],[11.3633766,51.3782331],[11.3633371,51.3781091],[11.3632907,51.377985300000006],[11.3632643,51.3778744],[11.363238200000001,51.377739600000005],[11.363207000000001,51.3774778],[11.3631796,51.3771768],[11.363174,51.376938],[11.363222200000001,51.37633],[11.363220400000001,51.376195100000004],[11.363215700000001,51.376074200000005],[11.3632249,51.3756994],[11.3632497,51.37554960000001],[11.3634033,51.374762200000006],[11.3634511,51.37460900000001],[11.3635017,51.374494000000006],[11.363776000000001,51.374075000000005],[11.3639992,51.373770300000004],[11.3641675,51.373549100000005],[11.364908300000002,51.372694700000004],[11.365033700000001,51.3725171],[11.365151000000001,51.372325100000005],[11.365243600000001,51.372089],[11.3653373,51.371803400000005],[11.3653809,51.371619800000005],[11.3653972,51.3713896],[11.3653758,51.3711755],[11.3653548,51.3710261],[11.365286800000002,51.370768000000005],[11.365195900000002,51.3705094],[11.365089900000001,51.3702594],[11.364866200000002,51.3698805],[11.3646761,51.3695448],[11.364488000000001,51.3692306],[11.3642353,51.3688197],[11.363709,51.368035600000006],[11.363476,51.367673700000005],[11.3632542,51.367291200000004],[11.3631522,51.3670508],[11.3630432,51.366809200000006],[11.362947700000001,51.366626000000004],[11.3624758,51.3657667],[11.3620721,51.3650822],[11.3617378,51.3644985],[11.3615635,51.3641902],[11.3613213,51.3637936],[11.3612818,51.363725300000006],[11.361225600000001,51.3636046],[11.3611652,51.3634755],[11.3609711,51.363109300000005],[11.360859300000001,51.3628544],[11.3607273,51.362477500000004],[11.360661,51.362252100000006],[11.360555100000001,51.3618225],[11.3603918,51.361114900000004],[11.3603251,51.360795200000005],[11.3602501,51.36052],[11.360192600000001,51.3602385],[11.3601136,51.3599958],[11.3599809,51.35970330000001],[11.359881000000001,51.3594835],[11.3597728,51.35921140000001],[11.359740700000001,51.3591156],[11.359673800000001,51.358941200000004],[11.359588,51.3586759],[11.3595199,51.358515600000004],[11.359362,51.358063],[11.3592888,51.3578102],[11.3591072,51.3572551],[11.358908900000001,51.356704300000004],[11.3588489,51.3564409],[11.3588065,51.356225200000004],[11.358698700000001,51.355757700000005],[11.358588600000001,51.355393600000006],[11.358482400000002,51.3551033],[11.358319900000001,51.3547639],[11.3581523,51.3544465],[11.358084900000001,51.354318000000006],[11.358008600000002,51.3541894],[11.357841800000001,51.3539863],[11.357648900000001,51.3537936],[11.3573632,51.3535358],[11.3569299,51.353170000000006],[11.3565936,51.3528674],[11.3563763,51.352642900000006],[11.356147700000001,51.352379600000006],[11.355841600000002,51.3520702],[11.3555042,51.351764300000006],[11.3550956,51.351407300000005],[11.354810200000001,51.3511759],[11.354478100000001,51.3509461],[11.354076500000001,51.350673300000004],[11.3536812,51.350387500000004],[11.3534699,51.3502592],[11.353090100000001,51.3500485],[11.352753700000001,51.349898],[11.352346800000001,51.349752200000005],[11.3519363,51.3496212],[11.351513,51.3494912],[11.351101,51.3493834],[11.350457500000001,51.349201300000004],[11.350068100000001,51.3490764],[11.349608700000001,51.3489121],[11.3488761,51.34865670000001],[11.348564300000001,51.348565],[11.3481818,51.3484847],[11.347813100000002,51.348418200000005],[11.347381100000002,51.34833690000001],[11.3469511,51.348252300000006],[11.3464778,51.348144000000005],[11.3458713,51.347987100000005],[11.345307100000001,51.3478447],[11.3442705,51.34759450000001],[11.343352300000001,51.3473732],[11.3430738,51.3473133],[11.3428664,51.347266600000005]]}},{"type":"Feature","properties":{"osmType":"way","osmId":259196353,"name":"Helme","waterway":"river"},"geometry":{"type":"LineString","coordinates":[[10.821885400000001,51.4583456],[10.8219933,51.4580635],[10.8223903,51.457752000000006],[10.822672800000001,51.457718],[10.8230696,51.4576702],[10.8240189,51.457738600000006],[10.824632600000001,51.4575534],[10.825280600000001,51.457084800000004],[10.825815400000002,51.4561774],[10.8261529,51.455812],[10.826524200000001,51.455502800000005],[10.827284800000001,51.455170800000005],[10.831699700000001,51.453808900000006],[10.832998100000001,51.4536528],[10.8332204,51.453637900000004],[10.8362748,51.453433200000006],[10.836482100000001,51.4534395],[10.8367559,51.453486500000004],[10.8371096,51.4534941],[10.8374673,51.4534748],[10.8410852,51.453579700000006],[10.8444415,51.4537028],[10.847896500000001,51.4538565],[10.849821500000001,51.453733500000006],[10.8512529,51.4532722],[10.8525855,51.4528108],[10.8548937,51.453127200000004],[10.8568453,51.453394800000005],[10.859140700000001,51.4537909],[10.861512300000001,51.4541568],[10.8653373,51.45474960000001],[10.8659291,51.4548283],[10.866553900000001,51.454838800000005],[10.867166500000002,51.454791],[10.8676595,51.454657700000006],[10.868141300000001,51.454398000000005],[10.868434800000001,51.454122600000005],[10.8686588,51.453974800000005],[10.8690914,51.453575300000004],[10.86977,51.4531264],[10.8702948,51.4526716],[10.870828000000001,51.4521859],[10.8712827,51.4517638],[10.8722618,51.4509671],[10.8725646,51.4508073],[10.8729534,51.450655100000006],[10.8732333,51.450541300000005],[10.873762900000001,51.4503259],[10.874599100000001,51.4499502],[10.875380700000001,51.449603200000006],[10.87588,51.449355700000005],[10.8763672,51.4491388],[10.876911300000002,51.449013],[10.877349200000001,51.448931900000005],[10.8778602,51.448859000000006],[10.8783451,51.448872],[10.87869,51.448866200000005],[10.879426200000001,51.448854700000005],[10.879759100000001,51.4488933],[10.8805584,51.449103400000006],[10.881670600000001,51.449246],[10.883161600000001,51.4493926],[10.883629200000001,51.4493936],[10.884672,51.449321700000006],[10.8855652,51.449237800000006],[10.8864216,51.4490508],[10.886554700000001,51.4490217],[10.8871034,51.4489819],[10.887267000000001,51.449049900000006],[10.8874375,51.449091100000004],[10.8881029,51.4493791],[10.8883992,51.4495068],[10.888483800000001,51.4495384],[10.888804100000002,51.449657900000005],[10.8897321,51.449910200000005],[10.8905914,51.4500795],[10.8914307,51.450219800000006],[10.891626200000001,51.450225],[10.8919075,51.4502711],[10.8921161,51.4503033],[10.892377000000002,51.450367500000006],[10.8928475,51.4504098],[10.8930586,51.4504583],[10.893168600000001,51.4504595],[10.8933589,51.450479800000004],[10.8935727,51.4505108],[10.893754000000001,51.4505278],[10.8939967,51.450549800000005],[10.8942019,51.4505817],[10.8948009,51.4506828],[10.8953188,51.4507799],[10.8958314,51.4509005],[10.8965496,51.4510389],[10.896704000000001,51.4510784],[10.8968997,51.4510761],[10.897506100000001,51.4511982],[10.8981963,51.4513079],[10.8984623,51.4513429],[10.8986601,51.451337300000006],[10.8991518,51.451404700000005],[10.8994295,51.45140060000001],[10.8997012,51.4514353],[10.90018,51.4515053],[10.900454700000001,51.4515478],[10.9005712,51.4515687],[10.9008787,51.4516548],[10.900970800000001,51.451706900000005],[10.901155000000001,51.451736700000005],[10.901718500000001,51.451883800000004],[10.902099100000001,51.451972100000006],[10.902415900000001,51.452069800000004],[10.903223,51.4523225],[10.9032786,51.45237],[10.9053439,51.452704100000005],[10.9094434,51.4533902],[10.9104986,51.453579100000006],[10.911656200000001,51.4537083],[10.9122433,51.453715900000006],[10.912908700000001,51.4536968],[10.9142627,51.453610700000006],[10.916282,51.4534068],[10.9182807,51.4532621],[10.919545900000001,51.453164300000005],[10.9221318,51.452980600000004],[10.9237739,51.4530046],[10.924782,51.45299180000001],[10.925560800000001,51.452918600000004],[10.926618600000001,51.452752200000006],[10.9275746,51.452529500000004],[10.928355700000001,51.452459100000006],[10.929250600000001,51.452368500000006],[10.9299963,51.4522653],[10.9317059,51.4520758],[10.933196200000001,51.4518919],[10.934593000000001,51.451731200000005],[10.9359984,51.451532900000004],[10.937235900000001,51.451276],[10.937747400000001,51.4511424],[10.9384593,51.4509782],[10.9397243,51.450583900000005],[10.9415419,51.4498459],[10.9424632,51.4494587],[10.943328800000002,51.449191600000006],[10.9439197,51.4490807],[10.945639400000001,51.448703],[10.9464789,51.448468000000005],[10.9470085,51.4483302],[10.947491600000001,51.4481551],[10.9481148,51.4479005],[10.9493922,51.4472359],[10.9511193,51.446379900000004],[10.9521061,51.446043],[10.9525369,51.4458629],[10.9535277,51.4452586],[10.953840900000001,51.44510270000001],[10.954772400000001,51.4447957],[10.9554665,51.4445327],[10.956286400000002,51.443930300000005],[10.9567267,51.443462100000005],[10.9574805,51.443017600000005],[10.9582408,51.442705100000005],[10.9588747,51.4425078],[10.959472900000002,51.4423935],[10.959969300000001,51.442376],[10.960864800000001,51.442394500000006],[10.9616036,51.442427],[10.9623013,51.442395600000005],[10.963689800000001,51.4423212],[10.9646772,51.4422585],[10.9665409,51.442374900000004],[10.968488200000001,51.442604700000004],[10.9699795,51.442805400000005],[10.971583800000001,51.442989700000005],[10.973090200000001,51.443111200000004],[10.974353800000001,51.4431178],[10.975412,51.4430915],[10.976662500000002,51.4430111],[10.9791345,51.4427694],[10.982773700000001,51.4423681],[10.983885500000001,51.442230300000006]]}},{"type":"Feature","properties":{"osmType":"way","osmId":1157976169,"name":"Helme","waterway":"river"},"geometry":{"type":"LineString","coordinates":[[11.0127331,51.440333100000004],[11.012937200000001,51.440422500000004]]}}]}