{"type":"FeatureCollection","features":[{"type":"Feature","properties":{"osmType":"way","osmId":29713528,"name":"Jeetze","waterway":"river"},"geometry":{"type":"LineString","coordinates":[[11.1538418,52.847364500000005],[11.1534735,52.847529400000006],[11.1530939,52.847703],[11.1528182,52.847813300000006],[11.1525912,52.8478913],[11.1524172,52.847969600000006],[11.152321200000001,52.848029700000005],[11.1522254,52.84813320000001],[11.152157500000001,52.8482252],[11.1521249,52.848300900000005],[11.152103700000001,52.8483716],[11.1521146,52.8486686],[11.1521196,52.8489063],[11.152076200000002,52.8491049],[11.152078900000001,52.849215400000006],[11.1521094,52.8493161],[11.152144900000001,52.849402100000006],[11.1525111,52.8497442],[11.152833800000002,52.850084100000004],[11.1529138,52.850203400000005],[11.152972100000001,52.8503223],[11.1529988,52.8504464],[11.153014,52.8505942],[11.1529959,52.850683200000006],[11.152967100000001,52.8507618],[11.1529299,52.8508256]]}},{"type":"Feature","properties":{"osmType":"way","osmId":46121637,"name":"Jeetze","waterway":"river"},"geometry":{"type":"LineString","coordinates":[[11.060269400000001,52.6205584],[11.060569000000001,52.620870000000004],[11.060864,52.6210754],[11.061349600000002,52.621340000000004],[11.061629700000001,52.6214589],[11.0620709,52.621658100000005],[11.062502,52.621816300000006],[11.062825400000001,52.6219594],[11.0630071,52.622112400000006],[11.0631302,52.62227480000001],[11.063706900000001,52.6229554],[11.063850700000001,52.6231048],[11.0639406,52.62315340000001],[11.0656303,52.6239287],[11.0674115,52.6247459],[11.0678278,52.6249369],[11.067910300000001,52.624993700000005],[11.0679633,52.6251067],[11.068017300000001,52.6251813],[11.068580800000001,52.62572350000001],[11.069046700000001,52.626178900000006],[11.069217400000001,52.6263458],[11.0695926,52.6267019],[11.0701283,52.6272284],[11.0709257,52.6280134],[11.0713167,52.6283851],[11.071633100000001,52.6286615],[11.0717955,52.6287649],[11.0725379,52.6290338],[11.0731113,52.629253600000006],[11.0735281,52.6294163],[11.073682300000002,52.629453700000006],[11.073965300000001,52.6295549],[11.0742154,52.6296838],[11.074422400000001,52.6298735],[11.074503100000001,52.6299731],[11.0745889,52.6300996],[11.0747174,52.6302412],[11.0748943,52.6304323],[11.075261900000001,52.630864300000006],[11.07553,52.631142000000004],[11.075632200000001,52.6312755],[11.0756682,52.6314192],[11.0756905,52.6317602],[11.0757385,52.6320059],[11.0757724,52.632083300000005],[11.0758294,52.632152500000004],[11.0759488,52.6322229],[11.0762532,52.6323439],[11.0773033,52.632836600000005],[11.077815600000001,52.633062100000004],[11.0780141,52.633171100000006],[11.0781562,52.633221600000006],[11.0783538,52.633334600000005],[11.078558600000001,52.6334267],[11.0786385,52.633475100000005],[11.0787432,52.6336067],[11.078804100000001,52.633842],[11.079491200000001,52.6352118],[11.079594400000001,52.635326600000006],[11.079818000000001,52.635404900000005],[11.081211300000001,52.635681500000004],[11.0814091,52.6357337],[11.0816327,52.635843300000005],[11.083593500000001,52.6372316],[11.0836795,52.637372500000005],[11.083713900000001,52.6376282],[11.0849265,52.6418711],[11.0849437,52.6420067],[11.0849265,52.642142400000004],[11.0846771,52.6428887],[11.0849901,52.6441323],[11.0850383,52.6443237],[11.084956100000001,52.6449402],[11.0849437,52.6450334],[11.084608300000001,52.645440400000005],[11.0845556,52.6455922],[11.084621700000001,52.6467911],[11.0847923,52.647018200000005],[11.0850015,52.647358800000006],[11.0851311,52.6474759],[11.0855078,52.6478163],[11.0855873,52.6479707],[11.085673,52.648136900000004],[11.0874894,52.64955440000001],[11.0898141,52.6504186],[11.091426700000001,52.652269100000005],[11.0924986,52.660474300000004],[11.0919992,52.6632163],[11.0919098,52.663453700000005],[11.0914791,52.664098200000005],[11.0914064,52.6642882],[11.091434300000001,52.6644646],[11.0914417,52.6645461],[11.091350400000001,52.664637600000006],[11.090993500000002,52.6649685],[11.0909761,52.66502680000001],[11.0909761,52.6650957],[11.091049100000001,52.6651722],[11.0916245,52.665765],[11.0916437,52.6658101],[11.091644500000001,52.665853600000005],[11.0914081,52.6665172],[11.0913842,52.666563200000006],[11.0913423,52.6666018],[11.0887715,52.6686327],[11.0887335,52.668703],[11.0887399,52.668955100000005],[11.088692100000001,52.669533300000005],[11.0890807,52.6706614],[11.0891316,52.670746300000005],[11.0899357,52.671718500000004],[11.090601900000001,52.672588600000005],[11.0905961,52.6726898],[11.089663400000001,52.6757556],[11.0895905,52.675815300000004],[11.0895357,52.6758833],[11.0889915,52.676487200000004],[11.0878476,52.676965900000006],[11.084417100000001,52.67844100000001],[11.0834448,52.678691],[11.0833691,52.678703000000006],[11.0829079,52.678690100000004],[11.0825674,52.6787329],[11.0817923,52.6788655],[11.0815555,52.678912000000004],[11.081243500000001,52.67896210000001],[11.081039200000001,52.6789545],[11.0806398,52.6788449],[11.0804965,52.6788515],[11.0801336,52.6788645],[11.0798152,52.678838500000005],[11.0796808,52.678850000000004],[11.079536200000002,52.678923000000005],[11.0793196,52.679106700000006],[11.0791559,52.679199200000006],[11.0789314,52.679375900000004],[11.0787758,52.6794548],[11.0784429,52.6795527],[11.0775769,52.6797589],[11.077418600000001,52.6798304],[11.077320700000001,52.6799199],[11.0772872,52.6799972],[11.0772717,52.6800769],[11.077387400000001,52.68043230000001],[11.078104000000002,52.6819987],[11.0775447,52.685562600000004],[11.080545,52.6877955],[11.081862800000001,52.6888045],[11.081991700000001,52.690795900000005],[11.081237100000001,52.692530100000006],[11.081219,52.692925100000004],[11.0812705,52.6932435],[11.0814869,52.693512000000005],[11.081754700000001,52.6936868],[11.082043200000001,52.6938304],[11.082105,52.6939178],[11.082105,52.6941488],[11.0821153,52.694354800000006],[11.0822801,52.6945734],[11.0826098,52.694791900000006],[11.0832691,52.6950104],[11.0837699,52.695103],[11.084131300000001,52.6950821],[11.0845365,52.6949928],[11.0849402,52.6947473],[11.085192300000001,52.6946838],[11.0854604,52.6946877],[11.0857176,52.694757],[11.0877277,52.6955898],[11.0901403,52.6960156],[11.0908408,52.6962466],[11.0911389,52.696388600000006],[11.092039100000001,52.6969244],[11.0929157,52.69770140000001],[11.092972900000001,52.697865],[11.092965600000001,52.6982985],[11.093009700000001,52.6983807],[11.0932039,52.6984828],[11.0935612,52.698674100000005],[11.0937316,52.698894700000004],[11.0937949,52.6990537],[11.0938306,52.6991859],[11.0938364,52.6993316],[11.0938117,52.6994893],[11.093793900000001,52.699552100000005],[11.0931136,52.702191600000006],[11.0930344,52.7022892],[11.091951600000002,52.702716200000005],[11.091806,52.702781400000006],[11.091647700000001,52.7028757],[11.091570200000001,52.702948000000006],[11.0914841,52.7031244],[11.091348700000001,52.70335600000001],[11.091212,52.703495700000005],[11.089174400000001,52.704878],[11.0885633,52.705265100000005],[11.0883379,52.7054387],[11.08824,52.7055931],[11.0881676,52.7056655],[11.0867634,52.70612130000001],[11.0864899,52.7062236],[11.0856747,52.70658340000001],[11.0833004,52.707671700000006],[11.0822721,52.708229300000006],[11.0821232,52.7083233],[11.0820749,52.7083899],[11.082091,52.708461400000004],[11.0821909,52.708687000000005],[11.082845200000001,52.7104915],[11.0829775,52.710863800000006],[11.0830829,52.7111205],[11.0845038,52.7136835],[11.0848513,52.71429680000001],[11.085198100000001,52.7148587],[11.085605300000001,52.715345400000004]]}},{"type":"Feature","properties":{"osmType":"way","osmId":142115119,"name":"Jeetze","waterway":"river"},"geometry":{"type":"LineString","coordinates":[[11.1538418,52.847364500000005],[11.153834600000001,52.8475435],[11.1539046,52.847702700000006],[11.154020000000001,52.847804700000005],[11.1547572,52.8484166],[11.1550414,52.848545900000005],[11.155099100000001,52.848625500000004],[11.1555028,52.849909100000005],[11.1555934,52.850043400000004],[11.155811700000001,52.8502449],[11.156264700000001,52.850697600000004],[11.1565654,52.850904],[11.1567714,52.851008500000006],[11.157780500000001,52.85131440000001],[11.157957600000001,52.8513965],[11.158324200000001,52.8515631],[11.1585754,52.851744700000005],[11.158641300000001,52.8519213],[11.158682500000001,52.8525556],[11.158561500000001,52.853552500000006],[11.1582381,52.8543358],[11.1580525,52.854744200000006],[11.1578272,52.8555154],[11.1575292,52.85617190000001],[11.1574015,52.856273800000004],[11.1571858,52.8563021],[11.157005100000001,52.8563308],[11.155865200000001,52.8564778],[11.1552962,52.856466600000005],[11.1548835,52.8564505],[11.1541834,52.856478],[11.1539233,52.856510400000005],[11.1538187,52.856549300000005],[11.1535752,52.8567351]]}},{"type":"Feature","properties":{"osmType":"way","osmId":142115121,"name":"Jeetze","waterway":"river"},"geometry":{"type":"LineString","coordinates":[[11.1133875,52.764554700000005],[11.1148626,52.7651966],[11.1150356,52.765333700000006],[11.1151715,52.7655231],[11.1154772,52.7660902],[11.1168735,52.767540600000004],[11.1172112,52.7677824],[11.117495400000001,52.7679568],[11.1176396,52.7681163],[11.117713700000001,52.7683182],[11.117796100000001,52.769055800000004],[11.117927900000002,52.769305],[11.1182368,52.7696838],[11.118467500000001,52.76984830000001],[11.118681700000002,52.769918000000004],[11.1189411,52.769950400000006],[11.1192624,52.769940500000004],[11.1197567,52.7698283],[11.120761700000001,52.769516800000005],[11.1210418,52.7694844],[11.1213136,52.769489400000005],[11.122046800000001,52.769813400000004],[11.1221744,52.769945400000005],[11.1222198,52.770050100000006],[11.122232100000002,52.770144800000004],[11.122274200000001,52.7710578],[11.122516300000001,52.771899100000006],[11.1225875,52.772003500000004],[11.122730500000001,52.7722131],[11.12306,52.7724872],[11.1240179,52.7732206],[11.1241579,52.7734473],[11.124170300000001,52.773661600000004],[11.124096100000001,52.773868400000005],[11.1238737,52.7742422],[11.1238655,52.774404100000005],[11.123956100000001,52.7745711],[11.124442100000001,52.7749972],[11.1245904,52.775184],[11.124804600000001,52.775572700000005],[11.125125800000001,52.7758892],[11.125344100000001,52.776001300000004],[11.1257272,52.776078500000004],[11.126769300000001,52.776203100000004],[11.127094600000001,52.7761932],[11.1276095,52.776110900000006],[11.127794900000001,52.7761234],[11.1282566,52.776231100000004],[11.129172200000001,52.776429300000004],[11.129402500000001,52.776526100000005],[11.1296713,52.776678800000006],[11.129986200000001,52.7768694],[11.1303897,52.7772172],[11.130488600000001,52.77735920000001],[11.130533900000001,52.777610900000006],[11.1305761,52.7792874],[11.1305454,52.7806268],[11.130571600000001,52.7807624],[11.130641500000001,52.7808611],[11.133708400000002,52.783033100000004],[11.1344306,52.7833854],[11.1374171,52.7848686],[11.137641400000001,52.784916200000005],[11.1378977,52.7849391],[11.1390743,52.7849408],[11.139292800000002,52.7849743],[11.1394733,52.785032400000006],[11.139552,52.785106400000004],[11.1397092,52.785464000000005],[11.1399044,52.785670100000004],[11.140743200000001,52.7862531],[11.1409412,52.7863218],[11.141145100000001,52.786351800000006],[11.141407200000002,52.786351800000006],[11.141983900000001,52.786283100000006],[11.142214000000001,52.786283100000006],[11.142543100000001,52.7863271],[11.143527500000001,52.786475100000004],[11.1442061,52.786557900000005],[11.1444566,52.7866177],[11.144756600000001,52.786765700000004],[11.146352400000001,52.7877826],[11.146953700000001,52.7880666],[11.1476292,52.7882484],[11.148140000000001,52.788340600000005],[11.148626,52.788368000000006],[11.1547497,52.788192900000006],[11.155256300000001,52.788219100000006],[11.1569798,52.78846],[11.1574778,52.788567400000005],[11.1578593,52.7887453],[11.1581477,52.788851],[11.1585263,52.788925000000006],[11.158922400000002,52.788926700000005],[11.1597659,52.788794700000004],[11.1605057,52.788689000000005],[11.1607623,52.7886566],[11.161830100000001,52.788522],[11.1621843,52.788492100000006],[11.162415000000001,52.788536900000004],[11.1626951,52.788654],[11.163395300000001,52.789050100000004],[11.166645,52.7905396],[11.167267,52.7907189],[11.167757100000001,52.790863400000006],[11.1680908,52.791067600000005],[11.1684409,52.7914437],[11.1685809,52.7917227],[11.1686241,52.7918061],[11.1687518,52.7919045],[11.169169400000001,52.792051900000004],[11.169984900000001,52.792154000000004],[11.171148200000001,52.7922747],[11.1713666,52.79227830000001],[11.1716084,52.7922518],[11.1738833,52.791764300000004],[11.1750682,52.7913445],[11.1753012,52.7912952],[11.175609900000001,52.791302200000004],[11.176006000000001,52.7914114],[11.1767655,52.7916174],[11.180880400000001,52.792644200000005],[11.1811769,52.792773700000005],[11.1814858,52.792973],[11.1821201,52.7935359],[11.182593800000001,52.79376250000001],[11.183290900000001,52.7940326],[11.185474000000001,52.7948461],[11.1859184,52.7950862],[11.186292100000001,52.7953307],[11.1865386,52.7955855],[11.186791600000001,52.7961048],[11.1879304,52.7983203],[11.1890046,52.7999505],[11.1893174,52.800418400000005],[11.189477100000001,52.800648300000006],[11.1894887,52.8007531],[11.1895018,52.800827600000005],[11.1894621,52.801404700000006],[11.187660900000001,52.806073500000004],[11.1875991,52.8064819],[11.1875827,52.8069798],[11.1875209,52.807104300000006],[11.1874097,52.807194],[11.187212,52.8072711],[11.1867836,52.8073483],[11.185673000000001,52.8074912],[11.185504100000001,52.807544],[11.185352700000001,52.807651400000005],[11.1852333,52.807818600000004],[11.1842401,52.810084700000004],[11.184047900000001,52.810841700000005],[11.1839489,52.812105700000004],[11.184047900000001,52.8124824],[11.1846945,52.8143413],[11.184700300000001,52.8145948],[11.184642,52.81478490000001],[11.1844236,52.815022500000005],[11.1839226,52.815578800000004],[11.183879000000001,52.815691400000006],[11.183884800000001,52.815846300000004],[11.184144400000001,52.817112200000004],[11.184246400000001,52.8175329],[11.1842173,52.817814500000004],[11.1841211,52.8180539],[11.183908500000001,52.818251000000004],[11.183385300000001,52.8186192],[11.1825016,52.819240900000004],[11.182329800000002,52.8194433],[11.180331800000001,52.822481100000005],[11.180179200000001,52.8226603],[11.179885,52.822906700000004],[11.1796433,52.8230281],[11.179454000000002,52.823073900000004],[11.179218,52.8230968],[11.177311900000001,52.8231672],[11.1769453,52.823209500000004],[11.1766281,52.823319000000005],[11.176418100000001,52.8234684],[11.176294500000001,52.8236575],[11.1762616,52.823876500000004],[11.1761709,52.824090600000005],[11.175447400000001,52.8250345],[11.175301900000001,52.825228],[11.174822500000001,52.825726800000005],[11.1747017,52.8259607],[11.1744287,52.826440000000005],[11.174177400000001,52.8266715],[11.173917900000001,52.826818300000006],[11.1735719,52.8269328],[11.173098300000001,52.826977600000006],[11.1709647,52.827184200000005],[11.1705281,52.8272862],[11.1701121,52.8274654],[11.169737300000001,52.8276844],[11.1691813,52.82809],[11.168892900000001,52.8284633],[11.1687776,52.8288341],[11.1687715,52.8295691],[11.168476700000001,52.8314328],[11.168576600000002,52.831676300000005],[11.169893100000001,52.8332982],[11.169980500000001,52.8334776],[11.1700213,52.8336747],[11.169986300000001,52.833885800000004],[11.1697824,52.8342114],[11.1681019,52.8368484],[11.167822300000001,52.83716870000001],[11.167496100000001,52.837418500000005],[11.166238,52.8380202],[11.1660661,52.838065900000004],[11.1658972,52.838081800000005],[11.1657399,52.8380712],[11.1653759,52.8380219],[11.164548700000001,52.838043000000006],[11.164146800000001,52.838115200000004],[11.1633663,52.838394900000004],[11.159574000000001,52.8402061],[11.1593292,52.840323000000005],[11.1590738,52.8405196],[11.158724600000001,52.8409744],[11.158203400000001,52.8416531],[11.157015000000001,52.8432134],[11.156170000000001,52.8443011],[11.1539046,52.8472116],[11.1538418,52.847364500000005]]}},{"type":"Feature","properties":{"osmType":"way","osmId":142115127,"name":"Jeetze","waterway":"river"},"geometry":{"type":"LineString","coordinates":[[11.1535752,52.8567351],[11.1531278,52.8572581],[11.1529711,52.8574416],[11.1528922,52.857620000000004],[11.1527469,52.857936300000006],[11.1521732,52.8588031],[11.1519741,52.859141],[11.151946800000001,52.8593222],[11.1519907,52.859531600000004],[11.1520468,52.859723200000005],[11.1521114,52.8599764],[11.152397200000001,52.861470800000006],[11.153284900000001,52.863731400000006],[11.153345300000002,52.8640398],[11.153309,52.8644285],[11.1532271,52.864747300000005],[11.153115600000001,52.865380200000004],[11.1531803,52.8670759],[11.153184300000001,52.868465900000004],[11.1532111,52.868759000000004],[11.153150100000001,52.869612800000006],[11.1532449,52.8702765],[11.1534562,52.8712188],[11.1536158,52.8715259],[11.1544825,52.8729262],[11.1547067,52.87319170000001],[11.1582858,52.877512],[11.159036100000002,52.878454100000006],[11.1591871,52.878703900000005],[11.1593595,52.879279000000004],[11.159536300000001,52.879549700000005],[11.159851100000001,52.880117000000006],[11.159877,52.880247100000005],[11.159851100000001,52.8803538],[11.159739,52.8805307],[11.1582524,52.882507800000006],[11.158078000000001,52.882842000000004],[11.157268,52.884139700000006],[11.157227800000001,52.8842161],[11.157202300000002,52.88429300000001],[11.1572224,52.8844678],[11.1578303,52.8861241],[11.157918400000002,52.88643750000001],[11.1579251,52.886564500000006],[11.1579064,52.8873034],[11.1578044,52.8881255],[11.1577213,52.888467000000006],[11.1575764,52.888797100000005],[11.1573887,52.8890188],[11.154282700000001,52.892860600000006],[11.154086900000001,52.8931503],[11.1540011,52.893429700000006],[11.154169300000001,52.8945249],[11.1543676,52.89487870000001],[11.1546877,52.8953768],[11.1548057,52.895833100000004],[11.154542900000001,52.900924700000004],[11.1545918,52.901682]]}},{"type":"Feature","properties":{"osmType":"way","osmId":312604701,"name":"Jeetze","waterway":"river"},"geometry":{"type":"LineString","coordinates":[[11.1528082,52.8522497],[11.152852600000001,52.852419100000006],[11.153008600000001,52.8527733],[11.1534606,52.8539692],[11.153578000000001,52.854169000000006],[11.1536734,52.8543152],[11.1537348,52.854418300000006],[11.1538079,52.8545163],[11.1538509,52.8545547],[11.1539198,52.854595800000006],[11.1540619,52.854773300000005],[11.1541137,52.8548455],[11.1541335,52.85491570000001],[11.1541166,52.855053700000006],[11.1540909,52.8551402],[11.154031900000001,52.8552374],[11.1538909,52.85540760000001],[11.1537637,52.855588000000004],[11.1536632,52.855751600000005],[11.1535974,52.855855700000006],[11.1535382,52.855972200000004],[11.153534,52.856027000000005],[11.1535676,52.8561981],[11.153584,52.856346800000004],[11.153578600000001,52.856494600000005],[11.153576300000001,52.8566548],[11.153576000000001,52.8566884],[11.1535752,52.8567351]]}},{"type":"Feature","properties":{"osmType":"way","osmId":312604702,"name":"Jeetze","waterway":"river"},"geometry":{"type":"LineString","coordinates":[[11.152768400000001,52.8513723],[11.1527423,52.8514247],[11.152675100000002,52.851622600000006],[11.152669900000001,52.8517225],[11.1526793,52.8518181],[11.1527358,52.8519264],[11.1527945,52.852129600000005],[11.1528082,52.8522497]]}},{"type":"Feature","properties":{"osmType":"way","osmId":412849540,"name":"Jeetze","waterway":"river"},"geometry":{"type":"LineString","coordinates":[[11.1528636,52.850887300000004],[11.1528437,52.8510015],[11.152820700000001,52.8511079]]}},{"type":"Feature","properties":{"osmType":"way","osmId":412849544,"name":"Jeetze","waterway":"river"},"geometry":{"type":"LineString","coordinates":[[11.152820700000001,52.8511079],[11.1527849,52.8513266],[11.152768400000001,52.8513723]]}},{"type":"Feature","properties":{"osmType":"way","osmId":489595765,"name":"Jeetze","waterway":"river"},"geometry":{"type":"LineString","coordinates":[[11.1529299,52.8508256],[11.1528636,52.850887300000004]]}},{"type":"Feature","properties":{"osmType":"way","osmId":653260756,"name":"Jeetze","waterway":"river"},"geometry":{"type":"LineString","coordinates":[[11.1132545,52.7644949],[11.1133875,52.764554700000005]]}},{"type":"Feature","properties":{"osmType":"way","osmId":653260757,"name":"Jeetze","waterway":"river"},"geometry":{"type":"LineString","coordinates":[[11.085605300000001,52.715345400000004],[11.086224600000001,52.716406600000006],[11.0867334,52.7172884],[11.087106200000001,52.7177541],[11.0883178,52.719123100000004],[11.0884242,52.719348600000004],[11.088434300000001,52.719370100000006],[11.088776600000001,52.7205597],[11.089155600000002,52.7212533],[11.089313200000001,52.7214583],[11.089715700000001,52.7219817],[11.090053500000002,52.722261200000005],[11.0901441,52.722455700000005],[11.090122000000001,52.724075600000006],[11.090093000000001,52.7246644],[11.090013500000001,52.7260934],[11.0899693,52.726994100000006],[11.0900043,52.727188100000006],[11.090546000000002,52.7282323],[11.09068,52.728380400000006],[11.090878,52.728507400000005],[11.093391,52.7299219],[11.0938104,52.7300842],[11.0960239,52.730923700000005],[11.096385000000001,52.7311107],[11.098924700000001,52.732832],[11.09928,52.733107100000005],[11.100078,52.7339289],[11.1001887,52.7341088],[11.100223600000001,52.7342499],[11.1001363,52.73473310000001],[11.100142100000001,52.735004700000005],[11.100217800000001,52.735286800000004],[11.1003301,52.735574500000006],[11.100468300000001,52.7359287],[11.100485800000001,52.7362179],[11.10041,52.7365001],[11.100217800000001,52.73675050000001],[11.099798400000001,52.7371032],[11.0992043,52.7375758],[11.0990295,52.737805],[11.0988606,52.73818240000001],[11.0986642,52.7390271],[11.098586800000001,52.7393603],[11.0984587,52.7396918],[11.0971083,52.741252900000006],[11.0970587,52.7413199],[11.097055200000002,52.741333600000004],[11.0970151,52.741487400000004],[11.097052900000001,52.7416849],[11.097675200000001,52.743014],[11.0977277,52.7432133],[11.097701500000001,52.7434425],[11.097346100000001,52.7441777],[11.0973257,52.744347000000005],[11.097354900000001,52.7445127],[11.097439300000001,52.74462200000001],[11.097768400000001,52.745119200000005],[11.097957800000001,52.745295500000005],[11.0987497,52.7458729],[11.0988865,52.74603870000001],[11.0989564,52.7462044],[11.099199700000002,52.747120200000005],[11.0992311,52.748594700000005],[11.099294400000002,52.7488651],[11.0994249,52.749177700000004],[11.099488200000001,52.749391700000004],[11.0999741,52.750575700000006],[11.0999988,52.750725300000006],[11.099957600000002,52.7509397],[11.0997479,52.752541300000004],[11.0997562,52.752641100000005],[11.099859100000002,52.752795600000006],[11.101469,52.7538801],[11.103269500000001,52.7550941],[11.1049441,52.7569327],[11.1050082,52.757091300000006],[11.1050053,52.7572923],[11.1049529,52.7574685],[11.1047723,52.7578863],[11.1047461,52.758073100000004],[11.1048218,52.7583375],[11.1050781,52.7586371],[11.1054888,52.75892270000001],[11.105914,52.7591412],[11.1060771,52.7593351],[11.106254700000001,52.7597845],[11.1064033,52.760071800000006],[11.106598400000001,52.7602586],[11.1069566,52.760479000000004],[11.107760500000001,52.760963600000004],[11.1101054,52.763467000000006],[11.1104596,52.763668900000006],[11.1109003,52.7638334],[11.1132545,52.7644949]]}}]}