{"type":"FeatureCollection","features":[{"type":"Feature","properties":{"osmType":"way","osmId":25751347,"name":"Kapengraben","waterway":"river"},"geometry":{"type":"LineString","coordinates":[[12.375175800000001,51.823555600000006],[12.373587700000002,51.823802400000005],[12.371209100000002,51.824147700000005],[12.369716,51.824352100000006],[12.3668207,51.8247106],[12.364513,51.825043400000006],[12.363420900000001,51.8252086],[12.3618678,51.825459300000006],[12.3611631,51.8255725],[12.360755900000001,51.825623500000006],[12.360003500000001,51.8258195],[12.359888600000001,51.825850300000006],[12.3596885,51.8259222],[12.359217000000001,51.826031],[12.3586498,51.8261143],[12.358346800000001,51.826160400000006],[12.357555000000001,51.8263125],[12.357362100000001,51.826364100000006],[12.3571836,51.8263984],[12.3566915,51.8264586],[12.356228100000001,51.826536100000006],[12.355985200000001,51.8265602],[12.355699000000001,51.826576],[12.3554261,51.826622900000004],[12.3551301,51.8266915],[12.354656100000001,51.826776200000005],[12.3542631,51.8268725],[12.353922200000001,51.826998700000004],[12.353742100000002,51.8270405],[12.3535515,51.8270665],[12.352865600000001,51.827142],[12.3512144,51.8273075],[12.3506678,51.827358100000005],[12.3502369,51.8274161],[12.3497792,51.8274899],[12.3493928,51.8275768],[12.3490406,51.82761],[12.348679200000001,51.827632900000005],[12.3484929,51.827656100000006],[12.347869000000001,51.827721000000004],[12.3471443,51.8278138],[12.3468987,51.8278618],[12.346067300000001,51.827964900000005],[12.345064200000001,51.8280832],[12.3447557,51.8281326],[12.3436553,51.828260900000004],[12.3432779,51.82829460000001],[12.343014,51.828326700000005],[12.3427576,51.8283794],[12.342554000000002,51.82843870000001],[12.3418138,51.8287343],[12.339925200000001,51.8294118],[12.3392931,51.829643600000004],[12.339033200000001,51.829750700000005],[12.3383768,51.830013400000006],[12.3337933,51.831698300000006],[12.332916500000001,51.832035600000005],[12.328898700000002,51.8335463],[12.3282615,51.8337968],[12.327463000000002,51.834132200000006],[12.326714,51.834445200000005],[12.324743400000001,51.8352992],[12.3244634,51.835650900000005],[12.3243402,51.8359614],[12.32407,51.836424],[12.322905200000001,51.837271300000005],[12.3227439,51.837361200000004],[12.322617600000001,51.837406800000004]]}},{"type":"Feature","properties":{"osmType":"way","osmId":158497895,"name":"Kapengraben","waterway":"river"},"geometry":{"type":"LineString","coordinates":[[12.3220179,51.837546700000004],[12.321838900000001,51.837608100000004],[12.3216826,51.837712100000005],[12.3212261,51.837936600000006],[12.320995300000002,51.8380006],[12.3207369,51.8380741],[12.3198637,51.8385472],[12.3190433,51.838829700000005],[12.318734200000002,51.839017000000005],[12.318503300000001,51.839185500000006],[12.318310100000001,51.839479100000005],[12.3181957,51.839607],[12.318086500000001,51.839705900000006],[12.3178896,51.8397785],[12.3176152,51.839853600000005],[12.316987300000001,51.839944300000006],[12.3162645,51.8400192],[12.315442000000001,51.8401276],[12.3151299,51.8401584],[12.314692200000001,51.8401627],[12.314363400000001,51.8402778],[12.314034600000001,51.840377000000004],[12.3133127,51.8405781],[12.313202800000001,51.840678700000005],[12.3130722,51.840884100000004],[12.3126444,51.841894800000006],[12.312333500000001,51.8425378],[12.311948600000001,51.843087100000005],[12.3117797,51.8433043],[12.3116154,51.8434286],[12.311285000000002,51.84356390000001],[12.3107307,51.843689600000005],[12.3097314,51.8437336],[12.3092222,51.843757100000005],[12.308625000000001,51.843846000000006],[12.3077652,51.844235100000006],[12.3075123,51.844417500000006],[12.307231100000001,51.844723300000005],[12.3071409,51.8448033],[12.3069666,51.8449503],[12.3066337,51.845411600000006],[12.30616,51.8462806],[12.3057648,51.847065300000004],[12.3055027,51.847571900000005],[12.305509800000001,51.848047300000005],[12.3055117,51.8481393],[12.305567,51.8486996],[12.3053998,51.8489257],[12.3050408,51.849219100000006],[12.305031600000001,51.849225800000006],[12.3040432,51.849951600000004],[12.302718200000001,51.8514203],[12.301217000000001,51.8532287],[12.3007538,51.8538123],[12.3005011,51.854030400000006],[12.299894100000001,51.8545646],[12.2987622,51.855309000000005],[12.2976285,51.855503000000006],[12.2965812,51.855409800000004],[12.2952746,51.855224400000004],[12.2944139,51.855273800000006],[12.293417900000001,51.855345],[12.2927356,51.855472500000005],[12.2918488,51.855659700000004],[12.291413200000001,51.8558481],[12.291329200000002,51.8560074]]}},{"type":"Feature","properties":{"osmType":"way","osmId":158497897,"name":"Kapengraben","waterway":"river"},"geometry":{"type":"LineString","coordinates":[[12.322617600000001,51.837406800000004],[12.322233200000001,51.8375057],[12.3220179,51.837546700000004]]}},{"type":"Feature","properties":{"osmType":"way","osmId":263840966,"name":"Kapengraben","waterway":"river"},"geometry":{"type":"LineString","coordinates":[[12.407229000000001,51.8142228],[12.4058468,51.814740900000004],[12.405551500000001,51.814848100000006],[12.405326800000001,51.8149092],[12.404962900000001,51.815006800000006],[12.4043641,51.8151632],[12.4042583,51.815187200000004],[12.4040441,51.81523060000001],[12.402959200000002,51.8154176],[12.400296200000001,51.8158973],[12.399378200000001,51.8160723],[12.3987724,51.8162001],[12.3980612,51.816341],[12.3964139,51.8166979],[12.3960641,51.816763200000004],[12.394630800000002,51.817081400000006],[12.3933681,51.81733680000001],[12.3924775,51.817508600000004],[12.3911809,51.8177856],[12.390384200000002,51.8179722],[12.389141,51.8183142],[12.3884766,51.8185159],[12.387144000000001,51.818922300000004],[12.3864637,51.8191707],[12.385885400000001,51.819394300000006],[12.3844033,51.8199648],[12.383531900000001,51.8203103],[12.3826575,51.820655900000006],[12.3823827,51.820761000000005],[12.3814706,51.821138600000005],[12.3804776,51.8215986],[12.380391600000001,51.821637],[12.3797157,51.8219434],[12.378602500000001,51.822427100000006],[12.377701400000001,51.8228281],[12.376782200000001,51.8232377],[12.3764271,51.8233259],[12.3759464,51.8234131],[12.375175800000001,51.823555600000006]]}}]}