{"type":"FeatureCollection","features":[{"type":"Feature","properties":{"osmType":"way","osmId":53064650,"name":"Lober-Leine-Kanal","waterway":"stream"},"geometry":{"type":"LineString","coordinates":[[12.328401900000001,51.5498459],[12.329501400000002,51.5501762],[12.329922900000001,51.550321000000004],[12.3303673,51.550437],[12.3308175,51.550561300000005],[12.3311551,51.550665300000006],[12.331395,51.5507847],[12.3316586,51.5509417],[12.3317867,51.551072100000006],[12.332342,51.5518118],[12.3329055,51.552446700000004],[12.333435600000001,51.552908200000005],[12.3336365,51.55304],[12.3340104,51.5532204],[12.334222400000002,51.5532898],[12.334601800000002,51.5533106],[12.334825,51.553262000000004],[12.335461100000002,51.5530747],[12.3359968,51.55285610000001],[12.336331600000001,51.5527451],[12.3366875,51.552557],[12.337490200000001,51.552441800000004],[12.337703600000001,51.5524372],[12.3379895,51.5523904],[12.3385429,51.5522397],[12.340297300000001,51.5516997],[12.3410466,51.551582800000006],[12.3416604,51.5515168],[12.3421626,51.5515515],[12.342499100000001,51.551588300000006],[12.342815900000002,51.55167530000001],[12.3430715,51.551741],[12.343316900000001,51.551844800000005],[12.343493400000002,51.551926400000006],[12.3436556,51.552032100000005],[12.343782200000001,51.5521284],[12.344668,51.5526965],[12.348161000000001,51.5549551],[12.349142800000001,51.5555984],[12.3500777,51.5561833],[12.350492800000001,51.5563592],[12.350795300000001,51.5564497],[12.3520968,51.556624500000005],[12.353750600000001,51.5568347],[12.3557397,51.557097600000006],[12.3580185,51.5573897],[12.3586814,51.5574646],[12.359055000000001,51.557553500000004],[12.3595286,51.5577017],[12.361697600000001,51.5584171],[12.3638635,51.559142800000004],[12.365062100000001,51.5595158],[12.3657482,51.5597459],[12.366318600000001,51.5599453],[12.3664939,51.560071],[12.3667751,51.5600825],[12.367136,51.560052000000006],[12.367413800000001,51.560013100000006],[12.3677103,51.5599684],[12.3679663,51.5598791],[12.3683811,51.559649900000004],[12.3698811,51.5588874],[12.370502,51.5585997],[12.371037900000001,51.558403500000004],[12.3749111,51.5574808],[12.377950100000001,51.5565359],[12.398358,51.552148300000006],[12.398620200000002,51.552117100000004],[12.4059299,51.551773600000004],[12.406287,51.551770100000006],[12.4070961,51.5518603],[12.4106561,51.5526202],[12.410946200000001,51.5526965],[12.411521,51.552904700000006],[12.411897300000001,51.5530958],[12.411917200000001,51.553105900000006],[12.4128684,51.553709100000006],[12.4131082,51.5538858],[12.413243900000001,51.5539792],[12.4134433,51.554047800000006],[12.413843400000001,51.554351800000006],[12.4170172,51.5565025],[12.4171902,51.5566516],[12.417346400000001,51.556849400000004],[12.417480300000001,51.5570888],[12.417541700000001,51.5573004],[12.4175529,51.5576577],[12.417530500000002,51.558594400000004],[12.417474700000001,51.559708],[12.417391,51.560478100000005],[12.417290600000001,51.560620300000004],[12.417084200000001,51.560818000000005],[12.4168219,51.560988],[12.416481500000002,51.561161500000004],[12.4160184,51.5613314],[12.415505000000001,51.5614945],[12.414757300000002,51.561487500000005],[12.404501400000001,51.560863100000006],[12.403352,51.560925600000004],[12.4026489,51.5610331],[12.4021188,51.5611302],[12.401644500000002,51.5612586],[12.401159100000001,51.561442400000004],[12.4006848,51.5616506],[12.4002774,51.5618934],[12.399859000000001,51.5621778],[12.3994684,51.5624796],[12.392828300000001,51.5679461],[12.3915114,51.569115000000004],[12.390925500000002,51.5697011],[12.390585100000001,51.570082600000006],[12.390395400000001,51.5703358],[12.3902671,51.5705855],[12.390183400000002,51.5708318],[12.3895204,51.5732501],[12.3893185,51.5742296],[12.3885652,51.57723360000001],[12.3880358,51.5794159],[12.3879195,51.579933700000005],[12.387798,51.580496100000005],[12.3876933,51.581340100000006],[12.387538000000001,51.584387400000004],[12.3875641,51.584693300000005],[12.387605,51.5850701],[12.3877099,51.585283000000004],[12.387876200000001,51.5854888],[12.388184200000001,51.5857983],[12.388424,51.585975700000006],[12.3886976,51.586148900000005],[12.3888654,51.586222400000004],[12.389061300000002,51.586300300000005],[12.389330500000002,51.5863847],[12.389663200000001,51.586473100000006],[12.390001600000002,51.586550900000006],[12.390371900000002,51.5865955],[12.390741700000001,51.5866162],[12.391070200000001,51.5866211],[12.3912305,51.586616600000006],[12.391531700000002,51.586594700000006],[12.3932625,51.5863814],[12.3963231,51.586022500000006],[12.401397800000002,51.5854111],[12.402485800000001,51.585282400000004],[12.406220900000001,51.5848218],[12.4064536,51.584805800000005],[12.4066179,51.584805100000004],[12.4069113,51.584833800000006],[12.407702200000001,51.584948000000004],[12.407918500000001,51.5849861],[12.408201100000001,51.585077600000005],[12.4083608,51.5851582],[12.4086732,51.585386500000006],[12.4088636,51.585570000000004],[12.408962800000001,51.5856961],[12.409085000000001,51.5858889],[12.409176800000001,51.586072200000004],[12.4092278,51.5862333],[12.4094961,51.5874948],[12.4095601,51.58785820000001],[12.4096077,51.588022],[12.4096591,51.5881392],[12.4097509,51.5882529],[12.4098447,51.588350000000005],[12.409968300000001,51.588447800000004],[12.4105147,51.5887795],[12.410991800000001,51.589010300000005],[12.4113158,51.589184100000004],[12.411532500000002,51.5893214],[12.4117271,51.589523400000004],[12.411780100000001,51.5896089],[12.4119001,51.5898899],[12.4121418,51.5905354],[12.412807500000001,51.592324100000006],[12.413273700000001,51.593576600000006],[12.4134437,51.5940366],[12.413555500000001,51.594219100000004],[12.413673000000001,51.5943662],[12.4138579,51.594544500000005],[12.414052400000001,51.594706200000005],[12.4142901,51.594852],[12.4145061,51.5949569],[12.4147177,51.5950451],[12.414987100000001,51.5951195],[12.4152403,51.5951864],[12.4156505,51.5952677],[12.4170955,51.595491700000004],[12.417701600000001,51.595610400000005],[12.417913400000002,51.5956787],[12.418109300000001,51.595752600000004],[12.4183488,51.5959173],[12.418590700000001,51.596065200000005],[12.418780700000001,51.5962121],[12.418840000000001,51.5963128],[12.418963000000002,51.596521100000004],[12.419224000000002,51.597168],[12.419637600000001,51.5980732],[12.419826500000001,51.5984862],[12.4199313,51.5986692],[12.420047,51.598856600000005],[12.4201881,51.599009900000006],[12.420318600000002,51.599089000000006],[12.420511600000001,51.599175800000005],[12.420755400000001,51.5992602],[12.420909100000001,51.5993086],[12.4210534,51.599339300000004],[12.421229700000001,51.599366700000004],[12.4215248,51.5994031],[12.422084,51.599454400000006],[12.424300800000001,51.5996551],[12.425201900000001,51.5997597],[12.4255524,51.599847200000006],[12.425866800000001,51.599918100000004],[12.426278700000001,51.600056300000006],[12.4272755,51.600436],[12.4287191,51.6010974],[12.4292222,51.6013474],[12.4293434,51.601454000000004],[12.429453400000002,51.6015741],[12.429569500000001,51.601761100000004],[12.429701900000001,51.602049900000004],[12.429822900000001,51.6023458],[12.429995900000002,51.6026697],[12.4302042,51.602978900000004],[12.430695700000001,51.6036317],[12.4311368,51.6040372],[12.4314946,51.604398100000004],[12.431816600000001,51.604708900000006],[12.432112,51.6049877],[12.432185800000001,51.60512060000001],[12.432239000000001,51.6052539],[12.4322397,51.605382500000005],[12.4321631,51.605583800000005],[12.4320917,51.605739],[12.431947500000001,51.605992500000006],[12.431654,51.6063617],[12.431426400000001,51.606594900000005],[12.4313692,51.606686200000006],[12.4315581,51.6069229]]}}]}