{"type":"FeatureCollection","features":[{"type":"Feature","properties":{"osmType":"way","osmId":29055823,"name":"Luppe","waterway":"river"},"geometry":{"type":"LineString","coordinates":[[12.176206500000001,51.3681287],[12.176089300000001,51.368031900000005],[12.1756103,51.36790310000001],[12.1749995,51.367894500000006],[12.173712,51.3678302],[12.1728366,51.3678195],[12.1719182,51.367696200000005],[12.1709776,51.3676046],[12.170769100000001,51.3676314],[12.1705892,51.3677239],[12.170343800000001,51.3679606],[12.1701394,51.3681221],[12.1699365,51.3682225],[12.1697284,51.368301900000006],[12.1691619,51.368362000000005],[12.1687952,51.368467300000006],[12.168737,51.368683700000005],[12.1686659,51.3689796],[12.1684351,51.36900850000001],[12.168161900000001,51.368962],[12.1678736,51.3689205],[12.167430300000001,51.36890330000001],[12.1669903,51.368923],[12.166664200000001,51.369011300000004],[12.1663478,51.3691484],[12.1656733,51.3693164],[12.1655917,51.369334200000004],[12.165171,51.3694259],[12.1647628,51.369546],[12.164279200000001,51.3696253],[12.1633852,51.3694586],[12.1630663,51.369259500000005],[12.1628074,51.368936500000004],[12.1624838,51.3686755],[12.1617966,51.3684078],[12.161103500000001,51.368323200000006],[12.160279500000001,51.368328500000004],[12.159728600000001,51.3682121],[12.1593423,51.367944200000004],[12.1589024,51.367676200000005],[12.158099400000001,51.367514],[12.157346800000001,51.367133700000004],[12.1569391,51.367167200000004],[12.1566709,51.36733460000001],[12.1567352,51.367723100000006],[12.1566816,51.3678973],[12.156338300000002,51.367977700000004],[12.155855500000001,51.3677968],[12.1555551,51.3675021],[12.155437000000001,51.3670801],[12.1552439,51.3667184],[12.1549113,51.3665442],[12.1543486,51.366522700000004],[12.153910900000001,51.3667102],[12.153913500000002,51.367287700000006],[12.1536453,51.3674284],[12.1532376,51.367307800000006],[12.1528085,51.366852300000005],[12.152411500000001,51.366758600000004],[12.152057500000002,51.3669662],[12.1518321,51.367287700000006],[12.151274200000001,51.3674686],[12.1508344,51.3673748],[12.1505769,51.367173900000004],[12.1505769,51.366892500000006],[12.150877300000001,51.36653080000001],[12.1510382,51.3662696],[12.150802200000001,51.366055200000005],[12.1500082,51.3661691],[12.149589800000001,51.366410200000004],[12.1493967,51.366758600000004],[12.149053400000001,51.367254200000005],[12.148817300000001,51.3674418],[12.148356000000001,51.3673413],[12.1476801,51.3670265],[12.1474436,51.366976],[12.147347100000001,51.366921500000004],[12.147285700000001,51.366841],[12.147275400000002,51.366739200000005],[12.147285700000001,51.3666533],[12.1473379,51.366556900000006],[12.147436,51.3665031],[12.1477445,51.366376800000005],[12.147945400000001,51.3662848],[12.1481484,51.3662179],[12.1483044,51.3661369],[12.148377700000001,51.3659996],[12.1483608,51.3658318],[12.1482217,51.365689800000006],[12.147487,51.3653921],[12.1468862,51.3650103],[12.1463038,51.36488670000001],[12.1460655,51.364790400000004],[12.145942000000002,51.3646887],[12.145881900000001,51.3645404],[12.145942000000002,51.364407400000005],[12.146178,51.3642667],[12.1464054,51.3642343],[12.146476100000001,51.3642297],[12.1467629,51.364211100000006],[12.1471946,51.364178200000005],[12.1476264,51.364032300000005],[12.148046200000001,51.3638647],[12.148151700000001,51.363747700000005],[12.1482025,51.36361350000001],[12.1481898,51.363526500000006],[12.148179,51.3634525],[12.1478938,51.363326900000004],[12.147059800000001,51.363157900000004],[12.146820700000001,51.3631096],[12.146592700000001,51.3630368],[12.146408300000001,51.362948200000005],[12.1461959,51.3628105],[12.146109000000001,51.362736600000005],[12.1459772,51.3626766],[12.1457473,51.3626093],[12.1456073,51.362573000000005],[12.1454138,51.36254580000001],[12.145162000000001,51.362540700000004],[12.1448681,51.3625278],[12.144654000000001,51.362534100000005],[12.1444302,51.36256160000001],[12.144005400000001,51.362662500000006],[12.143772,51.3627474],[12.1435191,51.362846000000005],[12.1432927,51.3628997],[12.143168500000002,51.3629182],[12.143034700000001,51.362903200000005],[12.1428276,51.3628804],[12.142649800000001,51.362872700000004],[12.1419584,51.3628842],[12.140888200000001,51.3630858],[12.1406009,51.363156800000006],[12.140438300000001,51.3632191],[12.140154200000001,51.363336700000005],[12.1391667,51.3637152],[12.138688,51.3638464],[12.1382211,51.3639312],[12.137447300000002,51.363975],[12.1366999,51.363943500000005],[12.136341300000002,51.3639772],[12.136082400000001,51.3640082],[12.1357835,51.3640629],[12.135432400000001,51.3641744],[12.1351741,51.364298700000006],[12.1348908,51.3643773],[12.1344702,51.364357700000006],[12.134259400000001,51.3643019],[12.133949900000001,51.364135700000006],[12.133491800000002,51.363842000000005],[12.132909900000001,51.363440000000004],[12.1324752,51.3631065],[12.1324082,51.363027800000005],[12.1323802,51.3629186],[12.1323661,51.3627868],[12.1324056,51.3626367],[12.1325286,51.362358500000006],[12.1326006,51.362175],[12.1326409,51.3619883],[12.1326254,51.3618473],[12.132590500000001,51.3617367],[12.132390200000001,51.361374600000005],[12.132317,51.3612314],[12.132195000000001,51.361106400000004],[12.132108700000002,51.3610136],[12.131986000000001,51.360975],[12.131897700000001,51.36095460000001],[12.1317704,51.3609494],[12.131579200000001,51.3609664],[12.1311371,51.3609883],[12.1305799,51.361038],[12.1302648,51.361031800000006],[12.129979500000001,51.361067000000006],[12.129646600000001,51.361190400000005],[12.1293032,51.361378],[12.1288318,51.3615392],[12.1283138,51.361637300000005],[12.1280327,51.3617106],[12.1277497,51.3618175],[12.1275811,51.361970400000004],[12.127477,51.36211],[12.127468200000001,51.362173600000006],[12.1275036,51.3622248],[12.127494700000002,51.3622718],[12.127463700000002,51.362324300000004],[12.127191400000001,51.3626353],[12.1270719,51.3627321],[12.126936800000001,51.3628026],[12.126766400000001,51.3628675],[12.1266446,51.3628896],[12.126491900000001,51.3628827],[12.126376800000001,51.36285650000001],[12.1262617,51.3628012],[12.125894200000001,51.3625607],[12.1255798,51.3623436],[12.1255555,51.362269000000005],[12.125573200000002,51.362177800000005],[12.1256462,51.3620893],[12.1257303,51.362027100000006],[12.125852100000001,51.3619898],[12.1260779,51.3619373],[12.126310400000001,51.361846],[12.126485200000001,51.3617147],[12.126584900000001,51.3615889],[12.126649100000002,51.361459],[12.126480800000001,51.3610623],[12.1262705,51.360802400000004],[12.12612,51.3606891],[12.1259163,51.3605992],[12.125670600000001,51.360595100000005],[12.125404900000001,51.360610300000005],[12.125026400000001,51.3606628],[12.124712,51.3606351],[12.124359400000001,51.3604562],[12.123586900000001,51.3603758],[12.1229359,51.360547800000006],[12.1228923,51.360559300000006],[12.122591900000002,51.3607201],[12.122609,51.360838],[12.122780700000002,51.3609881],[12.123347200000001,51.3612132],[12.1234631,51.361315000000005],[12.123466200000001,51.361400100000004],[12.1234558,51.361479100000004],[12.123261300000001,51.361577600000004],[12.122832200000001,51.361631200000005],[12.122411000000001,51.361597700000004],[12.122299400000001,51.36156020000001],[12.1221227,51.361442600000004],[12.121856300000001,51.361228700000005],[12.121719800000001,51.361190300000004],[12.121566300000001,51.3611513],[12.121189500000002,51.3610927],[12.1208346,51.3610515],[12.120715800000001,51.361028600000004],[12.120416200000001,51.360970900000005],[12.1199893,51.360830400000005],[12.1197368,51.3607523],[12.119427100000001,51.360717900000004],[12.119103800000001,51.3607096],[12.118873500000001,51.3606848],[12.118560700000002,51.3606459],[12.118299200000001,51.3606618],[12.118006600000001,51.3607146],[12.117655200000002,51.360710000000005],[12.117132400000001,51.360847400000004],[12.116634600000001,51.3609493],[12.1163757,51.361009],[12.1158064,51.3611401],[12.115161,51.3612661],[12.1146846,51.3613884],[12.114293100000001,51.36150730000001],[12.113843000000001,51.361643900000004],[12.113255500000001,51.361887200000005],[12.112909100000001,51.362031],[12.1124478,51.362151600000004],[12.112087200000001,51.362206400000005],[12.111834,51.3621896],[12.111500900000001,51.362170000000006],[12.1110605,51.362203],[12.11067,51.362297100000006],[12.110208100000001,51.3624865],[12.109800900000002,51.3625795],[12.1093927,51.3625217],[12.108997800000001,51.362421700000006],[12.1085934,51.362409500000005],[12.1082012,51.3624717],[12.107837,51.3626523],[12.107576300000002,51.3629084],[12.1071048,51.3632119],[12.1066707,51.363373],[12.105807100000002,51.363522700000004],[12.1054472,51.363588500000006],[12.1051012,51.363690600000005],[12.104766900000001,51.3639243],[12.104272400000001,51.36415280000001],[12.1035964,51.364328900000004],[12.102587300000001,51.364450100000006],[12.102138400000001,51.3644594],[12.1016045,51.364423800000004],[12.100863,51.364297400000005],[12.100285300000001,51.364168400000004],[12.099696400000001,51.3641322],[12.0990664,51.3641262],[12.0989251,51.3641513],[12.098515800000001,51.3641433],[12.0981111,51.3641177],[12.097434300000002,51.364154000000006],[12.096284200000001,51.3641969],[12.095443000000001,51.364250500000004],[12.0946019,51.3643148],[12.0938809,51.364357700000006],[12.0933402,51.3644113],[12.092782300000001,51.3644917],[12.092224400000001,51.364561300000005],[12.091494800000001,51.3646685],[12.0907508,51.3647847],[12.089981900000002,51.3649196],[12.0899166,51.3649311],[12.0894551,51.3650425],[12.089089600000001,51.3651325],[12.0887629,51.365180900000006],[12.0885385,51.365187000000006],[12.088346000000001,51.3652006],[12.0881378,51.3651947],[12.087758500000001,51.3651428],[12.0875398,51.3651106],[12.0873159,51.365049000000006],[12.087186200000001,51.3649986],[12.087072200000001,51.364925400000004],[12.0869216,51.364829900000004],[12.086744900000001,51.3646758],[12.0866664,51.364572300000006],[12.086508700000001,51.3644497],[12.086306800000001,51.364287100000006],[12.0860427,51.364086400000005],[12.085744700000001,51.363957400000004],[12.085159800000001,51.363841300000004],[12.084867000000001,51.3637808],[12.084553300000001,51.363765900000004],[12.084021600000002,51.3637376],[12.083336000000001,51.363670000000006],[12.082713100000001,51.3636117],[12.0820795,51.3636038],[12.0815646,51.363537400000006],[12.0812212,51.3633463],[12.0809411,51.363098400000005],[12.080734000000001,51.362873500000006],[12.0806611,51.362562100000005],[12.080663900000001,51.362253900000006],[12.0807251,51.3620165],[12.0808333,51.361746600000004],[12.080938100000001,51.361504000000004],[12.0809888,51.3613395],[12.080987400000001,51.361158800000005],[12.0809554,51.361059100000006],[12.0808765,51.3609919],[12.0807395,51.360942200000004],[12.080319600000001,51.3608722],[12.0797743,51.360867600000006],[12.0789635,51.3610082],[12.078379900000002,51.3611529],[12.0779078,51.3612869],[12.077281300000001,51.361420900000006],[12.0766804,51.361437],[12.0764457,51.361428800000006],[12.076243900000001,51.36137780000001],[12.076054800000001,51.3613038],[12.0758507,51.3612392],[12.0755467,51.361193],[12.075071300000001,51.361070100000006],[12.074754500000001,51.360964900000006],[12.074476500000001,51.3608204],[12.074378600000001,51.360752600000005],[12.0742747,51.360669900000005],[12.0741663,51.3606142],[12.0740221,51.3605548],[12.073898100000001,51.3605091],[12.0737322,51.3604672],[12.073415500000001,51.3604336],[12.0726671,51.3603243],[12.0720524,51.360257700000005],[12.071201,51.3602684],[12.070226,51.360510700000006],[12.069582200000001,51.3608689],[12.0691635,51.3609148],[12.0686864,51.360854800000006],[12.0679222,51.360791500000005],[12.067249400000001,51.360833400000004],[12.0664923,51.3608689],[12.0660889,51.3608689],[12.065230600000001,51.360815300000006],[12.0643466,51.360708100000004],[12.0635998,51.360617000000005],[12.062861700000001,51.360472300000005],[12.0620892,51.3603651],[12.0612996,51.3602579],[12.060360600000001,51.3601727]]}},{"type":"Feature","properties":{"osmType":"way","osmId":201348691,"name":"Luppe","waterway":"river"},"geometry":{"type":"LineString","coordinates":[[12.0378851,51.371527300000004],[12.0376533,51.3716063],[12.0371588,51.3717532],[12.036638700000001,51.3718688],[12.0363048,51.3719188],[12.035961700000001,51.3718902],[12.0355842,51.3717893],[12.035138400000001,51.3717364],[12.034823000000001,51.371718400000006],[12.034518400000001,51.371741400000005],[12.034231700000001,51.371782800000005],[12.0339591,51.371962700000005],[12.0338752,51.372145200000006],[12.0339448,51.372319100000006],[12.0339527,51.3724489],[12.0340571,51.3726326],[12.0340194,51.372741700000006],[12.0338157,51.3728095],[12.0335625,51.3728472],[12.033137900000002,51.372861400000005],[12.032721500000001,51.372860800000005],[12.031975000000001,51.372898600000006],[12.031727700000001,51.373136300000006],[12.0310699,51.3731816],[12.0308553,51.3732905],[12.0308027,51.3733939],[12.030742100000001,51.373626],[12.0308369,51.373844000000005],[12.0309559,51.3740407],[12.031133200000001,51.374292800000006],[12.031301800000001,51.37445820000001],[12.031493000000001,51.3745965],[12.0317354,51.3747265],[12.0318602,51.3748797],[12.0318897,51.375049000000004],[12.031796900000002,51.3752172],[12.031659300000001,51.375363400000005],[12.0314096,51.3754976],[12.031057700000002,51.3757473],[12.0307832,51.3758642],[12.030293100000002,51.3758751],[12.0297116,51.3759043],[12.029266600000001,51.3760113],[12.0289537,51.3761395],[12.028683000000001,51.376305200000004],[12.0283016,51.3766218],[12.027889100000001,51.3769119],[12.027606100000002,51.3770472],[12.0271056,51.377127900000005],[12.0267055,51.377160700000005],[12.026317800000001,51.377169300000006],[12.0260403,51.3771074],[12.0253966,51.3769239],[12.0250105,51.376896800000004],[12.0239384,51.3769986],[12.023620600000001,51.3770685],[12.0231028,51.37720100000001],[12.022603100000001,51.377317500000004],[12.022324000000001,51.377335200000005],[12.0221119,51.377361300000004],[12.021982600000001,51.3774263],[12.0219275,51.3775501],[12.021945200000001,51.3777114],[12.0220207,51.3778322],[12.022211,51.377930400000004],[12.0225041,51.3780093],[12.022826700000001,51.3779964],[12.0232472,51.3779848],[12.0236937,51.3779374],[12.0239127,51.3779343],[12.024131200000001,51.3779826],[12.0244151,51.3781509],[12.0246524,51.3783868],[12.0248199,51.378640000000004],[12.024825,51.3788453],[12.0246817,51.379022500000005],[12.0245013,51.379132500000004],[12.024185200000002,51.3791911],[12.0237405,51.379227500000006],[12.023148,51.3792197],[12.0224933,51.37919410000001],[12.021824500000001,51.3792313],[12.021519900000001,51.379258500000006],[12.0212847,51.379234200000006],[12.020967500000001,51.3791516],[12.0205284,51.378936200000005],[12.020208700000001,51.378850500000006],[12.0199969,51.3788379],[12.0198333,51.378894],[12.019669700000001,51.379009],[12.0195687,51.3791943],[12.0195494,51.37939110000001],[12.0196018,51.379572800000005],[12.0198801,51.379854300000005],[12.020139200000001,51.3801573],[12.020339900000002,51.380425],[12.0205044,51.3806753],[12.0205438,51.3808975],[12.0205336,51.381098400000006],[12.0204918,51.3812809],[12.020504,51.3814743],[12.02055,51.3815991],[12.020701500000001,51.381727700000006],[12.0209519,51.381815700000004],[12.0213196,51.381872800000004],[12.0218529,51.3819135],[12.022306,51.3819127],[12.0228845,51.3818822],[12.0232668,51.381803700000006],[12.023595100000001,51.38176910000001],[12.0239195,51.381785],[12.0242631,51.3818519],[12.0247694,51.382021400000006],[12.025002500000001,51.3821748],[12.025176100000001,51.382333700000004],[12.025276700000001,51.382533800000004],[12.025281600000001,51.3827549],[12.025207,51.382964400000006],[12.0250491,51.383101800000006],[12.024787600000002,51.3832396],[12.0245151,51.3833022],[12.024179700000001,51.3833308],[12.0238235,51.383299400000006],[12.0234681,51.383286700000006],[12.0228766,51.3832802],[12.022411700000001,51.383267000000004],[12.021714500000002,51.383308500000005],[12.0214616,51.383295100000005],[12.021251300000001,51.3832224],[12.0210264,51.3830717],[12.020804700000001,51.3828692],[12.0206794,51.382731],[12.0204438,51.3825725],[12.020101100000002,51.3824611],[12.0195097,51.3823196],[12.019183400000001,51.3822552],[12.0188491,51.3822009],[12.0186031,51.382218400000006],[12.0183745,51.3823212],[12.0182412,51.382493100000005],[12.0181909,51.382689400000004],[12.0182129,51.3829122],[12.018315600000001,51.3831478],[12.018573100000001,51.383479900000005],[12.018775300000001,51.383654],[12.018883800000001,51.383848],[12.018851900000001,51.384035000000004],[12.018698500000001,51.384176000000004],[12.018395400000001,51.384326900000005],[12.0180409,51.3844141],[12.0176599,51.384433300000005],[12.0173945,51.38439],[12.0171778,51.3842652],[12.016983900000001,51.3840372],[12.016796000000001,51.3838218],[12.0165913,51.3835707],[12.0163148,51.383412400000005],[12.015927900000001,51.3833137],[12.0155521,51.3832351],[12.015335700000001,51.383127300000005],[12.0151398,51.382944200000004],[12.014853700000002,51.382567300000005],[12.0146951,51.382415200000004],[12.0144301,51.3823334],[12.0141615,51.382319800000005],[12.013754,51.382401300000005],[12.013343200000001,51.382519300000006],[12.0129555,51.3826265],[12.0125908,51.382772200000005],[12.0124107,51.3829287],[12.0122598,51.383161300000005],[12.012163500000002,51.38339920000001],[12.012128,51.3836317],[12.012141000000002,51.383893500000006],[12.0122692,51.3841553],[12.0124405,51.3844123],[12.012914400000001,51.3848434],[12.013071700000001,51.385060900000006],[12.013052700000001,51.3851862],[12.012928800000001,51.385274],[12.0126875,51.3852812],[12.0123019,51.3852041],[12.011930900000001,51.38517950000001],[12.0116118,51.3852423],[12.011314500000001,51.3853244],[12.011197800000001,51.385437700000004],[12.0112608,51.3856097],[12.0114289,51.3857434],[12.011792400000001,51.3858903],[12.0121336,51.3860266],[12.0124905,51.386182000000005],[12.0126036,51.3863642],[12.012629,51.3865459],[12.012490900000001,51.386725600000005],[12.0122116,51.38683090000001],[12.011526,51.386918800000004],[12.011040900000001,51.3869954],[12.0107856,51.3869954],[12.010496000000002,51.3868656],[12.0102808,51.3866212],[12.0098689,51.3862754],[12.0096887,51.386020200000004],[12.009389200000001,51.3857189],[12.0091604,51.385549100000006],[12.00866,51.3852575],[12.008181800000001,51.384932400000004],[12.007680500000001,51.384524400000004],[12.007344300000002,51.3843368],[12.0069979,51.3842476],[12.006685000000001,51.384228500000006],[12.006381000000001,51.384272700000004],[12.005584200000001,51.384757],[12.003777900000001,51.385818400000005],[12.003580300000001,51.3859866],[12.003346200000001,51.38630980000001],[12.003358,51.3864583],[12.003501,51.386637400000005],[12.0036714,51.3867831],[12.0041832,51.386948100000005],[12.004433200000001,51.387061100000004],[12.004576400000001,51.387174900000005],[12.0048139,51.3872851],[12.005517300000001,51.387460600000004],[12.0058064,51.387610800000004],[12.005969100000002,51.387819500000006],[12.0060488,51.3879977],[12.0060465,51.388200600000005],[12.005899600000001,51.3884428],[12.005782700000001,51.388645600000004],[12.005578300000002,51.3888874],[12.0051945,51.3890332],[12.004815800000001,51.3891258],[12.004474100000001,51.38915110000001],[12.004142300000002,51.3890814],[12.003793,51.3889756],[12.0033419,51.3888042],[12.002953900000001,51.3886958],[12.0024408,51.388570200000004],[12.0021187,51.388402600000006],[12.001744400000002,51.388248700000005],[12.001372400000001,51.3881868],[12.000900900000001,51.388227500000006],[12.0005197,51.388379500000006],[12.000431,51.388490700000006],[12.0004927,51.388628600000004],[12.000471000000001,51.3887787],[12.0003452,51.388965000000006],[12.000074300000001,51.3891441],[11.999670400000001,51.3894208],[11.999408500000001,51.3895922],[11.9992128,51.38962050000001],[11.9990207,51.3895944],[11.99887,51.389509000000004],[11.998652700000001,51.3892931],[11.9985642,51.389149100000004],[11.9985481,51.389062100000004],[11.998599100000002,51.3888746],[11.9987708,51.388580000000005],[11.9988902,51.3883469],[11.9988834,51.388193400000006],[11.998797600000001,51.388077900000006],[11.998607100000001,51.387984200000005],[11.998413500000002,51.3879377],[11.9982933,51.387908800000005],[11.9980331,51.3878971],[11.997571800000001,51.388017600000005],[11.9973942,51.3881439],[11.9972553,51.388303900000004],[11.9972299,51.388515000000005],[11.9973176,51.3887572],[11.9974565,51.389020200000004],[11.997513900000001,51.3893065],[11.9975065,51.3895464],[11.9973843,51.389708600000006],[11.997128700000001,51.389898300000006],[11.9967967,51.3900446],[11.9963592,51.390204600000004],[11.995933,51.3904178],[11.995874500000001,51.3904439],[11.995526700000001,51.39062860000001],[11.9950484,51.3907785]]}},{"type":"Feature","properties":{"osmType":"way","osmId":205035522,"name":"Luppe","waterway":"river"},"geometry":{"type":"LineString","coordinates":[[12.060360600000001,51.3601727],[12.059823300000001,51.3601721],[12.059239600000002,51.360081],[12.0586388,51.359973800000006],[12.0578234,51.359893400000004],[12.057222600000001,51.359920200000005],[12.0564981,51.360019900000005],[12.0558574,51.3602964],[12.055463000000001,51.3605996],[12.054925,51.360992200000005],[12.054845100000001,51.3611154],[12.0544747,51.3614241],[12.0542443,51.3617264],[12.053931700000001,51.362065900000005],[12.053815100000001,51.362117600000005],[12.0536434,51.3621482],[12.0535201,51.3621332],[12.0533189,51.3621131],[12.0530507,51.362096300000005],[12.052876300000001,51.3620578],[12.0527422,51.361965700000006],[12.0525813,51.361897000000006],[12.0524096,51.3618066],[12.052280900000001,51.3617245],[12.052036800000002,51.361625700000005],[12.051811500000001,51.3615621],[12.051417200000001,51.361510200000005],[12.0509103,51.361550300000005],[12.050462300000001,51.361603900000006],[12.0500868,51.361652500000005],[12.0498937,51.361721200000005],[12.0496443,51.3617915],[12.049309000000001,51.361870200000006],[12.048898600000001,51.3619355],[12.048654500000001,51.3619623],[12.048533800000001,51.3620025],[12.048185100000001,51.3620176],[12.0480698,51.362034400000006],[12.047922300000002,51.362034400000006],[12.047713100000001,51.362101300000006],[12.0475253,51.362218600000006],[12.047380500000001,51.3623509],[12.047292,51.3624999],[12.047179300000002,51.3626105],[12.047061300000001,51.3627327],[12.0470103,51.362875100000004],[12.047058600000002,51.3630342],[12.0471766,51.3631296],[12.047348300000001,51.363168200000004],[12.0475814,51.363263100000005]]}},{"type":"Feature","properties":{"osmType":"way","osmId":386666827,"name":"Luppe","waterway":"river"},"geometry":{"type":"LineString","coordinates":[[12.0475814,51.363263100000005],[12.048036300000001,51.363305000000004],[12.048553700000001,51.3631894],[12.04894,51.3632591],[12.0491975,51.3631733],[12.049597100000002,51.363174400000005],[12.049793800000002,51.363069200000005],[12.049836200000001,51.362859],[12.049928300000001,51.3627235],[12.0501155,51.362678100000004],[12.050244500000002,51.362690300000004],[12.0503493,51.362807100000005],[12.0504762,51.3628913],[12.0505074,51.362989000000006],[12.050464100000001,51.3631102],[12.050331300000002,51.363271700000006],[12.050051000000002,51.36340980000001],[12.049863400000001,51.3635564],[12.049866900000001,51.3637789],[12.049983600000001,51.3638478],[12.0501845,51.363966500000004],[12.050639400000001,51.364073700000006],[12.0509862,51.3641316],[12.0512227,51.364229800000004],[12.0513004,51.3643791],[12.0512753,51.3645622],[12.0510528,51.364774700000005],[12.0508366,51.3649143],[12.050559400000001,51.365009500000006],[12.0504393,51.3650893],[12.050235800000001,51.3651208],[12.050047500000002,51.36517430000001],[12.049832700000001,51.36534210000001],[12.049493,51.3655291],[12.049254300000001,51.365813100000004],[12.0490542,51.3659838],[12.0488019,51.366119700000006],[12.0485977,51.3661472],[12.048366600000001,51.366097],[12.048091900000001,51.365970700000005],[12.047881700000001,51.365795000000006],[12.047781200000001,51.365617],[12.0475495,51.365306200000006],[12.047286900000001,51.365078200000006],[12.0467624,51.3648697],[12.046510600000001,51.36484],[12.0463068,51.3647712],[12.046173000000001,51.3646534],[12.0460241,51.364562600000006],[12.0459171,51.364560000000004],[12.045727300000001,51.3646321],[12.0455763,51.364749100000004],[12.0453758,51.3649896],[12.045209600000002,51.3651033],[12.0450216,51.365146900000006],[12.0447071,51.3651423],[12.044316700000001,51.365111600000006],[12.0439688,51.365144400000005],[12.0437472,51.365252600000005],[12.0436247,51.365362100000006],[12.0436116,51.3654966],[12.043578,51.3656104],[12.0434818,51.365686600000004],[12.042631400000001,51.3657885],[12.0421422,51.3659921],[12.041955000000002,51.366186400000004],[12.041606600000001,51.366405300000004]]}},{"type":"Feature","properties":{"osmType":"way","osmId":1187896251,"name":"Luppe","waterway":"river"},"geometry":{"type":"LineString","coordinates":[[12.041606600000001,51.366405300000004],[12.041129100000001,51.3666417],[12.040979100000001,51.366773900000005],[12.0409611,51.366855400000006],[12.040371100000002,51.3671007],[12.0398773,51.3673379],[12.0398419,51.36754620000001],[12.0398913,51.367752],[12.040124200000001,51.3679824],[12.040387200000001,51.368131000000005],[12.040467600000001,51.3682991],[12.0400691,51.368329300000006],[12.0397435,51.368273300000006],[12.039460400000001,51.368334600000004],[12.0393027,51.3685826],[12.0394202,51.368861200000005],[12.039674600000001,51.3691192],[12.0396876,51.369339000000004],[12.0395518,51.3696263],[12.039637800000001,51.369734400000006],[12.039748600000001,51.3698155],[12.039990000000001,51.3698345],[12.0403543,51.369649700000004],[12.0406174,51.3695134],[12.040901400000001,51.369630900000004],[12.0409775,51.370102300000006],[12.040944300000001,51.3705675],[12.040982900000001,51.3708967],[12.040935800000002,51.3711099],[12.0407837,51.371168000000004],[12.0399588,51.371422300000006],[12.0392465,51.371408900000006],[12.0388684,51.371382800000006],[12.0383711,51.371384000000006],[12.038165600000001,51.37140410000001],[12.0378851,51.371527300000004]]}},{"type":"Feature","properties":{"osmType":"way","osmId":1188044033,"name":"Luppe","waterway":"river"},"geometry":{"type":"LineString","coordinates":[[12.186668000000001,51.372462600000006],[12.1856562,51.3723499],[12.1853748,51.372337400000006],[12.1850942,51.3723752],[12.1848088,51.37250280000001],[12.1845909,51.3726889],[12.184520000000001,51.373114300000005],[12.1844234,51.3733422],[12.1840056,51.373619700000006],[12.1838732,51.3738952],[12.1837371,51.3739776],[12.1834962,51.3739938],[12.183253700000002,51.373899],[12.183189500000001,51.3732684],[12.183531,51.3727716],[12.183572400000001,51.372537900000005],[12.1834409,51.3723211],[12.183101500000001,51.3720397],[12.1827874,51.3715045],[12.1818909,51.370733200000004],[12.1812821,51.3705409],[12.1802867,51.3703433],[12.179196600000001,51.36997890000001],[12.178341900000001,51.3695705],[12.177877200000001,51.369186500000005],[12.177420000000001,51.368909200000004],[12.176881300000002,51.3686086],[12.176454600000001,51.3683337],[12.176269300000001,51.3681806]]}},{"type":"Feature","properties":{"osmType":"way","osmId":1188044034,"name":"Luppe","waterway":"river"},"geometry":{"type":"LineString","coordinates":[[12.176269300000001,51.3681806],[12.176206500000001,51.3681287]]}},{"type":"Feature","properties":{"osmType":"way","osmId":1390804398,"name":"Luppe","waterway":"river"},"geometry":{"type":"LineString","coordinates":[[12.18715,51.3725115],[12.186668000000001,51.372462600000006]]}}]}