{"type":"FeatureCollection","features":[{"type":"Feature","properties":{"osmType":"way","osmId":30378663,"name":"Mittellandkanal","waterway":"canal"},"geometry":{"type":"LineString","coordinates":[[11.447118000000001,52.268978700000005],[11.446158700000002,52.26927980000001],[11.4453174,52.2695347],[11.443371800000001,52.270095000000005],[11.441995,52.2704086],[11.4399742,52.2708674],[11.4369961,52.2714985],[11.4325495,52.2724221],[11.428458000000001,52.27330370000001]]}},{"type":"Feature","properties":{"osmType":"way","osmId":32251190,"name":"Mittellandkanal","waterway":"canal"},"geometry":{"type":"LineString","coordinates":[[11.735867,52.239985100000006],[11.728555100000001,52.236570500000006],[11.7259224,52.23534720000001],[11.7236059,52.2343501],[11.721189800000001,52.2335179],[11.718911400000001,52.232918500000004],[11.7165573,52.2324258],[11.713314800000001,52.231948100000004],[11.703442800000001,52.2310462]]}},{"type":"Feature","properties":{"osmType":"way","osmId":59462406,"name":"Mittellandkanal","waterway":"canal"},"geometry":{"type":"LineString","coordinates":[[11.7434407,52.243434300000004],[11.741181200000002,52.24254620000001],[11.7406599,52.24231880000001],[11.740469000000001,52.242231800000006]]}},{"type":"Feature","properties":{"osmType":"way","osmId":123523924,"name":"Mittellandkanal","waterway":"canal"},"geometry":{"type":"LineString","coordinates":[[11.7380753,52.2411139],[11.7369263,52.2406177],[11.735867,52.239985100000006]]}},{"type":"Feature","properties":{"osmType":"way","osmId":130916919,"name":"Mittellandkanal","waterway":"canal"},"geometry":{"type":"LineString","coordinates":[[11.7434407,52.243434300000004],[11.7413457,52.242340600000006],[11.740883400000001,52.24214490000001],[11.740691,52.2420528]]}},{"type":"Feature","properties":{"osmType":"way","osmId":145439465,"name":"Mittellandkanal","waterway":"canal"},"geometry":{"type":"LineString","coordinates":[[11.7011874,52.230865800000004],[11.6988222,52.230676700000004],[11.6957255,52.230411800000006],[11.6890944,52.229857]]}},{"type":"Feature","properties":{"osmType":"way","osmId":145439467,"name":"Mittellandkanal","waterway":"canal"},"geometry":{"type":"LineString","coordinates":[[11.6890944,52.229857],[11.6843385,52.2294744],[11.680572900000001,52.22914170000001],[11.677721100000001,52.228936000000004],[11.6727077,52.2288068],[11.6698263,52.2287357],[11.666000200000001,52.2285923],[11.6582869,52.2289429],[11.6551196,52.228963500000006],[11.6510397,52.2290616],[11.6464428,52.2290817]]}},{"type":"Feature","properties":{"osmType":"way","osmId":244017125,"name":"Mittellandkanal","waterway":"canal"},"geometry":{"type":"LineString","coordinates":[[11.3788975,52.2964016],[11.377758,52.2972923],[11.376823700000001,52.297985000000004],[11.3747371,52.299188900000004],[11.371924700000001,52.300980200000005],[11.371650200000001,52.301152200000004],[11.3710205,52.301534600000004],[11.370450900000002,52.301921500000006],[11.3696058,52.3024489],[11.3685975,52.303087500000004],[11.3679299,52.3035672],[11.362918,52.306634900000006],[11.3622239,52.307087900000006],[11.3618258,52.307397900000005],[11.361329600000001,52.307821000000004],[11.358740200000002,52.310456],[11.353673800000001,52.315769800000005],[11.351901000000002,52.317620000000005],[11.3495775,52.320044900000006],[11.349208200000001,52.320432100000005],[11.347968600000002,52.321773],[11.344988500000001,52.325625300000006],[11.338894300000002,52.333502200000005],[11.336306400000002,52.3368467],[11.333891600000001,52.3400394],[11.3336658,52.3403574],[11.332514100000001,52.3417429],[11.328868700000001,52.3466109],[11.327506900000001,52.34873],[11.327036600000001,52.3500979],[11.3268834,52.35054340000001],[11.3260397,52.3530901],[11.3244913,52.3586687],[11.324419200000001,52.3589897],[11.3240998,52.3604123],[11.3238047,52.361289600000006],[11.3231537,52.3630428],[11.3226118,52.3642995],[11.321984200000001,52.365362000000005],[11.3213158,52.3664003],[11.3210616,52.3667967],[11.320635000000001,52.3674778],[11.317161200000001,52.3725534],[11.314900100000001,52.3757219],[11.313796,52.3769173],[11.3126467,52.377902000000006],[11.3118207,52.378652800000005],[11.3110742,52.3792721],[11.3103967,52.3797616],[11.309747900000001,52.380191200000006],[11.3091972,52.3805095],[11.307786400000001,52.3813442],[11.3074264,52.3815097],[11.305446700000001,52.382513800000005],[11.3044825,52.382995],[11.3018911,52.384251600000006],[11.298736600000002,52.385883],[11.296187100000001,52.387249600000004],[11.295925500000001,52.387379300000006],[11.2940553,52.3883227],[11.2929445,52.388883],[11.290685300000002,52.3904664],[11.2889829,52.3916922],[11.287912700000001,52.3926249],[11.286632200000001,52.393934300000005],[11.2861867,52.3944295],[11.285183100000001,52.3956327],[11.2845244,52.396422400000006],[11.2840179,52.397048100000006],[11.2829508,52.3984097],[11.281746,52.400254700000005],[11.2807597,52.401568000000005],[11.2802997,52.4021065],[11.2794103,52.403145200000004],[11.2790839,52.4035692],[11.278577100000001,52.4041507],[11.2776796,52.405207600000004],[11.276495200000001,52.406483200000004],[11.2747974,52.407987600000006],[11.2736357,52.408933000000005],[11.2725457,52.409760600000006],[11.271967400000001,52.4101963],[11.2713927,52.410589200000004],[11.2707636,52.4109836],[11.269869900000002,52.4115503],[11.2690427,52.4120307],[11.267656500000001,52.412774500000005],[11.266206,52.413482200000004],[11.2644629,52.414266700000006],[11.263152600000002,52.4147982],[11.2615125,52.4154113],[11.260649,52.415731400000006],[11.259631800000001,52.4160702],[11.258698500000001,52.416352700000004],[11.257833600000001,52.4165878],[11.255761900000001,52.417140100000005],[11.254210500000001,52.417511100000006],[11.2458285,52.419107200000006],[11.244826100000001,52.4193007],[11.2428632,52.41965080000001],[11.232194400000001,52.4216088],[11.2305813,52.4218884],[11.2263438,52.422623],[11.223684800000001,52.42318890000001],[11.2225918,52.4233872],[11.2210762,52.4235957],[11.2198182,52.423742600000004],[11.218045,52.42387840000001],[11.2165248,52.423961600000005],[11.2152723,52.424030200000004],[11.201524500000001,52.4246436],[11.192673300000001,52.42499290000001],[11.188716300000001,52.425188500000004],[11.1871381,52.425255],[11.172437400000002,52.4258747],[11.162525,52.4262925],[11.157930700000001,52.426487],[11.154211,52.4266445],[11.1508415,52.4268325],[11.1494826,52.426970100000005],[11.148212000000001,52.4271204],[11.1466948,52.427396400000006],[11.1449469,52.427751],[11.143365000000001,52.4281554],[11.14104,52.428825],[11.139539500000001,52.429349800000004],[11.137054500000001,52.430369500000005],[11.134988900000002,52.4312258],[11.130972,52.432906700000004],[11.1240777,52.4357916],[11.1189835,52.4379368],[11.1065777,52.443160400000004],[11.1049398,52.4438462],[11.094260700000001,52.448317],[11.082689100000001,52.4531609],[11.077536,52.4553182],[11.0764837,52.455760500000004],[11.075543000000001,52.456152700000004],[11.073100700000001,52.4571824],[11.0728585,52.457278800000005],[11.0707958,52.458160500000005],[11.0704703,52.4582885],[11.0696852,52.4585972],[11.065967800000001,52.460163400000006],[11.0627624,52.461385],[11.0588463,52.4629933],[11.058193600000001,52.4632664],[11.0536536,52.465163200000006],[11.0459504,52.468317400000004],[11.0431179,52.469477100000006],[11.0410365,52.470209100000005],[11.0325764,52.4724787],[11.028092200000001,52.473681600000006],[11.021412900000001,52.4754645],[11.0205955,52.475680700000005],[11.019468100000001,52.476005400000005],[11.016149200000001,52.4768899],[11.015937800000001,52.4769463],[11.015041700000001,52.4771851],[11.0060002,52.4795414],[11.004206400000001,52.4800088],[11.0014705,52.4807581],[11.000040400000001,52.4811144],[10.9946851,52.482534300000005],[10.9922103,52.483099700000004],[10.989986400000001,52.483591200000006],[10.987955900000001,52.483945600000006],[10.9872552,52.4840255],[10.9864882,52.48411290000001],[10.9837331,52.4843272],[10.9804028,52.484478700000004],[10.9781674,52.4845886],[10.9741335,52.484772500000005],[10.967430100000001,52.4850496],[10.963394500000001,52.485207100000004],[10.962074300000001,52.4852586],[10.9576749,52.485461400000005],[10.950701700000002,52.485734300000004],[10.9488357,52.4858215]]}},{"type":"Feature","properties":{"osmType":"way","osmId":244017126,"name":"Mittellandkanal","waterway":"canal"},"geometry":{"type":"LineString","coordinates":[[11.629879200000001,52.2292575],[11.626210100000002,52.2292992],[11.6173199,52.2294003],[11.610207200000001,52.2294646],[11.602780200000002,52.2295317],[11.597400500000001,52.2295737],[11.5840165,52.2296781],[11.582826500000001,52.229709400000004],[11.581848800000001,52.229753800000005],[11.581598900000001,52.2297652],[11.579917700000001,52.2298678],[11.578174200000001,52.23000510000001],[11.5764755,52.2301626],[11.5745892,52.230442200000006],[11.5742323,52.2304967],[11.5730158,52.2307001],[11.571508000000001,52.2310056],[11.570148300000001,52.2312871],[11.567471600000001,52.231910000000006],[11.5653015,52.2324731],[11.5596014,52.233878600000004],[11.55483,52.2350604],[11.5414037,52.2383857],[11.5296076,52.2413071],[11.5284987,52.241579800000004]]}},{"type":"Feature","properties":{"osmType":"way","osmId":283014715,"name":"Mittellandkanal","waterway":"canal"},"geometry":{"type":"LineString","coordinates":[[11.6419505,52.2291084],[11.641327700000001,52.229114200000005],[11.629879200000001,52.2292575]]}},{"type":"Feature","properties":{"osmType":"way","osmId":325855324,"name":"Mittellandkanal","waterway":"canal"},"geometry":{"type":"LineString","coordinates":[[11.5284987,52.241579800000004],[11.5270901,52.2419212],[11.5257248,52.2422521],[11.5135033,52.2453184],[11.510796500000001,52.2459477],[11.509199800000001,52.2464011],[11.507615900000001,52.2469892],[11.5060768,52.247640200000006],[11.5047932,52.2482282],[11.5033536,52.249034400000006],[11.501722800000001,52.2499483],[11.501270400000001,52.2502153],[11.498645900000001,52.2517647],[11.4978178,52.252161300000004],[11.494329,52.253655900000005],[11.489308600000001,52.2552175],[11.4869696,52.255943900000005],[11.476381,52.259381000000005],[11.471279000000001,52.261037],[11.464656600000001,52.2632399],[11.463473,52.263623900000006],[11.4526096,52.267147800000004],[11.450884,52.26774270000001],[11.447118000000001,52.268978700000005]]}},{"type":"Feature","properties":{"osmType":"way","osmId":327653263,"name":"Mittellandkanal","waterway":"canal"},"geometry":{"type":"LineString","coordinates":[[11.428458000000001,52.27330370000001],[11.4277437,52.2734407],[11.4233258,52.2743479],[11.421272,52.2747789],[11.4184923,52.2752787],[11.4174751,52.275485100000004],[11.413801600000001,52.276245900000006],[11.4110565,52.2771102],[11.4095019,52.2776736],[11.4082869,52.2781139],[11.4052571,52.279453000000004],[11.4043294,52.279974900000006],[11.402896700000001,52.280687],[11.399274,52.2825494],[11.3981767,52.283122000000006],[11.3974379,52.2835277],[11.394597500000001,52.285071900000005],[11.3921679,52.2863893],[11.389738900000001,52.287749100000006],[11.3879155,52.2890516],[11.3870781,52.289649700000005],[11.3835957,52.292411400000006],[11.3827694,52.293067300000004],[11.381342400000001,52.2942447],[11.379937700000001,52.2954037],[11.3788975,52.2964016]]}},{"type":"Feature","properties":{"osmType":"way","osmId":330498382,"name":"Mittellandkanal","waterway":"canal"},"geometry":{"type":"LineString","coordinates":[[10.9488357,52.4858215],[10.948566900000001,52.485833400000004],[10.947129700000001,52.485897],[10.9435742,52.48606770000001],[10.940806700000001,52.486200600000004],[10.9393334,52.4862483],[10.9375221,52.4862729],[10.9359333,52.486226900000005],[10.9345155,52.486140500000005],[10.932978700000001,52.485998200000004],[10.9307584,52.485728],[10.928548800000002,52.485316100000006],[10.925127900000001,52.484484],[10.921999900000001,52.4834449],[10.917343,52.4816091],[10.9117221,52.4795354],[10.911206100000001,52.4793456]]}},{"type":"Feature","properties":{"osmType":"way","osmId":679143414,"name":"Mittellandkanal","waterway":"canal"},"geometry":{"type":"LineString","coordinates":[[11.6419505,52.2291084],[11.6376684,52.228559700000005],[11.636234100000001,52.2285295],[11.634985700000001,52.22853490000001],[11.633426700000001,52.228622300000005],[11.6320619,52.2288444],[11.629879200000001,52.2292575]]}},{"type":"Feature","properties":{"osmType":"way","osmId":679143415,"name":"Mittellandkanal","waterway":"canal"},"geometry":{"type":"LineString","coordinates":[[11.6464428,52.2290817],[11.643031500000001,52.229096600000005],[11.6419505,52.2291084]]}},{"type":"Feature","properties":{"osmType":"way","osmId":1475662639,"name":"Mittellandkanal","waterway":"canal"},"geometry":{"type":"LineString","coordinates":[[11.703442800000001,52.2310462],[11.7011874,52.230865800000004]]}},{"type":"Feature","properties":{"osmType":"way","osmId":1476896523,"name":"Mittellandkanal","waterway":"canal"},"geometry":{"type":"LineString","coordinates":[[11.749244200000001,52.2462669],[11.745587800000001,52.2445012],[11.7434407,52.243434300000004]]}},{"type":"Feature","properties":{"osmType":"way","osmId":1476896524,"name":"Mittellandkanal","waterway":"canal"},"geometry":{"type":"LineString","coordinates":[[11.738266600000001,52.240933500000004],[11.7371491,52.240451300000004],[11.735867,52.239985100000006]]}}]}