{"type":"FeatureCollection","features":[{"type":"Feature","properties":{"osmType":"way","osmId":11102327,"name":"Mulde","waterway":"river"},"geometry":{"type":"LineString","coordinates":[[12.3589462,51.655538500000006],[12.357514700000001,51.655034300000004],[12.3569098,51.654831]]}},{"type":"Feature","properties":{"osmType":"way","osmId":24845326,"name":"Mulde","waterway":"river"},"geometry":{"type":"LineString","coordinates":[[12.295183900000001,51.7119474],[12.294832900000001,51.7122286],[12.2944332,51.712549900000006],[12.294006300000001,51.7130512],[12.293996900000002,51.713456],[12.2940219,51.713598000000005],[12.294076,51.7138937],[12.2939342,51.7142526],[12.293744700000001,51.714614000000005],[12.2933161,51.715821000000005],[12.29494,51.717613400000005],[12.2951283,51.719148100000005],[12.2950067,51.7203086],[12.294772100000001,51.72063300000001],[12.294145700000001,51.721225200000006],[12.293311800000001,51.721801600000006],[12.292870800000001,51.722368100000004],[12.2925988,51.722849100000005],[12.292471,51.723194400000004],[12.2927587,51.7238765],[12.293705800000001,51.7246913],[12.2943218,51.72512630000001],[12.294571600000001,51.72552760000001],[12.294636,51.72588330000001],[12.294568600000002,51.7262636],[12.294009200000001,51.727059800000006],[12.293519400000001,51.72786180000001],[12.2932065,51.7285021],[12.293121600000001,51.7288833],[12.2932547,51.7292257],[12.2935429,51.729553700000004],[12.2941955,51.73014310000001],[12.2956108,51.7312214],[12.2964465,51.731719500000004],[12.297364600000002,51.732071100000006],[12.297931,51.732232],[12.2987474,51.732374],[12.2998376,51.7324172],[12.301328100000001,51.732421900000006],[12.3029995,51.732666],[12.3043841,51.7329537],[12.3056794,51.7333263],[12.3072684,51.7336979],[12.3082911,51.734028900000006],[12.3091532,51.7344912],[12.309814800000002,51.735078],[12.3100337,51.7355742],[12.310041100000001,51.7359335],[12.309889400000001,51.7364821],[12.309549700000002,51.7370207],[12.309173300000001,51.7374061],[12.3083565,51.737928200000006],[12.306965400000001,51.7385579],[12.305485200000001,51.7390776],[12.304773800000001,51.7395366],[12.3045419,51.739999000000005],[12.3045646,51.7406652],[12.3048202,51.741358600000005],[12.305318100000001,51.742005500000005],[12.3066698,51.74319860000001],[12.3074449,51.7437435],[12.308273600000001,51.7442379],[12.3090924,51.744632300000006],[12.3102265,51.74517],[12.3105261,51.7454477],[12.3111536,51.7466644],[12.3112501,51.7470313],[12.3113036,51.7475273],[12.311228600000002,51.7476927],[12.3110792,51.747986600000004],[12.3105492,51.7484412],[12.3093307,51.7490127],[12.3078009,51.749572300000004],[12.3066194,51.75003340000001],[12.305814100000001,51.7504605],[12.305136000000001,51.7510058],[12.3047541,51.7515459],[12.304647500000002,51.7520078],[12.304647000000001,51.752542500000004],[12.3048278,51.7529437],[12.3053474,51.7536052],[12.3061296,51.754389],[12.3069407,51.7555489],[12.307294200000001,51.756269100000004],[12.3074002,51.7567533],[12.3073093,51.7572131],[12.307138,51.7577202],[12.306730700000001,51.7580729],[12.306294800000002,51.758279900000005],[12.304455,51.7589933],[12.3025839,51.7597639],[12.301460200000001,51.760176400000006],[12.300911300000001,51.760335600000005],[12.3004943,51.7605428],[12.3003614,51.760728300000004],[12.300411100000002,51.7613884],[12.3006414,51.7621855],[12.3006969,51.7628901],[12.3005712,51.763500900000004],[12.300405300000001,51.7640443],[12.3004142,51.764690800000004],[12.3004759,51.7654215],[12.3006265,51.7660156],[12.300870300000001,51.766828100000005],[12.3010403,51.7671859],[12.300972000000002,51.7675028],[12.3004417,51.767992500000005],[12.2998112,51.7682106],[12.299152000000001,51.768366900000004],[12.298161100000002,51.7686008],[12.2975384,51.768750100000005],[12.297075300000001,51.7689743],[12.2967724,51.7692678],[12.296634300000001,51.769504000000005],[12.296524100000001,51.769978300000005],[12.296629900000001,51.7704528],[12.2969307,51.77084850000001],[12.297415800000001,51.77134950000001],[12.2975957,51.771638800000005],[12.297627700000001,51.7719273],[12.297549400000001,51.772237600000004],[12.297343900000001,51.772488800000005],[12.296037,51.773658000000005],[12.295088900000001,51.774546300000004],[12.2942894,51.774981600000004],[12.293511500000001,51.7751566],[12.2928282,51.7752004],[12.291363800000001,51.775037100000006],[12.2908398,51.775092],[12.2903224,51.7752636],[12.289829200000002,51.7755651],[12.2895546,51.775929000000005],[12.2894679,51.7760867],[12.2893586,51.7766553],[12.289626,51.777279300000004],[12.289594500000002,51.77798670000001],[12.2896715,51.7785389],[12.289712900000001,51.7788655],[12.2897593,51.779217900000006],[12.2899627,51.780106],[12.2903304,51.7808859],[12.2913761,51.7828109],[12.2921557,51.784030800000004],[12.2928975,51.7848039],[12.293548900000001,51.785271],[12.294034900000002,51.7854551],[12.2945357,51.7856826],[12.2951695,51.786098300000006],[12.2955009,51.7863838],[12.2959086,51.7869674],[12.295984,51.7871643],[12.296057500000002,51.787435800000004],[12.2960404,51.7880332],[12.295833100000001,51.788549800000006],[12.2956149,51.7888293],[12.295000600000002,51.789137100000005],[12.2943519,51.7893703],[12.293466700000002,51.789500700000005],[12.292316000000001,51.789534800000006],[12.291843400000001,51.7895492],[12.2893533,51.789264300000006],[12.28861,51.789177],[12.286357800000001,51.788947500000006],[12.2850383,51.7890578],[12.284234300000001,51.7892603],[12.2836792,51.7894306],[12.2832346,51.789660100000006],[12.2826754,51.790163400000004],[12.2825243,51.7906781],[12.2825436,51.791304000000004],[12.282964100000001,51.7920719],[12.283511,51.792794400000005],[12.283800600000001,51.793114100000004],[12.285267500000002,51.7941797],[12.285939800000001,51.79459000000001],[12.286393100000002,51.7949769],[12.2865915,51.7953011],[12.2868051,51.79564370000001],[12.286841,51.795881300000005],[12.286814000000001,51.796142700000004],[12.286737700000002,51.796380400000004],[12.286510300000002,51.796895500000005],[12.2862884,51.7971602],[12.2848448,51.798572500000006],[12.2842429,51.7990404],[12.2835225,51.799480100000004],[12.2831047,51.7996727],[12.282603,51.799837000000004],[12.281944500000002,51.799993900000004],[12.280952500000001,51.800155200000006],[12.2801439,51.800210400000005],[12.2791327,51.8002387],[12.279013200000001,51.800228600000004],[12.278648500000001,51.8001986],[12.2775776,51.7999973],[12.2752283,51.799514300000006],[12.2725966,51.798958500000005],[12.2720377,51.798881400000006],[12.271155700000001,51.7989473],[12.270085700000001,51.7992325],[12.2691107,51.799653400000004],[12.267951,51.8003969],[12.2672752,51.8009703],[12.2668475,51.8015326],[12.266437000000002,51.8021267],[12.266187500000001,51.8025524],[12.2659494,51.803185600000006],[12.265619300000001,51.804078800000006],[12.265470800000001,51.8043288],[12.265087900000001,51.8048268],[12.2646312,51.8052969],[12.264101700000001,51.8056952],[12.263632000000001,51.8061347],[12.2633559,51.8064576],[12.263134200000001,51.8068174],[12.263005300000001,51.8071351],[12.2629952,51.8077424],[12.263182700000002,51.808348],[12.2637237,51.8092072],[12.2639964,51.8095882],[12.265121200000001,51.810901900000005],[12.265401200000001,51.811214400000004],[12.265522200000001,51.8114624],[12.265527400000002,51.811954500000006],[12.2653762,51.8129038],[12.2652643,51.81325270000001],[12.264843200000001,51.8138811],[12.2645092,51.8141905],[12.263705100000001,51.814693600000005],[12.263190100000001,51.8148533],[12.262898100000001,51.8149242],[12.2623473,51.8149905],[12.260957600000001,51.8151006],[12.259319300000001,51.815325400000006],[12.2564387,51.8156285],[12.2552964,51.815819100000006],[12.254233300000001,51.8161238],[12.2537531,51.816311600000006],[12.253252900000001,51.8165143],[12.252356800000001,51.816947000000006],[12.2515075,51.8174493],[12.2510572,51.81777760000001],[12.250762,51.818090600000005],[12.2505635,51.8187172],[12.2505112,51.81903440000001],[12.250646600000001,51.819437400000005],[12.250879600000001,51.8197557],[12.2513854,51.8202866],[12.2524855,51.8214376],[12.253838700000001,51.822825400000006],[12.2542357,51.8232562],[12.254420300000001,51.823641200000004],[12.254496300000001,51.824015200000005],[12.2544772,51.8242198],[12.254392800000002,51.8244497],[12.2539653,51.8248061],[12.2528362,51.8253077],[12.2482647,51.8263071],[12.246075900000001,51.8274291],[12.2457846,51.828014700000004],[12.2459004,51.8286037],[12.2464002,51.829146400000006],[12.247921900000001,51.830347100000004],[12.248954600000001,51.831116900000005],[12.2497793,51.8314819],[12.2500023,51.831577100000004],[12.2513801,51.832267900000005],[12.251424700000001,51.832309900000006],[12.2517335,51.8326009],[12.251884800000001,51.83274350000001],[12.2519557,51.8328963],[12.2520027,51.833058400000006]]}},{"type":"Feature","properties":{"osmType":"way","osmId":25526037,"name":"Mulde","waterway":"river"},"geometry":{"type":"LineString","coordinates":[[12.3081706,51.683511200000005],[12.3064739,51.683819400000004],[12.3060633,51.684004400000006],[12.306026500000002,51.6840971],[12.3059556,51.684276100000005],[12.3059679,51.684836000000004],[12.3061813,51.6854105],[12.306714300000001,51.685898200000004],[12.3074426,51.6864745]]}},{"type":"Feature","properties":{"osmType":"way","osmId":26483695,"name":"Mulde","waterway":"river"},"geometry":{"type":"LineString","coordinates":[[12.2672752,51.8009703],[12.2663788,51.8014085],[12.265820300000001,51.802086],[12.2657564,51.8025899],[12.2658278,51.802837100000005],[12.2659494,51.803185600000006]]}},{"type":"Feature","properties":{"osmType":"way","osmId":134064667,"name":"Mulde","waterway":"river"},"geometry":{"type":"LineString","coordinates":[[12.252231700000001,51.8337762],[12.252440100000001,51.834275700000006],[12.252850200000001,51.835120100000005],[12.253490000000001,51.835857000000004],[12.2542913,51.8364436],[12.254910800000001,51.8367407],[12.255896600000002,51.8370923],[12.256866700000002,51.8373064],[12.2611436,51.8381751],[12.2621924,51.8390828],[12.262959100000002,51.840527300000005],[12.263246700000002,51.8411904],[12.2634173,51.8420988],[12.2634299,51.842418800000004],[12.263366000000001,51.842895500000004],[12.2630779,51.8436006],[12.262663400000001,51.8442535],[12.2623636,51.844579],[12.261682,51.845135500000005],[12.260051800000001,51.8461347],[12.259164,51.846603900000005],[12.257628400000002,51.8471005],[12.254989,51.848295300000004],[12.2544707,51.8486988],[12.254019600000001,51.849262700000004],[12.253901,51.849749200000005],[12.2541253,51.8503903],[12.2545116,51.850992700000006],[12.2551436,51.8515779],[12.255542700000001,51.8518702],[12.2563574,51.852372200000005],[12.2568853,51.8526182],[12.2576899,51.8529446],[12.258150200000001,51.8531654],[12.258439000000001,51.8533692],[12.258773900000001,51.8536823],[12.258908400000001,51.8538726],[12.259043,51.854217500000004],[12.259129300000001,51.8545822],[12.2592525,51.854924100000005],[12.2592914,51.85561190000001],[12.2592402,51.856148600000004],[12.2590357,51.8567022],[12.258548600000001,51.857380400000004],[12.257241,51.858599600000005],[12.2556531,51.8600155],[12.2547691,51.8609773],[12.254411600000001,51.861272500000005],[12.254282300000002,51.861363000000004],[12.2541571,51.861448100000004],[12.2536182,51.861783700000004],[12.2528907,51.8621227],[12.2526977,51.8622123],[12.2523855,51.8623454],[12.251868100000001,51.8625508],[12.251456500000002,51.862708700000006],[12.250876600000002,51.8629291],[12.25026,51.8631618],[12.249642600000001,51.8633718],[12.2493069,51.863489300000005],[12.248761400000001,51.863749600000006],[12.2484289,51.8639944],[12.2482729,51.8641469],[12.2481418,51.8643033],[12.2479832,51.864642200000006],[12.247911400000001,51.8649962],[12.247902700000001,51.865353000000006],[12.2480072,51.8657776],[12.2480802,51.866055200000005],[12.2482102,51.8664083],[12.248385800000001,51.8667413],[12.2485981,51.867077300000005],[12.248857200000002,51.8673926],[12.2491775,51.867691300000004],[12.2495309,51.867977200000006],[12.24994,51.868253],[12.250903200000002,51.8688337],[12.251208,51.8690167],[12.251498100000001,51.8691739],[12.2516786,51.8693122],[12.2518057,51.869441200000004],[12.251962500000001,51.8696403],[12.252016000000001,51.869794500000005],[12.252042000000001,51.869990300000005],[12.251996100000001,51.8701438],[12.251887700000001,51.8703159],[12.2516054,51.870654200000004],[12.251372,51.8709185],[12.2511512,51.8711211],[12.250962000000001,51.8712007],[12.250348800000001,51.871358900000004],[12.2500827,51.8714111],[12.249716800000002,51.871472600000004],[12.2494665,51.871524400000006],[12.249155700000001,51.871632500000004],[12.247702400000001,51.8722294],[12.2463879,51.8734319],[12.2458346,51.8740619],[12.2455662,51.87427520000001],[12.244874600000001,51.8749364],[12.2444445,51.8752889],[12.2441142,51.8754919],[12.243705400000001,51.8756831],[12.243433300000001,51.8757767],[12.243257900000001,51.8758155],[12.2430771,51.875826700000005],[12.243061800000001,51.8758269],[12.2429096,51.8758289],[12.242668700000001,51.875815800000005],[12.2418092,51.8756265],[12.2412928,51.875456400000004],[12.2406304,51.875232200000006],[12.239926500000001,51.8749322],[12.239286100000001,51.8744541],[12.2386326,51.873725500000006],[12.2384135,51.873203700000005],[12.238091500000001,51.8725539],[12.237673500000001,51.872231400000004],[12.2375159,51.8721103],[12.237115900000001,51.871929300000005],[12.2366413,51.871718],[12.2358843,51.871419800000005],[12.2355523,51.871299],[12.234772900000001,51.870965600000005],[12.234266400000001,51.870761400000006],[12.2329889,51.8703153],[12.2320951,51.8699676],[12.231146500000001,51.869075900000006],[12.2310511,51.8690343],[12.230299400000002,51.8686312]]}},{"type":"Feature","properties":{"osmType":"way","osmId":252266450,"name":"Mulde","waterway":"river"},"geometry":{"type":"LineString","coordinates":[[12.308118200000001,51.683858],[12.3081484,51.6840806],[12.3081188,51.684226200000005],[12.3080677,51.6843712],[12.307997700000001,51.6845238]]}},{"type":"Feature","properties":{"osmType":"way","osmId":252266454,"name":"Mulde","waterway":"river"},"geometry":{"type":"LineString","coordinates":[[12.308118200000001,51.683858],[12.3079879,51.6840794],[12.307954,51.68419900000001],[12.307910900000001,51.684379500000006],[12.307997700000001,51.6845238]]}},{"type":"Feature","properties":{"osmType":"way","osmId":332927387,"name":"Mulde","waterway":"river"},"geometry":{"type":"LineString","coordinates":[[12.3569098,51.654831],[12.3549486,51.6541359],[12.353880100000001,51.653743600000006],[12.3519305,51.6531176],[12.350109900000001,51.65260790000001],[12.349463100000001,51.6524562],[12.3488425,51.652373600000004],[12.348314400000001,51.652362000000004],[12.3471848,51.652474100000006],[12.346689300000001,51.652559600000004],[12.3451698,51.652653300000004],[12.343855000000001,51.652564100000006],[12.3411243,51.6519707],[12.339792500000001,51.6518164],[12.339126700000001,51.6518652],[12.3386221,51.651963200000004],[12.338139600000002,51.6521107],[12.3377841,51.652303100000005],[12.337424,51.6526057],[12.337143000000001,51.6529042],[12.3369712,51.653184200000005],[12.3368903,51.6534381],[12.336886000000002,51.653708800000004],[12.337028700000001,51.6543788],[12.3373389,51.6550376],[12.3374365,51.655453900000005],[12.3373574,51.6557496],[12.3373462,51.655762300000006],[12.3372492,51.6558715],[12.3370946,51.65599580000001],[12.3363148,51.656135400000004],[12.3358147,51.6560897],[12.3355165,51.6559815],[12.335154200000002,51.6558367],[12.334683,51.655379200000006],[12.334162800000001,51.6549351],[12.333675000000001,51.6546214],[12.3331628,51.654554000000005],[12.332475400000002,51.6546363],[12.3318358,51.654861200000006],[12.3309064,51.6553376],[12.3295904,51.6560514],[12.3294738,51.6563066],[12.330017400000001,51.6577934],[12.3298959,51.658028900000005],[12.3295443,51.6583417],[12.3288103,51.6590405],[12.3277263,51.660088900000005],[12.326963000000001,51.661544500000005],[12.326339800000001,51.662083],[12.325514,51.6624622],[12.3246307,51.6626631],[12.3235956,51.6628051],[12.3228048,51.6627658],[12.321674900000001,51.66253510000001],[12.3209414,51.6622939],[12.320313200000001,51.661972500000005],[12.3187891,51.6609708],[12.3180908,51.66061130000001],[12.317545800000001,51.6604479],[12.3167845,51.660442800000006],[12.3164174,51.660526100000006],[12.3161071,51.660803400000006],[12.3157978,51.661308000000005],[12.315820700000002,51.6618707],[12.315915700000001,51.662230400000006],[12.3162757,51.6627281],[12.317248000000001,51.663368500000004],[12.318695900000002,51.6641788],[12.3200319,51.6650361],[12.321379400000001,51.6655978],[12.3227378,51.665571],[12.3243656,51.6651832],[12.326217300000001,51.6646865],[12.3292569,51.6637671],[12.330856800000001,51.663734100000006],[12.333896000000001,51.663786800000004],[12.3351775,51.663867700000004],[12.335679500000001,51.664212000000006],[12.3355423,51.664533500000005],[12.334581900000002,51.6647794],[12.3339263,51.6651104],[12.3333165,51.665592600000004],[12.3331564,51.666282900000006],[12.333235700000001,51.667122500000005],[12.3340185,51.6681797],[12.335125900000001,51.669383100000005],[12.336056800000001,51.6701418],[12.33613,51.6708329],[12.336008000000001,51.67136240000001],[12.335601800000001,51.671639400000004],[12.335169500000001,51.671768900000004],[12.334576,51.6717461],[12.333888900000002,51.6716271],[12.332288100000001,51.671135500000005],[12.330123200000001,51.6702183],[12.3276534,51.6698779],[12.3255038,51.669859],[12.323735300000001,51.6701143],[12.321555100000001,51.6708045],[12.319939100000001,51.6720715],[12.318780400000001,51.6733762],[12.3187194,51.6744257],[12.3192251,51.675223100000004],[12.3203738,51.67592380000001],[12.323434800000001,51.677768900000004],[12.3246579,51.678602100000006],[12.325272100000001,51.6792827],[12.3253456,51.679734100000005],[12.3249619,51.6802153],[12.323732900000001,51.6810441],[12.322587700000001,51.681630000000006],[12.320869,51.6817208],[12.3184207,51.681675600000005],[12.3166545,51.681628800000006],[12.3144913,51.681584],[12.311538500000001,51.6820068],[12.3098801,51.682588300000006],[12.3085038,51.6831922],[12.3081706,51.683511200000005],[12.308118200000001,51.683858]]}},{"type":"Feature","properties":{"osmType":"way","osmId":628917016,"name":"Mulde","waterway":"river"},"geometry":{"type":"LineString","coordinates":[[12.308118200000001,51.683858],[12.3078696,51.6840703],[12.307835800000001,51.6841899],[12.3077927,51.684370400000006],[12.3079975,51.684541100000004]]}},{"type":"Feature","properties":{"osmType":"way","osmId":751191239,"name":"Mulde","waterway":"river"},"geometry":{"type":"LineString","coordinates":[[12.4315581,51.6069229],[12.430583700000001,51.607420700000006],[12.430449900000001,51.60763480000001],[12.4303366,51.607900300000004],[12.4303036,51.6081559],[12.430393800000001,51.608404900000004],[12.4305812,51.6086405],[12.431162800000001,51.609051400000006],[12.4316951,51.609385700000004],[12.4325249,51.6100122],[12.433064100000001,51.6104907],[12.4333594,51.610902900000006],[12.4334471,51.611159900000004],[12.433413300000002,51.6114265],[12.4333091,51.6116669],[12.4331201,51.611901800000005],[12.432897,51.612126800000006],[12.432337200000001,51.6124962],[12.432026100000002,51.6126226],[12.4316125,51.6127235],[12.4312006,51.6127455],[12.430760600000001,51.612726],[12.4293268,51.612479400000005],[12.428374100000001,51.6124002],[12.427513000000001,51.6123976],[12.4266682,51.6124656],[12.425860400000001,51.6126264],[12.425102,51.6128117],[12.4243319,51.6130367],[12.4236578,51.613286],[12.4229637,51.613593900000005],[12.422299800000001,51.6139267],[12.421734800000001,51.614294400000006],[12.4212159,51.6146935],[12.4207531,51.6151235],[12.4204054,51.615526100000004],[12.4198065,51.616529500000006],[12.4196431,51.6168136],[12.4194721,51.618081100000005],[12.4190055,51.6209489],[12.418997800000001,51.6211053],[12.4190132,51.62533740000001],[12.412360600000001,51.639442800000005],[12.4118372,51.640880100000004],[12.4114929,51.641420600000004],[12.410979800000002,51.6419294],[12.410517100000002,51.6422481],[12.409169400000001,51.6429473],[12.4057718,51.644443200000005],[12.403661000000001,51.6452596],[12.397964700000001,51.6475893],[12.3846381,51.6527352],[12.3792208,51.654715],[12.376700900000001,51.655529800000004],[12.3739793,51.6563808],[12.372432700000001,51.6566969],[12.3704102,51.656900400000005],[12.367218800000002,51.657031700000005],[12.3653472,51.6570064],[12.3631963,51.6567875],[12.3622502,51.656585],[12.361065700000001,51.656283800000004],[12.3589462,51.655538500000006]]}},{"type":"Feature","properties":{"osmType":"way","osmId":903562720,"name":"Mulde","waterway":"river"},"geometry":{"type":"LineString","coordinates":[[12.252200100000001,51.833557500000005],[12.252231700000001,51.8337762]]}},{"type":"Feature","properties":{"osmType":"way","osmId":903562721,"name":"Mulde","waterway":"river"},"geometry":{"type":"LineString","coordinates":[[12.2520027,51.833058400000006],[12.252200100000001,51.833557500000005]]}},{"type":"Feature","properties":{"osmType":"way","osmId":903563417,"name":"Mulde","waterway":"river"},"geometry":{"type":"LineString","coordinates":[[12.295886000000001,51.711551500000006],[12.295183900000001,51.7119474]]}},{"type":"Feature","properties":{"osmType":"way","osmId":903563418,"name":"Mulde","waterway":"river"},"geometry":{"type":"LineString","coordinates":[[12.307997700000001,51.6845238],[12.3079975,51.684541100000004],[12.3079905,51.685351000000004],[12.30788,51.6859453],[12.3074426,51.6864745],[12.3070333,51.6870855],[12.3062631,51.687788600000005],[12.304772000000002,51.688284],[12.3035984,51.6888371],[12.3034288,51.6894465],[12.3054655,51.691529200000005],[12.306056300000002,51.691864900000006],[12.307073800000001,51.6922617],[12.309716,51.6927195],[12.312095600000001,51.6930653],[12.3130708,51.6935626],[12.313424900000001,51.694184400000005],[12.3133593,51.694713300000004],[12.312538700000001,51.6951711],[12.311521200000001,51.695425400000005],[12.3103925,51.69524680000001],[12.3065814,51.694062300000006],[12.304086900000001,51.693014500000004],[12.302347300000001,51.692658400000006],[12.300128500000001,51.6927533],[12.298195300000001,51.6930653],[12.296258700000001,51.693502800000005],[12.2944302,51.6945422],[12.294125300000001,51.6955882],[12.2943058,51.696463],[12.295250900000001,51.6975209],[12.2965706,51.6983448],[12.2979895,51.6987831],[12.301805700000001,51.6992806],[12.304809,51.699341600000004],[12.3066799,51.699128],[12.3083781,51.6991984],[12.3090139,51.699352700000006],[12.309479600000001,51.6997234],[12.30987,51.700238000000006],[12.3100606,51.7008876],[12.3099758,51.701568200000004],[12.309289300000001,51.7022404],[12.308272700000002,51.702833600000005],[12.3070409,51.703349],[12.3037094,51.7036643],[12.3018386,51.7039185],[12.3000325,51.704381500000004],[12.299057300000001,51.704928200000005],[12.298760600000001,51.705135600000006],[12.2986643,51.7053007],[12.2986424,51.705555800000006],[12.2988978,51.706260400000005],[12.2994251,51.7086945],[12.2994517,51.70942590000001],[12.299404800000001,51.7099586],[12.2991834,51.7104785],[12.2988826,51.7108038],[12.298421600000001,51.71097880000001],[12.296803800000001,51.7113413],[12.295886000000001,51.711551500000006]]}}]}