{"type":"FeatureCollection","features":[{"type":"Feature","properties":{"osmType":"way","osmId":56258027,"name":"Neugraben","waterway":"stream"},"geometry":{"type":"LineString","coordinates":[[13.051709200000001,51.734006],[13.0514595,51.734173500000004],[13.0511256,51.734382000000004],[13.0502213,51.73492460000001],[13.049592,51.735163],[13.0490703,51.735232800000006],[13.0480306,51.735277800000006],[13.0472123,51.735456500000005],[13.0458057,51.7358552],[13.044657200000001,51.736178],[13.0446042,51.736192900000006],[13.043873300000001,51.7363736],[13.0429744,51.736643],[13.042437300000001,51.736898800000006],[13.0415361,51.737236900000006],[13.040514300000002,51.737616900000006],[13.0401416,51.7377824],[13.039542800000001,51.7381438],[13.038461100000001,51.7388106],[13.038302000000002,51.7390935],[13.037544100000002,51.739861700000006],[13.036985000000001,51.7402753],[13.0359713,51.741196800000004],[13.0350228,51.7419231],[13.0343345,51.7423274],[13.033299600000001,51.7430974],[13.0330296,51.74326730000001],[13.032937100000002,51.7433162],[13.0325188,51.743401600000006],[13.032275700000001,51.7434774],[13.032048300000001,51.743601700000006],[13.031766600000001,51.743746200000004],[13.0314812,51.743914700000005],[13.0312473,51.7441223],[13.031021500000001,51.744526900000004],[13.0309057,51.744710000000005],[13.030744100000001,51.745286400000005],[13.0306669,51.745374500000004],[13.030349900000001,51.745559500000006],[13.0300591,51.7457731],[13.029734000000001,51.7459471],[13.029567700000001,51.7460542],[13.0293998,51.7460906],[13.0291197,51.746094400000004],[13.0283881,51.74609340000001],[13.027672500000001,51.7462109],[13.0274949,51.7462049],[13.027153700000001,51.7462038],[13.026414500000001,51.7460511],[13.026019000000002,51.746037900000005],[13.0256273,51.746171600000004],[13.025091900000001,51.7463878],[13.024726300000001,51.7463859],[13.0241456,51.7463618],[13.0238831,51.7464218],[13.023477300000001,51.746867800000004],[13.023293500000001,51.7470106],[13.022904,51.747187100000005],[13.022537600000001,51.747410900000006],[13.022348000000001,51.74751740000001],[13.0221707,51.7475461],[13.021839100000001,51.7475059],[13.021515200000001,51.7475225],[13.0210755,51.7475065],[13.020693900000001,51.7474926],[13.0202003,51.747546400000004],[13.019984800000001,51.747552400000004],[13.019669700000001,51.747482700000006],[13.019380100000001,51.747452800000005],[13.019025500000001,51.7474562],[13.018516400000001,51.747511100000004],[13.0179977,51.747679500000004],[13.0176823,51.747765400000006],[13.017367400000001,51.7477365],[13.016879800000002,51.74767610000001],[13.016544000000001,51.747584700000004],[13.016350300000001,51.747435900000006],[13.016144800000001,51.747336600000004],[13.0158809,51.747315],[13.015485,51.747349400000004],[13.0152517,51.747427800000004],[13.0148104,51.7476563],[13.013799,51.747824200000004],[13.0130552,51.747959],[13.0123951,51.74799470000001],[13.012167400000001,51.748040700000004],[13.0118626,51.748082200000006],[13.0117331,51.74808650000001],[13.0116033,51.7480879],[13.0108397,51.748088300000006],[13.010707,51.7480982],[13.0102939,51.748156],[13.009707500000001,51.7482498],[13.0088548,51.74851760000001],[13.008757800000001,51.748524200000006],[13.0083935,51.7484089],[13.007427400000001,51.7483562],[13.0064779,51.7483372],[13.0058237,51.7483456],[13.005609100000001,51.7483541],[13.005337800000001,51.7484593],[13.0046897,51.7487368],[13.004203700000001,51.7488333],[13.003688700000001,51.7488589],[13.003270200000001,51.7487872],[13.0026582,51.748743000000005],[13.0020579,51.748749800000006],[13.0012463,51.74878390000001],[13.0003933,51.748691900000004],[12.999420200000001,51.748403100000004],[12.999026,51.7483993],[12.9985458,51.7485124],[12.9978849,51.7486681],[12.9969295,51.748983900000006],[12.9967442,51.749051400000006],[12.996322600000001,51.74910920000001],[12.9960015,51.749126800000006],[12.9954911,51.7490833],[12.9951751,51.748975300000005],[12.994699,51.74880640000001],[12.9942811,51.748698700000006],[12.9929968,51.7487178],[12.991698900000001,51.7487506],[12.9906237,51.7489858],[12.990077800000002,51.7490992],[12.989477,51.7491822],[12.9890103,51.7492619],[12.9886093,51.7494517],[12.988130600000002,51.7497136],[12.9878999,51.749912900000005],[12.9875941,51.7502118],[12.9873527,51.750387800000006],[12.986998700000001,51.750537200000004],[12.9863549,51.750716600000004],[12.9857005,51.750912500000005],[12.9851694,51.7510885],[12.984633,51.751301100000006],[12.9844667,51.751357500000005],[12.984128700000001,51.7514206],[12.9838658,51.7514605],[12.983538600000001,51.751523600000006],[12.9832382,51.7515701],[12.9828091,51.7516498],[12.9823102,51.751759400000005],[12.9819937,51.7518158],[12.981655700000001,51.751845700000004],[12.9812802,51.751898800000006],[12.980969100000001,51.7519586],[12.980545300000001,51.752068200000004],[12.979965900000002,51.7521977],[12.979102200000002,51.7524534],[12.9786087,51.7525929],[12.9783834,51.7526759],[12.978286800000001,51.7527125],[12.9766024,51.7533733],[12.9756744,51.753818300000006],[12.9750843,51.75406400000001],[12.9749341,51.754147100000004],[12.974499600000001,51.7543529],[12.972772200000001,51.7551665],[12.972241100000002,51.7554687],[12.971462200000001,51.755862400000005],[12.9712809,51.755983400000005],[12.9709056,51.7562325],[12.970385100000001,51.7565778],[12.969793500000002,51.756943],[12.9680517,51.757983],[12.9674496,51.7583129],[12.9669357,51.7585867],[12.9665602,51.758726200000005],[12.9664047,51.758799200000006],[12.9663803,51.7588145],[12.9661418,51.7589655],[12.965970100000002,51.759071500000005],[12.965621500000001,51.7592973],[12.965133300000002,51.7595496],[12.964474500000001,51.7598822],[12.964162300000002,51.7600211],[12.9637761,51.760210400000005],[12.963255400000001,51.760429900000005],[12.9627139,51.7606819],[12.9625152,51.7607687],[12.9620648,51.7609076],[12.961662500000001,51.7610438],[12.9610295,51.761282800000004],[12.960096100000001,51.7616979],[12.9598329,51.7618189],[12.959457400000002,51.7619807],[12.959286800000001,51.762061700000004],[12.9589481,51.7622225],[12.9586825,51.7623601],[12.958398500000001,51.7625072],[12.9578538,51.7628533],[12.957760500000001,51.7629098],[12.9573388,51.763165400000005],[12.957075600000001,51.763344000000004],[12.956453900000001,51.763716300000006],[12.955981900000001,51.7640085],[12.9557458,51.764154600000005],[12.9553059,51.764307300000006],[12.9531355,51.764935300000005],[12.952876600000002,51.7650221],[12.952580800000002,51.765077500000004],[12.951862,51.7651705],[12.950864200000002,51.765316600000006],[12.949866400000001,51.7654627],[12.949287100000001,51.765582200000004],[12.948514600000001,51.765748200000004],[12.947709900000001,51.765914200000005],[12.947227100000001,51.7660271],[12.9470877,51.7661067],[12.946905300000001,51.766246200000005],[12.946752400000001,51.7665908],[12.9462723,51.767547500000006],[12.9461194,51.7678656],[12.945475700000001,51.76911380000001],[12.945282500000001,51.769479000000004],[12.945132300000001,51.7697644],[12.945006300000001,51.7699045],[12.944791700000001,51.770063900000004],[12.944491300000001,51.77019670000001],[12.944105,51.7703294],[12.943754700000001,51.7704649],[12.943521100000002,51.770584500000005],[12.9432226,51.7708068],[12.942839000000001,51.7710863],[12.9424635,51.77125890000001],[12.9420344,51.77141820000001],[12.9416986,51.771526200000004],[12.9412854,51.77165900000001],[12.939556000000001,51.7722149],[12.938569000000001,51.7725402],[12.9378904,51.7727918],[12.937547,51.772964400000006],[12.937311000000001,51.7731105],[12.937203700000001,51.7733495],[12.936970400000002,51.773629],[12.9368604,51.773893900000004],[12.9366965,51.7741934],[12.9365517,51.774429100000006],[12.936412200000001,51.7745818],[12.936170800000001,51.774754400000006],[12.935891900000001,51.7749369],[12.935618300000002,51.775073000000006],[12.935215900000001,51.7752324],[12.934848700000002,51.775351],[12.9345347,51.775434800000006],[12.9341001,51.7755377],[12.9332823,51.7757858],[12.933038000000002,51.7759062],[12.9324694,51.776208200000006],[12.932238700000001,51.776437200000004],[12.9321368,51.7765733],[12.932083100000002,51.7767227],[12.932083100000002,51.7768488],[12.932134300000001,51.776937600000004],[12.9322792,51.7770239],[12.932421100000001,51.777087800000004],[12.9325474,51.777120100000005],[12.9327644,51.7772039],[12.932890700000002,51.77725950000001],[12.933000400000001,51.7773234],[12.933097,51.777413],[12.933166700000001,51.7775259],[12.933248800000001,51.7776298],[12.9332931,51.7777557],[12.933299300000002,51.777951300000005],[12.933064300000002,51.7783031],[12.932995100000001,51.778398800000005],[12.9326222,51.778890200000006],[12.932480100000001,51.7790559],[12.9322709,51.779208600000004],[12.9320885,51.7793148],[12.9319061,51.779404400000004],[12.9316808,51.779477400000005],[12.931128200000002,51.7796334],[12.930645400000001,51.7797994],[12.930141200000001,51.7799819],[12.9299266,51.7800682],[12.929717400000001,51.7801811],[12.929583300000001,51.780310500000006],[12.9295136,51.7804632],[12.9294545,51.780659],[12.9293955,51.7808216],[12.9292797,51.780939700000005],[12.929124100000001,51.7810433],[12.9288108,51.7811402],[12.9284514,51.7812265],[12.9280544,51.7813327],[12.9277701,51.781402400000005],[12.9275824,51.78141230000001],[12.927169300000001,51.7814057],[12.926858200000002,51.7814057],[12.926631800000001,51.781427],[12.926364600000001,51.7814853],[12.9262037,51.78157160000001],[12.925994500000002,51.78173760000001],[12.9258175,51.7818471],[12.9255493,51.7820429],[12.925281,51.7821391],[12.9251362,51.782252],[12.924980600000001,51.7824146],[12.924809000000002,51.7826071],[12.924674900000001,51.782700000000006],[12.924476400000001,51.782822800000005],[12.9241545,51.7829788],[12.9237146,51.7831945],[12.923484,51.783304],[12.9232318,51.783377],[12.922673900000001,51.7835097],[12.9221321,51.7836325],[12.9216761,51.7837553],[12.9213865,51.783888100000006],[12.9211665,51.7840142],[12.9207481,51.784236500000006],[12.9204799,51.784409100000005],[12.920211700000001,51.7845717],[12.919723500000002,51.7848538],[12.9194499,51.785082700000004],[12.91923,51.7852752],[12.918999300000001,51.7855075],[12.918725700000001,51.7858194],[12.918666700000001,51.785945500000004],[12.9186452,51.786038500000004],[12.918682800000001,51.786111500000004],[12.9187662,51.786177],[12.918846700000001,51.7862633],[12.9188974,51.786373600000005],[12.9189349,51.7864201],[12.9189886,51.7865097],[12.9190237,51.78656530000001],[12.919058300000001,51.7866457],[12.9190851,51.786722000000005],[12.919128,51.786808300000004],[12.9191388,51.7869344],[12.919117300000002,51.78705720000001],[12.919179300000001,51.787159200000005],[12.919272900000001,51.7872762],[12.9192514,51.787395700000005],[12.9192944,51.7874787],[12.9192782,51.787518500000004],[12.919308000000001,51.787613900000004],[12.9192821,51.787726500000005],[12.9193212,51.787774000000006],[12.9194495,51.78789930000001]]}},{"type":"Feature","properties":{"osmType":"way","osmId":139384104,"name":"Neugraben","waterway":"stream"},"geometry":{"type":"LineString","coordinates":[[13.116641600000001,51.7103588],[13.116269800000001,51.710411500000006],[13.116096800000001,51.710436],[13.1148834,51.7106155],[13.1145229,51.711292400000005],[13.1144049,51.711845200000006],[13.114029400000002,51.712308900000004],[13.113718200000001,51.712449400000004],[13.113305200000001,51.7129716],[13.1127956,51.7134173],[13.1121089,51.7139285],[13.1112935,51.714320400000005],[13.110649700000002,51.7144807],[13.110312500000001,51.7144254],[13.1100168,51.7142885],[13.109737800000001,51.714004],[13.109373100000001,51.713740400000006],[13.1089117,51.7134702],[13.1084075,51.713269800000006],[13.1080856,51.7131647],[13.107463300000001,51.7132518],[13.106701600000001,51.713345200000006],[13.105982800000001,51.7134353],[13.1052747,51.7135589],[13.104738200000002,51.7135965],[13.1041267,51.713579900000006],[13.103643900000002,51.713610100000004],[13.102807,51.713600500000005],[13.102238400000001,51.713658],[13.101723400000001,51.713719100000006],[13.101353300000001,51.7137856],[13.1008464,51.7140093],[13.100670500000001,51.714086],[13.1004968,51.714165],[13.100226300000001,51.7141743],[13.0999151,51.7141012],[13.0994431,51.714074600000004],[13.099099800000001,51.714034700000006],[13.098649100000001,51.7140214],[13.0983809,51.714034700000006],[13.0980161,51.714141100000006],[13.0978445,51.714274],[13.0975333,51.7143339],[13.0971402,51.7143335],[13.096563100000001,51.7144916],[13.095956200000002,51.714679100000005],[13.095429800000002,51.714850500000004],[13.095061300000001,51.71498630000001],[13.094774600000001,51.7152973],[13.094459500000001,51.7156068],[13.094212800000001,51.716005700000004],[13.0941162,51.7161519],[13.093890900000002,51.71625160000001],[13.0935369,51.7163114],[13.093150600000001,51.716384500000004],[13.092603400000002,51.7164444],[13.0919919,51.716484300000005],[13.091316,51.7165308],[13.090951200000001,51.7166039],[13.0889342,51.716849800000006],[13.0886767,51.716923],[13.0881617,51.7171224],[13.0876789,51.7173218],[13.0871639,51.71742810000001],[13.0865953,51.717368300000004],[13.085790600000001,51.7174215],[13.085404400000002,51.717488],[13.085050800000001,51.717605400000004],[13.084903800000001,51.7178424],[13.0848142,51.718106600000006],[13.0845997,51.718372],[13.0839131,51.718637900000004],[13.083323,51.718910400000006],[13.082979700000001,51.719096500000006],[13.0824432,51.7202065],[13.081971200000002,51.720572000000004],[13.081005600000001,51.7208844],[13.079846900000001,51.7211901],[13.079175800000002,51.7214333],[13.078643000000001,51.7215823],[13.0780496,51.721774800000006],[13.077457800000001,51.721753500000005],[13.0770841,51.721861600000004],[13.0765767,51.7220213],[13.076159800000001,51.722070300000006],[13.075870700000001,51.7222627],[13.0759165,51.722618600000004],[13.076090800000001,51.7229559],[13.076103000000002,51.723181200000006],[13.076005,51.723358000000005],[13.0757647,51.7234111],[13.075073600000001,51.7237762],[13.0750375,51.724301800000006],[13.074810900000001,51.7245712],[13.0744614,51.7247569],[13.074271300000001,51.724806300000004],[13.074085700000001,51.7247907],[13.0738853,51.7247764],[13.0736281,51.7248942],[13.072787700000001,51.7251622],[13.0722033,51.725250700000004],[13.071669400000001,51.725363300000005],[13.071389900000002,51.72541330000001],[13.0711355,51.7254014],[13.070360800000001,51.725252100000006],[13.069864500000001,51.725243500000005],[13.0694282,51.7252598],[13.069243700000001,51.7252973],[13.068952600000001,51.725484],[13.068756500000001,51.725549300000004],[13.068312200000001,51.725621700000005],[13.0679721,51.7257259],[13.0676784,51.7258191],[13.067493500000001,51.725957300000005],[13.0673382,51.7261115],[13.067172900000001,51.7262106],[13.0669587,51.7262755],[13.0666621,51.726376800000004],[13.0664029,51.7265482],[13.0662395,51.726711800000004],[13.065823900000002,51.726870600000005],[13.065516700000002,51.7270581],[13.065193800000001,51.7272083],[13.0648873,51.727304700000005],[13.064453100000001,51.727394600000004],[13.0642367,51.7274772],[13.063439500000001,51.7278451],[13.063255700000001,51.7280797],[13.0630219,51.7282461],[13.0627466,51.7282803],[13.062508500000002,51.728377],[13.0623559,51.728479400000005],[13.062060800000001,51.728570700000006],[13.0616968,51.728806000000006],[13.0614974,51.728903800000005],[13.0611899,51.7289983],[13.060894500000002,51.729097],[13.0602993,51.7292125],[13.0598366,51.729282000000005],[13.0594269,51.7293925],[13.059364700000001,51.729409200000006],[13.058824000000001,51.7295152],[13.0583121,51.729685100000005],[13.057634400000001,51.729982500000006],[13.0574785,51.7300509],[13.056940200000001,51.730278500000004],[13.0561336,51.7307829],[13.055196100000002,51.7312583],[13.055144,51.7312924],[13.055039200000001,51.7313558],[13.054945700000001,51.7314324],[13.054889900000001,51.731485400000004],[13.0548266,51.7315788],[13.0546479,51.7321491],[13.054606600000001,51.7322422],[13.054551700000001,51.732298],[13.0543993,51.732396400000006],[13.0540509,51.732526500000006],[13.0535429,51.732702700000004],[13.053074800000001,51.7329682],[13.052616400000002,51.7333416],[13.051962000000001,51.7338541],[13.051734000000002,51.73398460000001],[13.051709200000001,51.734006]]}},{"type":"Feature","properties":{"osmType":"way","osmId":779902349,"name":"Neugraben","waterway":"stream"},"geometry":{"type":"LineString","coordinates":[[13.169354400000001,51.651252500000005],[13.169296500000002,51.6513579],[13.168989100000001,51.6514485],[13.1681992,51.6518415],[13.167016700000001,51.652486100000004],[13.166594300000002,51.652842400000004],[13.1662142,51.653146400000004],[13.165335800000001,51.6534241],[13.164187,51.6536966],[13.163072000000001,51.654163000000004],[13.162058400000001,51.65448790000001],[13.1611124,51.6551063],[13.160048100000001,51.655436400000006],[13.159228800000001,51.655798000000004],[13.1586882,51.6564216],[13.1575056,51.6571185],[13.156897500000001,51.65727570000001],[13.1565174,51.6579569],[13.155943,51.658177],[13.1558332,51.6584967],[13.156069700000002,51.658936800000006],[13.1561035,51.6592355],[13.156128800000001,51.6595237],[13.155698000000001,51.6598957],[13.155976800000001,51.660351600000006],[13.155723400000001,51.6607131],[13.1555291,51.661116500000006],[13.155385500000001,51.661430900000006],[13.1548534,51.661761000000006],[13.154228300000002,51.6619182],[13.1536793,51.6619601],[13.153442700000001,51.661981100000006],[13.1533583,51.6623164],[13.152783900000001,51.662583600000005],[13.151947700000001,51.6632333],[13.151474700000001,51.6639196],[13.150385,51.6648732],[13.1489998,51.665292300000004],[13.147969300000002,51.6654757],[13.1472428,51.665784800000004],[13.146524900000001,51.6668955],[13.146279900000001,51.667298900000006],[13.1464791,51.667756700000005],[13.1465671,51.667959],[13.146431900000001,51.668446200000005],[13.1457815,51.668854800000005],[13.143027900000002,51.669729600000004],[13.141110500000002,51.6704578],[13.140265800000002,51.670819300000005],[13.139782100000001,51.6718046],[13.1380499,51.6725336],[13.1376168,51.6750145],[13.1379674,51.6764212],[13.138936600000001,51.677405900000004],[13.139844,51.6781603],[13.141266900000002,51.678416000000006],[13.1420712,51.6789659],[13.1421536,51.679554100000004],[13.142194900000002,51.6801934],[13.141225700000001,51.680883900000005],[13.141638100000002,51.681267500000004],[13.1425248,51.68143370000001],[13.143762200000001,51.6816383],[13.144236500000002,51.681894],[13.1437415,51.6824055],[13.1434528,51.6829553],[13.142009300000002,51.6833005],[13.141081300000002,51.683594500000005],[13.1405451,51.684438400000005],[13.140772,51.6851927],[13.141039300000001,51.686010700000004],[13.1412448,51.6864713],[13.1414202,51.686747700000005],[13.1415232,51.686882000000004],[13.141555400000001,51.6872861],[13.141613300000001,51.687357600000006],[13.141854700000001,51.6874175],[13.142017800000001,51.687477300000005],[13.1420843,51.6875611],[13.142128300000001,51.687740700000006],[13.142117500000001,51.6881258],[13.142240900000001,51.6883021],[13.142536000000002,51.6885216],[13.142616400000001,51.688651300000004],[13.142606800000001,51.688775],[13.142460900000001,51.688880700000006],[13.1422474,51.6889313],[13.1421594,51.689164700000006],[13.142095000000001,51.6892665],[13.1417324,51.689481300000004],[13.1419791,51.689814500000004],[13.1419566,51.689954900000004],[13.1417689,51.6901451],[13.1415854,51.6902236],[13.1413343,51.690176400000006],[13.140516400000001,51.6908497],[13.140379200000002,51.691104900000006],[13.140769800000001,51.691438700000006],[13.140843700000001,51.691864200000005],[13.1389115,51.693559300000004],[13.1379011,51.694028700000004],[13.137678900000001,51.694144300000005],[13.1377439,51.694235000000006],[13.138134200000001,51.69432320000001],[13.138267500000001,51.6945083],[13.1382024,51.69461810000001],[13.1384047,51.6948748],[13.138363100000001,51.6950124],[13.1379718,51.695058100000004],[13.1376868,51.695463800000006],[13.1375284,51.695496500000004],[13.137169400000001,51.695385300000005],[13.1368738,51.695463800000006],[13.136736500000001,51.6957911],[13.1364303,51.6960136],[13.135955200000001,51.6969952],[13.1360237,51.6974725],[13.1359098,51.697804500000004],[13.1356152,51.69799750000001],[13.1343489,51.6986721],[13.134265800000001,51.6987164]]}},{"type":"Feature","properties":{"osmType":"way","osmId":1509935989,"name":"Neugraben","waterway":"stream"},"geometry":{"type":"LineString","coordinates":[[13.134175800000001,51.698743300000004],[13.133555900000001,51.698929],[13.1333198,51.699068700000005],[13.132965800000001,51.699261500000006],[13.132708300000001,51.69946100000001],[13.1323757,51.69956740000001],[13.1319358,51.6996206],[13.131549600000001,51.699773500000006],[13.1310239,51.7000861],[13.1305089,51.7003653],[13.130154800000001,51.70061140000001],[13.1297686,51.70071110000001],[13.129039,51.7008042],[13.128438200000002,51.700864100000004],[13.127805200000001,51.7010103],[13.1276121,51.7010768],[13.127311700000002,51.7012963],[13.126979100000002,51.701548900000006],[13.126694800000001,51.701675300000005],[13.1260189,51.701898],[13.125509200000002,51.702074200000006],[13.125192700000001,51.70221050000001],[13.125176600000001,51.7022704],[13.125171300000002,51.7026727],[13.1251069,51.703081600000004],[13.1250318,51.703467200000006],[13.124935200000001,51.7037332],[13.124747500000002,51.7040158],[13.124452400000001,51.704348200000005],[13.1242003,51.704567600000004],[13.123781900000001,51.7047937],[13.1233366,51.705033],[13.1229182,51.7053322],[13.1224968,51.705904700000005],[13.1212928,51.7064758],[13.1202628,51.707300200000006],[13.119426,51.7082975],[13.118675000000001,51.709042100000005],[13.1183075,51.7094825],[13.117915900000002,51.7098864],[13.1174719,51.7101886],[13.116952900000001,51.7103344],[13.116641600000001,51.7103588]]}},{"type":"Feature","properties":{"osmType":"way","osmId":1509935990,"name":"Neugraben","waterway":"stream"},"geometry":{"type":"LineString","coordinates":[[13.134265800000001,51.6987164],[13.134175800000001,51.698743300000004]]}}]}