{"type":"FeatureCollection","features":[{"type":"Feature","properties":{"osmType":"way","osmId":32241891,"name":"Niegripper Verbindungskanal","waterway":"canal"},"geometry":{"type":"LineString","coordinates":[[11.749244200000001,52.2462669],[11.7417136,52.2487318],[11.7415824,52.2487824]]}},{"type":"Feature","properties":{"osmType":"way","osmId":161851214,"name":"Niegripper Verbindungskanal","waterway":"canal"},"geometry":{"type":"LineString","coordinates":[[11.739499700000001,52.2494558],[11.7393555,52.2494942],[11.7382129,52.249908000000005],[11.735133800000002,52.251300500000006],[11.7346885,52.25170120000001],[11.7342647,52.2522201],[11.7338731,52.2527685],[11.7336156,52.253313600000006],[11.7334815,52.2539244],[11.7334761,52.254581200000004],[11.733289300000001,52.255507400000006]]}},{"type":"Feature","properties":{"osmType":"way","osmId":161851215,"name":"Niegripper Verbindungskanal","waterway":"canal"},"geometry":{"type":"LineString","coordinates":[[11.7415824,52.2487824],[11.739499700000001,52.2494558]]}}]}