{"type":"FeatureCollection","features":[{"type":"Feature","properties":{"osmType":"way","osmId":94248744,"name":"Niegripper Altkanal","waterway":"canal"},"geometry":{"type":"LineString","coordinates":[[11.757158100000002,52.270456200000005],[11.759693200000001,52.269707800000006],[11.7647882,52.2691006]]}},{"type":"Feature","properties":{"osmType":"way","osmId":327196429,"name":"Niegripper Altkanal","waterway":"canal"},"geometry":{"type":"LineString","coordinates":[[11.7653428,52.268987100000004],[11.765820600000001,52.268969600000005],[11.7665647,52.268920900000005],[11.771425,52.268768300000005],[11.7742871,52.2687079],[11.7749591,52.2686956],[11.7751423,52.2687017],[11.775329800000002,52.268712900000004],[11.775627,52.2687475],[11.776041500000002,52.268809600000004],[11.776273600000001,52.2688538],[11.7764232,52.2688847],[11.7765728,52.2689195],[11.776710000000001,52.268957300000004],[11.776844,52.268997000000006],[11.777076800000001,52.2690824],[11.779410200000001,52.270073100000005],[11.7811774,52.2708037],[11.7828019,52.271461900000006],[11.7836905,52.2718738],[11.7845075,52.2722774],[11.7848065,52.2724277],[11.7851233,52.2726314],[11.7855044,52.2729141],[11.786273900000001,52.2735147],[11.787109800000001,52.27413790000001],[11.7874735,52.274368],[11.7877253,52.274495200000004],[11.788063500000002,52.2746537],[11.788431500000002,52.2748153],[11.788745400000002,52.27491740000001],[11.7890613,52.2750046],[11.7894023,52.275085600000004],[11.7897906,52.275162300000005],[11.790173600000001,52.275227900000004],[11.7906025,52.2752806],[11.7909571,52.2753038],[11.7913533,52.2753164],[11.792027200000001,52.2752934],[11.7924813,52.275263300000006],[11.7928913,52.27523],[11.7929586,52.2752251],[11.794016000000001,52.275097300000006],[11.7955708,52.274935400000004],[11.797205700000001,52.274734200000005],[11.7997902,52.2744416],[11.801370700000001,52.2742717],[11.802048200000002,52.2742238],[11.8026668,52.274261200000005],[11.8056177,52.274587200000006],[11.8064991,52.274594400000005],[11.8069044,52.274582900000006],[11.8071756,52.2745527],[11.8073662,52.2745213],[11.807662200000001,52.274459500000006],[11.807958900000001,52.2743802],[11.8090279,52.2740512],[11.811378000000001,52.2732794],[11.8122071,52.2730359],[11.8137381,52.2726513]]}},{"type":"Feature","properties":{"osmType":"way","osmId":1258403496,"name":"Niegripper Altkanal","waterway":"canal"},"geometry":{"type":"LineString","coordinates":[[11.756447600000001,52.2706816],[11.757158100000002,52.270456200000005]]}},{"type":"Feature","properties":{"osmType":"way","osmId":1258403497,"name":"Niegripper Altkanal","waterway":"canal"},"geometry":{"type":"LineString","coordinates":[[11.7561859,52.270766800000004],[11.756447600000001,52.2706816]]}},{"type":"Feature","properties":{"osmType":"way","osmId":1258403498,"name":"Niegripper Altkanal","waterway":"canal"},"geometry":{"type":"LineString","coordinates":[[11.7561158,52.2707892],[11.7561859,52.270766800000004]]}}]}