{"type":"FeatureCollection","features":[{"type":"Feature","properties":{"osmType":"way","osmId":15884673,"name":"Ohre","waterway":"river"},"geometry":{"type":"LineString","coordinates":[[10.944484600000001,52.603381000000006],[10.944865700000001,52.603460600000005],[10.9456327,52.6035327],[10.949593,52.6039399],[10.9498827,52.6039334],[10.9500007,52.6038878],[10.9502582,52.603672800000005],[10.9504835,52.6035034],[10.952506000000001,52.602681800000006],[10.952732500000002,52.6025859],[10.953055,52.6025189],[10.9532623,52.6024478],[10.9534661,52.6022849],[10.9538387,52.6020892],[10.9543044,52.601942],[10.9548073,52.6017543],[10.955293900000001,52.6015183],[10.9555675,52.6014126],[10.955845,52.6013433],[10.956073700000001,52.601335000000006],[10.956615900000001,52.601175700000006],[10.9572234,52.601002400000006],[10.957511100000001,52.600904400000005],[10.957554,52.6008172],[10.9574136,52.600696600000006],[10.9573821,52.6006167],[10.957385400000001,52.600466700000005],[10.9574666,52.600276300000004],[10.9576074,52.5998869],[10.9576933,52.599691400000005],[10.9576718,52.599528500000005],[10.9576718,52.599372100000004],[10.9576933,52.5992418],[10.9576074,52.599131],[10.9575998,52.5990273],[10.9578196,52.5987875],[10.9579293,52.598583600000005],[10.958146900000001,52.5983541],[10.9584243,52.598194500000005],[10.958558400000001,52.5979894],[10.9585687,52.597870900000004],[10.9585057,52.5977223],[10.9578065,52.5961348],[10.957305,52.5949177],[10.957113900000001,52.594536600000005],[10.956953,52.5942889],[10.956953,52.5939891],[10.9569959,52.5936176],[10.9573392,52.5926726],[10.9575645,52.5922033],[10.957736200000001,52.592007800000005],[10.959882,52.5907173],[10.9600965,52.590639100000004],[10.9602897,52.5905934],[10.960547100000001,52.5906],[10.961105,52.590613000000005],[10.962789500000001,52.5906],[10.9641198,52.5905348],[10.9655085,52.590434800000004],[10.9670179,52.590263500000006],[10.967684100000001,52.5902654],[10.968291800000001,52.590212900000004],[10.9694628,52.5902358],[10.9701289,52.590205100000006],[10.9705987,52.590167300000005],[10.9714959,52.589987300000004],[10.972139700000001,52.5897828],[10.9727887,52.5894593],[10.9731964,52.5892703],[10.973690000000001,52.588892300000005],[10.978410700000001,52.585039900000005],[10.981876100000001,52.5821781],[10.986114,52.5787229],[10.9868699,52.5781087],[10.987187800000001,52.577803900000006],[10.9880291,52.577145],[10.9894373,52.57597560000001],[10.9895615,52.575850300000006],[10.9896826,52.575707400000006],[10.9899616,52.5751646],[10.990081,52.5746708],[10.9901543,52.5742847],[10.9901614,52.5740033],[10.9901373,52.5736373],[10.9900085,52.573272100000004],[10.989907500000001,52.5731127],[10.989678600000001,52.5729029],[10.989016900000001,52.5724704],[10.9860872,52.570426700000006],[10.985899400000001,52.570218800000006],[10.985750600000001,52.569890400000006],[10.9857277,52.569632000000006],[10.985792100000001,52.569293200000004],[10.985920400000001,52.56905020000001],[10.986016000000001,52.568899300000005],[10.9863865,52.5684416],[10.986532400000002,52.5682175],[10.986661100000001,52.567892500000006],[10.986785300000001,52.567393700000004],[10.9868261,52.567021100000005],[10.9868229,52.56671],[10.9867711,52.565720000000006],[10.9867225,52.565519300000005],[10.9865163,52.5651632],[10.9862719,52.5648865],[10.985978600000001,52.5646593],[10.985810500000001,52.5645619],[10.985598600000001,52.5644755],[10.9853495,52.564415700000005],[10.9845287,52.5642975],[10.9839692,52.564230300000006],[10.9833093,52.564137200000005],[10.982690700000001,52.564050400000006],[10.9819093,52.56394340000001],[10.9815766,52.563886100000005],[10.9813538,52.563806400000004],[10.9810317,52.5635635],[10.980844300000001,52.563388800000006],[10.980726800000001,52.563206300000004],[10.9806982,52.5630717],[10.9807062,52.5629575],[10.9807412,52.562870600000004],[10.980933100000001,52.562543500000004],[10.9810505,52.562422700000006],[10.981183600000001,52.562352600000004],[10.981392900000001,52.5622899],[10.981634300000001,52.562247500000005],[10.982059000000001,52.5621839],[10.9822646,52.5621358],[10.982441600000001,52.562051000000004],[10.9825818,52.561876500000004],[10.9825423,52.5615887],[10.9818862,52.560368000000004],[10.9818519,52.560004400000004],[10.9820296,52.559343000000005],[10.982197000000001,52.5587426],[10.982327300000001,52.5584507],[10.9824175,52.5583025],[10.9827662,52.557738],[10.983487,52.5569232],[10.983592300000002,52.5567914],[10.9836355,52.5566833],[10.9836258,52.5565615],[10.983557900000001,52.5564319],[10.983314700000001,52.5560666],[10.9832383,52.555816500000006],[10.9830421,52.555144000000006],[10.9828025,52.5533324],[10.9827604,52.553081500000005],[10.9827188,52.55288710000001],[10.981625300000001,52.550269],[10.981424500000001,52.5497431],[10.9813504,52.5494318],[10.9812083,52.5489022],[10.9810183,52.5481837],[10.980981100000001,52.5480279],[10.9809225,52.5478753],[10.979645300000001,52.546178700000006],[10.978976300000001,52.5452914],[10.9789118,52.5451971],[10.9788622,52.5451033],[10.978846500000001,52.5449312],[10.979537,52.5384426],[10.9796806,52.537195700000005],[10.9806609,52.5305103],[10.9809493,52.528542800000004],[10.982753200000001,52.524886800000004],[10.983088400000002,52.5241642],[10.985585,52.5223433],[10.9934664,52.5165323],[10.9945518,52.515845500000005],[10.997502200000001,52.513717],[11.000007400000001,52.5119246],[11.003167000000001,52.509636],[11.0061979,52.507471300000006],[11.0165021,52.50001090000001],[11.0167333,52.4998766],[11.016836000000001,52.4998189],[11.0171208,52.4997076],[11.0206823,52.4983784],[11.0207476,52.4983548],[11.0246975,52.4969261],[11.026526,52.496244100000006],[11.0266266,52.4962066],[11.0270627,52.4960475],[11.027537800000001,52.4958742],[11.0328917,52.4939211],[11.0422154,52.490465400000005],[11.0423714,52.490410100000005],[11.0432818,52.490087100000004],[11.0462051,52.489025500000004],[11.0467855,52.4887561],[11.0496104,52.4870516],[11.050715100000001,52.486373300000004],[11.0538202,52.484486600000004],[11.0552077,52.4836146],[11.0630719,52.4788542],[11.066281700000001,52.4769136],[11.067525600000002,52.4761615],[11.0695092,52.474962100000006],[11.070694300000001,52.4742328],[11.0738973,52.4722615],[11.0764942,52.4706594],[11.077312500000001,52.47015450000001],[11.078152000000001,52.4696366],[11.079830300000001,52.4686011],[11.0841309,52.4659356],[11.0849512,52.4654272],[11.0879977,52.463575000000006],[11.0884443,52.4632845],[11.0888022,52.4630085],[11.094918100000001,52.458095300000004],[11.0964504,52.4568747],[11.1038829,52.4506456],[11.104791200000001,52.4498843],[11.104997000000001,52.4497118],[11.122296700000001,52.4434045],[11.135911,52.4383786],[11.1422985,52.435973600000004],[11.147573300000001,52.4340417],[11.1480513,52.433883400000006],[11.1487089,52.4338095],[11.150888,52.4336591],[11.151841200000002,52.4336427],[11.152537,52.4336454],[11.153192500000001,52.433686200000004],[11.1606705,52.434296200000006],[11.1818573,52.435987700000005],[11.1824784,52.436042900000004],[11.1826222,52.436056400000005],[11.1828116,52.4360713],[11.1894994,52.4365986],[11.209243200000001,52.4381539],[11.209823100000001,52.4381647],[11.210301000000001,52.4381203],[11.2168887,52.4371762],[11.2230936,52.436259400000004],[11.227653,52.435580400000006],[11.2281989,52.4354991],[11.23088,52.4351099],[11.2321997,52.434862300000006],[11.239266200000001,52.433289800000004]]}},{"type":"Feature","properties":{"osmType":"way","osmId":35329617,"name":"Ohre","waterway":"river"},"geometry":{"type":"LineString","coordinates":[[11.573907100000001,52.2508132],[11.5743155,52.250684400000004],[11.5746152,52.250603000000005],[11.575108700000001,52.250438800000005],[11.5759295,52.2502615],[11.576600000000001,52.2501596],[11.577265200000001,52.2501235],[11.5777909,52.250054500000005],[11.578702900000001,52.2499035],[11.579223200000001,52.2497885],[11.5801049,52.2496233],[11.5813784,52.2494663],[11.5830414,52.2491878],[11.587431,52.248521600000004],[11.5878613,52.2484393]]}},{"type":"Feature","properties":{"osmType":"way","osmId":100180456,"name":"Ohre","waterway":"river"},"geometry":{"type":"LineString","coordinates":[[11.3754212,52.3194278],[11.3754533,52.319402800000006],[11.3779999,52.317423600000005],[11.3785653,52.3169976],[11.3788611,52.3167388],[11.378973,52.3166409],[11.379282,52.316289000000005],[11.3795894,52.3158273],[11.3805051,52.3140797],[11.3809117,52.313297500000004],[11.3810651,52.3130273],[11.3812271,52.3128089],[11.3814015,52.312632400000005],[11.3816021,52.312520600000006],[11.3819438,52.3123743],[11.382672900000001,52.3120221],[11.383353600000001,52.311714200000004],[11.3897013,52.3085651],[11.390107400000002,52.3083636],[11.3972496,52.304872],[11.3980543,52.3044851],[11.4006506,52.3032368],[11.4010993,52.303021],[11.4022661,52.30246],[11.404601000000001,52.301320200000006],[11.4061312,52.3005707],[11.4081647,52.29957460000001],[11.4107471,52.2982723]]}},{"type":"Feature","properties":{"osmType":"way","osmId":100181048,"name":"Ohre","waterway":"river"},"geometry":{"type":"LineString","coordinates":[[11.348566400000001,52.3417073],[11.349696000000002,52.3405701],[11.350997600000001,52.3393524],[11.351401000000001,52.3390427],[11.3519009,52.33869],[11.3524288,52.338259300000004],[11.353470000000002,52.337293700000004],[11.3557971,52.335143800000004],[11.356151200000001,52.334797],[11.3565181,52.3345069],[11.3570653,52.334185600000005],[11.3576568,52.333936],[11.358386300000001,52.3337],[11.3591273,52.333543500000005],[11.3599063,52.3334337],[11.3605988,52.3333439],[11.3611079,52.3332259],[11.3620531,52.3329528],[11.3627494,52.33270400000001],[11.3631437,52.3325466],[11.363563200000002,52.3322847],[11.364389300000001,52.3315173],[11.3648973,52.3310194],[11.364980300000001,52.3309171],[11.365129600000001,52.330733200000005],[11.3653195,52.330346000000006],[11.365458400000001,52.3300641],[11.3655022,52.3299296],[11.365563900000001,52.3296416],[11.3656605,52.328926900000006],[11.3656176,52.328238500000005],[11.3657356,52.3276484],[11.365798900000001,52.3274872],[11.365928700000001,52.3271566],[11.366136500000001,52.326713600000005],[11.3664594,52.3262274],[11.366856400000001,52.325763800000004],[11.3679813,52.324901800000006],[11.368452900000001,52.3245474],[11.3693471,52.3240533],[11.3697432,52.323812200000006],[11.36989,52.323722800000006],[11.370325600000001,52.323403500000005],[11.3709108,52.3229297],[11.3730078,52.321304700000006],[11.3754212,52.3194278]]}},{"type":"Feature","properties":{"osmType":"way","osmId":100181837,"name":"Ohre","waterway":"river"},"geometry":{"type":"LineString","coordinates":[[11.4107471,52.2982723],[11.411237400000001,52.2980187],[11.411587200000001,52.2978272],[11.411676900000002,52.2977688],[11.412118600000001,52.2974972],[11.4131347,52.2968758],[11.413491,52.2966362],[11.414178600000001,52.296187700000004],[11.41431,52.2960719],[11.414661,52.2957546],[11.4150703,52.295375],[11.416137,52.294391100000006],[11.4173293,52.2932964],[11.4181516,52.292525700000006],[11.4190746,52.291594],[11.419614800000002,52.2910234],[11.4201723,52.290486800000004],[11.4204842,52.290167200000006],[11.4205941,52.290061800000004],[11.420957000000001,52.289703300000006],[11.4212811,52.2894334],[11.421556800000001,52.2892707],[11.4222076,52.2889818],[11.422706400000001,52.288796600000005],[11.4243196,52.2882399],[11.4248937,52.2880613],[11.4254887,52.2879087],[11.426010300000002,52.2878156],[11.4266561,52.2877717],[11.4274333,52.287741200000006],[11.4317653,52.2876969],[11.432333,52.287683900000005],[11.4328374,52.2876497],[11.433307300000001,52.2875773],[11.4339785,52.287423200000006],[11.435354100000001,52.2868815],[11.4359689,52.286656],[11.4363717,52.2865556],[11.436871700000001,52.286468000000006],[11.4378566,52.2863279],[11.4416466,52.285961300000004],[11.4425097,52.2858524],[11.443010200000002,52.2857464],[11.443423800000001,52.285647600000004],[11.4435544,52.28560160000001],[11.443913,52.2854753],[11.452357200000002,52.282301000000004]]}},{"type":"Feature","properties":{"osmType":"way","osmId":100181850,"name":"Ohre","waterway":"river"},"geometry":{"type":"LineString","coordinates":[[11.452357200000002,52.282301000000004],[11.452641,52.282172300000006],[11.4528748,52.2820374],[11.453111400000001,52.2818435],[11.4533678,52.28166],[11.453662300000001,52.2815166],[11.454023900000001,52.2814077],[11.4543833,52.281322700000004],[11.454793700000002,52.281269800000004],[11.4551376,52.2812573],[11.455480300000001,52.281285600000004],[11.455832800000001,52.2813893],[11.4562737,52.2815996],[11.4566707,52.2817683],[11.4569904,52.281856600000005],[11.457421700000001,52.281926500000004],[11.457744700000001,52.2819377],[11.4580815,52.2819154],[11.458458100000001,52.2818441],[11.462438500000001,52.281107000000006],[11.4630211,52.281013800000004],[11.4635463,52.280895400000006],[11.4640237,52.280753600000004],[11.464517800000001,52.2805544],[11.4656979,52.279976700000006],[11.4660664,52.279764300000004],[11.4674092,52.2789902],[11.4678941,52.2787841],[11.4681326,52.278683300000004],[11.4688528,52.278515600000006],[11.469490100000002,52.278440700000004],[11.4706772,52.278352100000006],[11.471776400000001,52.2782428],[11.472489300000001,52.2781552],[11.473157200000001,52.278021],[11.4737231,52.2778946],[11.4743776,52.277730500000004],[11.475372100000001,52.2774518],[11.476379000000001,52.2771624],[11.476940200000001,52.27693],[11.4775994,52.276628300000006],[11.477815000000001,52.2765477],[11.478532900000001,52.2762699],[11.479541900000001,52.275860300000005],[11.4824178,52.2746475],[11.4843715,52.2738134],[11.487402600000001,52.2723219],[11.4884141,52.2719237],[11.489123800000002,52.2716457],[11.489179400000001,52.271624700000004],[11.490029900000001,52.2713036],[11.4910432,52.270906100000005],[11.4911273,52.2708754],[11.4918334,52.2706175],[11.4925946,52.2702801],[11.4934524,52.269770900000005],[11.4938944,52.2695116],[11.494394400000001,52.2692503],[11.4949265,52.2690701],[11.4954839,52.2689151],[11.496189300000001,52.268754300000005],[11.4967708,52.268646600000004],[11.497674700000001,52.2685954]]}},{"type":"Feature","properties":{"osmType":"way","osmId":100183627,"name":"Ohre","waterway":"river"},"geometry":{"type":"LineString","coordinates":[[11.5533134,52.2586316],[11.5536867,52.258301900000006],[11.5543627,52.257712500000004],[11.554952700000001,52.2573129],[11.5555562,52.2569366],[11.556833500000002,52.2562128],[11.557749900000001,52.2557683],[11.5578424,52.2557234],[11.558968,52.2551926],[11.5597936,52.2548304],[11.560435700000001,52.2544777],[11.560745800000001,52.25428530000001],[11.560831700000001,52.25422330000001],[11.5610467,52.254068200000006],[11.561250000000001,52.25380680000001],[11.5616245,52.253283],[11.561908200000001,52.2529714],[11.562208700000001,52.252778600000006],[11.562541300000001,52.252610100000005],[11.5630026,52.2524663],[11.563547100000001,52.2523812],[11.5646307,52.252290300000006],[11.567798400000001,52.251979600000006],[11.570271900000002,52.2517463],[11.5708333,52.251695000000005]]}},{"type":"Feature","properties":{"osmType":"way","osmId":100183638,"name":"Ohre","waterway":"river"},"geometry":{"type":"LineString","coordinates":[[11.497674700000001,52.2685954],[11.501793300000001,52.268414],[11.5053651,52.2682566],[11.507085,52.2681739],[11.5085774,52.26817320000001],[11.5096009,52.268209600000006],[11.5103363,52.268285500000005],[11.5108583,52.2683794],[11.511432300000001,52.2685819],[11.5120707,52.2688482],[11.5165076,52.270680600000006],[11.516912000000001,52.270797400000006],[11.5170674,52.2708218],[11.5173825,52.2708713],[11.517937700000001,52.2709107],[11.518599700000001,52.270850900000006],[11.519215,52.27078040000001],[11.5198373,52.2706576],[11.5202836,52.2705076],[11.520711700000001,52.2703283],[11.521104300000001,52.270067000000004],[11.5215308,52.2698333],[11.5218763,52.2696521],[11.522222300000001,52.269500400000005],[11.5227249,52.2693242],[11.5237811,52.268964200000006],[11.525151800000002,52.2684969],[11.5256147,52.268371800000004],[11.526148500000001,52.2682907],[11.5265793,52.26824310000001],[11.527024500000001,52.2682408],[11.5275508,52.2682093],[11.5279976,52.2681466],[11.528607000000001,52.267957200000005],[11.5307726,52.266913900000006],[11.5308773,52.2668624],[11.531118600000001,52.2667409],[11.5315215,52.2664392],[11.531940500000001,52.266133200000006],[11.5322575,52.2659211],[11.532630300000001,52.265740900000004],[11.533158700000001,52.265533700000006],[11.5337204,52.26536],[11.534459100000001,52.265159800000006],[11.535123200000001,52.2649441],[11.538130500000001,52.2638186],[11.5390794,52.263463400000006],[11.544296200000002,52.261533],[11.544352700000001,52.261512100000004],[11.5445808,52.2614047],[11.5447105,52.261343700000005],[11.5454813,52.26080820000001],[11.545841300000001,52.2606046],[11.5462828,52.2604313],[11.546770400000002,52.260293700000005],[11.5472827,52.260195200000005],[11.5495309,52.259937400000005],[11.5502117,52.2598415],[11.5507696,52.259706900000005],[11.5515083,52.2594797],[11.5515855,52.259447900000005],[11.5522056,52.2591921],[11.552809100000001,52.258918900000005],[11.5533134,52.2586316]]}},{"type":"Feature","properties":{"osmType":"way","osmId":100183858,"name":"Ohre","waterway":"river"},"geometry":{"type":"LineString","coordinates":[[11.5708333,52.251695000000005],[11.571659400000001,52.2516211],[11.5723514,52.25147990000001],[11.573156,52.2512368],[11.5737783,52.250921600000005],[11.573907100000001,52.2508132]]}},{"type":"Feature","properties":{"osmType":"way","osmId":100262105,"name":"Ohre","waterway":"river"},"geometry":{"type":"LineString","coordinates":[[11.3411314,52.3457961],[11.3451807,52.344243000000006],[11.3462852,52.343831400000006],[11.3465567,52.3436272],[11.346866400000001,52.343393500000005],[11.3469671,52.343317500000005],[11.348566400000001,52.3417073]]}},{"type":"Feature","properties":{"osmType":"way","osmId":100262118,"name":"Ohre","waterway":"river"},"geometry":{"type":"LineString","coordinates":[[11.319387800000001,52.37864080000001],[11.319984400000001,52.3777606],[11.320381300000001,52.3773217],[11.320746100000001,52.376974600000004],[11.321304000000001,52.376575100000004],[11.322065700000001,52.376097],[11.322773900000001,52.3757433],[11.3238467,52.37529790000001],[11.326357300000002,52.374394],[11.3270718,52.374101200000005],[11.3276388,52.373754100000006],[11.328080900000002,52.3734783],[11.3284306,52.3732157],[11.3288399,52.372765],[11.3297798,52.371715],[11.3304527,52.371026300000004],[11.330766800000001,52.3707586],[11.3312282,52.3704442],[11.3318504,52.370083900000004],[11.332419100000001,52.3697433],[11.332934100000001,52.3693437],[11.333255900000001,52.369094800000006],[11.3342215,52.3680401],[11.3345648,52.3675226],[11.3348223,52.367011600000005],[11.3349404,52.366638200000004],[11.3350155,52.366166500000006],[11.334983300000001,52.3656621],[11.3346931,52.3645615],[11.3346292,52.364319],[11.333846900000001,52.3617658],[11.333663600000001,52.3611677],[11.332901900000001,52.358579600000006],[11.3325084,52.3574655],[11.3323582,52.3568365],[11.332315300000001,52.3563516],[11.3323367,52.3557488],[11.332422000000001,52.3553992],[11.332525500000001,52.3551213],[11.332698200000001,52.3547809],[11.332952,52.3543868],[11.3333103,52.3540873],[11.3345254,52.353311100000006],[11.334976000000001,52.35298340000001],[11.335233500000001,52.352695100000005],[11.335275900000001,52.352341200000005],[11.335230600000001,52.352146700000006],[11.3351691,52.3518825],[11.335126200000001,52.3514107],[11.335126200000001,52.3509912],[11.335212100000001,52.3506111],[11.3355554,52.350231],[11.3385595,52.347111500000004],[11.338817,52.346862400000006],[11.3392461,52.346574000000004],[11.3397182,52.346338100000004],[11.3411314,52.3457961]]}},{"type":"Feature","properties":{"osmType":"way","osmId":100269613,"name":"Ohre","waterway":"river"},"geometry":{"type":"LineString","coordinates":[[11.5878613,52.2484393],[11.5895136,52.248127600000004],[11.5911229,52.2477795],[11.5916808,52.247681],[11.5921851,52.24761530000001],[11.5932258,52.2475102],[11.593858800000001,52.2475102],[11.594251400000001,52.2474993],[11.5946312,52.2474317],[11.5951033,52.2473328],[11.595789900000002,52.24721460000001],[11.5971487,52.246966300000004],[11.5987983,52.2466835],[11.5995719,52.2465393],[11.6000913,52.246486600000004],[11.6002317,52.2464723],[11.6005535,52.246446000000006],[11.601422600000001,52.2462949],[11.6023023,52.246065],[11.6025706,52.2460059],[11.6029032,52.245979600000005],[11.603152900000001,52.2459532],[11.6033001,52.2459402],[11.6036233,52.2459307],[11.6057251,52.24635000000001],[11.6062001,52.2463994],[11.6067379,52.2464237],[11.6075917,52.2464263],[11.6082032,52.2464263],[11.6085787,52.246419800000005],[11.6089971,52.2463672],[11.6094263,52.246281800000006],[11.609876900000001,52.2461898],[11.6102095,52.246117600000005],[11.6106387,52.2460716],[11.6111751,52.2459599],[11.6115613,52.245848300000006],[11.611948100000001,52.24566840000001],[11.612248000000001,52.2454935],[11.612752200000001,52.24513880000001],[11.6129338,52.2450029],[11.612990900000002,52.244936800000005],[11.613385200000002,52.24480380000001],[11.613750000000001,52.2447512],[11.614114800000001,52.244705200000006],[11.614501,52.244705200000006],[11.6149409,52.244777500000005],[11.615295000000001,52.244882600000004],[11.615616800000002,52.245014000000005],[11.6162176,52.2453884],[11.6163679,52.2455067],[11.616571700000001,52.2455724],[11.6167434,52.2456052],[11.6169794,52.2456052],[11.617269100000001,52.2455724],[11.6176446,52.2455067],[11.618138100000001,52.2454607],[11.6184492,52.2454541],[11.6190715,52.2455067],[11.6201229,52.245578900000005],[11.622172200000001,52.2456972],[11.6222986,52.245701600000004],[11.623116300000001,52.24573],[11.623738600000001,52.245716900000005],[11.624221400000001,52.2456643],[11.624858600000001,52.2455629],[11.6270001,52.2451002],[11.627531900000001,52.2450162],[11.6276331,52.245007400000006],[11.628019400000001,52.244974600000006],[11.6283627,52.244968],[11.6287918,52.2449943],[11.629221000000001,52.24506],[11.6297574,52.245145400000006],[11.630572800000001,52.2452702],[11.631345300000001,52.2453621],[11.6317423,52.2454016],[11.6321607,52.245414700000005],[11.632772200000002,52.245395],[11.6337164,52.2453884],[11.634456700000001,52.245408100000006],[11.6348751,52.24544100000001],[11.6352828,52.245480400000005],[11.635551000000001,52.2454935],[11.6359051,52.245480400000005],[11.6361779,52.2454356],[11.6364616,52.2453469],[11.636596800000001,52.245280300000005],[11.636677500000001,52.2452045],[11.6368492,52.2449286],[11.636935000000001,52.244711800000005],[11.636935000000001,52.244547600000004],[11.637020900000001,52.24440310000001],[11.637267600000001,52.2442257],[11.637557300000001,52.2440615],[11.6379114,52.2438512],[11.6381581,52.2437593],[11.638555100000001,52.243673900000005],[11.6389735,52.243601600000005],[11.639391900000001,52.2434768],[11.639724500000002,52.243404500000004],[11.640014200000001,52.243266600000005],[11.6403253,52.243069500000004],[11.6405936,52.242905300000004],[11.640776,52.2428133],[11.641151500000001,52.2426885],[11.641441100000002,52.242603100000004],[11.641645,52.242497900000004],[11.6418274,52.242366600000004],[11.6422565,52.241919800000005],[11.6424175,52.2418081],[11.6427071,52.241689900000004],[11.643447400000001,52.2415388],[11.643898,52.2414665],[11.644144800000001,52.2414008],[11.6445954,52.241184000000004],[11.645088900000001,52.240895],[11.645657600000002,52.2405139],[11.646124400000001,52.2402226],[11.6465695,52.239968600000005],[11.6468485,52.239804400000004],[11.6471382,52.239666400000004],[11.647588800000001,52.239581],[11.648093000000001,52.2395153],[11.6486724,52.239443],[11.649348300000002,52.2394036],[11.6503461,52.2393773],[11.6511937,52.2393379],[11.651944700000001,52.2392722],[11.6523309,52.2392459],[11.652888800000001,52.239285300000006],[11.653328700000001,52.239351000000006],[11.653736400000001,52.239456200000006],[11.654208500000001,52.239594100000005],[11.655195500000001,52.2399818],[11.655453000000001,52.240106600000004],[11.655635400000001,52.240205100000004],[11.6559573,52.240402200000005],[11.656804800000002,52.240940900000005],[11.657631,52.2414994],[11.6580601,52.2417293],[11.658478500000001,52.242123500000005],[11.658703800000001,52.242366600000004],[11.6589291,52.2427082],[11.6591652,52.2430169],[11.6594978,52.2433848],[11.6597016,52.2436279],[11.659873300000001,52.2437855],[11.6602273,52.244008900000004],[11.660720900000001,52.2442848],[11.6616972,52.2448301],[11.662094100000001,52.245112500000005],[11.6626306,52.245546100000006],[11.6629739,52.245868],[11.6632099,52.246150400000005],[11.663424500000001,52.246485400000005],[11.6635425,52.2467088],[11.663757100000002,52.2470159],[11.6638993,52.247132500000006],[11.6641112,52.247282000000006],[11.664382100000001,52.247495400000005],[11.664744200000001,52.247720400000006],[11.6652806,52.247924000000005],[11.665838500000001,52.248160500000004],[11.6660745,52.2482459],[11.6662248,52.24835100000001],[11.6663428,52.2484429],[11.666428600000001,52.248561200000005],[11.6664822,52.248718800000006],[11.6666003,52.2489159],[11.6666968,52.249021000000006],[11.666900700000001,52.249126100000005],[11.667362,52.2492771],[11.6678555,52.2494808],[11.6683061,52.2496778],[11.6695936,52.250393800000005],[11.6700195,52.2505851],[11.6703325,52.250822500000005],[11.670484100000001,52.2510112],[11.6706987,52.2513002],[11.6707952,52.2514509],[11.6708703,52.251674200000004],[11.670924000000001,52.2518582],[11.6709884,52.2520486],[11.6710635,52.25218],[11.671224400000002,52.252337600000004],[11.671363900000001,52.252436100000004],[11.6716428,52.252600300000005],[11.671948700000002,52.2526937],[11.67219,52.2528565],[11.6723397,52.253029600000005],[11.6724689,52.2532374],[11.6725548,52.2534082],[11.6727264,52.2541832],[11.6731019,52.2558645],[11.6731663,52.2560944],[11.6732736,52.2563308],[11.673380900000002,52.2565016],[11.673659800000001,52.256803700000006],[11.6738315,52.2569153],[11.674089,52.257105800000005],[11.6742928,52.25726340000001],[11.6745718,52.257467000000005],[11.674915100000002,52.2576771],[11.6751941,52.257795300000005],[11.6759129,52.257966100000004],[11.676148900000001,52.258090800000005],[11.6764708,52.2582156],[11.676739000000001,52.2583667],[11.677028700000001,52.258655600000004],[11.6773076,52.2588592],[11.677532900000001,52.259075900000006],[11.677618800000001,52.2591678],[11.6779943,52.259371400000006],[11.678230300000001,52.2594634],[11.67852,52.259575000000005],[11.6788311,52.25963410000001],[11.6789062,52.259680100000004],[11.6789492,52.2597917],[11.679077900000001,52.2598902],[11.6792817,52.2600478],[11.6795392,52.260205400000004],[11.679882600000001,52.2603433],[11.680183000000001,52.2604418],[11.6805263,52.2604747],[11.681204200000002,52.26048230000001],[11.681711400000001,52.2605171],[11.682114200000001,52.2605535],[11.682318,52.260632300000005],[11.6826077,52.2607373],[11.682843700000001,52.260894900000004],[11.683004700000001,52.2610722],[11.683079800000002,52.2612298],[11.6831978,52.2613612],[11.683358700000001,52.2615385],[11.6835944,52.261766400000006],[11.6837177,52.2619497],[11.683776700000001,52.2621023],[11.683810900000001,52.2622366],[11.683798600000001,52.2623739],[11.6837333,52.2624739],[11.683687,52.2626184],[11.6836426,52.2627497],[11.683541100000001,52.262996300000005],[11.6833694,52.263350800000005],[11.6833051,52.263515000000005],[11.683251400000001,52.2636857],[11.683316900000001,52.2640176],[11.683323600000001,52.264166200000005],[11.683463600000001,52.26432380000001],[11.683725500000001,52.2644937],[11.684015200000001,52.2647014],[11.6842863,52.264923700000004],[11.6844268,52.265097000000004],[11.684522000000001,52.265215000000005],[11.6845867,52.2653705],[11.6846706,52.265512300000005],[11.6847496,52.2656317],[11.684958400000001,52.2658154],[11.6850901,52.2658539],[11.685253000000001,52.2659296],[11.685418100000001,52.2660482],[11.685634700000001,52.266183500000004],[11.6859289,52.266364],[11.6866129,52.2668735],[11.6867295,52.2669744],[11.6869568,52.267084800000006],[11.687206100000001,52.2672072],[11.6875365,52.2672577],[11.687846700000001,52.267278700000006],[11.688072,52.2672814],[11.6882897,52.2672472],[11.6886299,52.267194700000005],[11.688949500000001,52.267153900000004],[11.6893036,52.2670613],[11.6895032,52.2669872],[11.689654800000001,52.266929100000006],[11.6899292,52.266821300000004],[11.6902044,52.266768400000004],[11.690496900000001,52.266766100000005],[11.6907241,52.2667671],[11.6909387,52.266700300000004],[11.691507900000001,52.266446300000005],[11.6919246,52.2662951],[11.692107,52.26622750000001],[11.6922583,52.266215700000004],[11.692469800000001,52.2662649],[11.692674400000001,52.266337],[11.692944,52.266414000000005],[11.6932337,52.2665256],[11.6934073,52.266579400000005],[11.6938452,52.266620100000004],[11.6940994,52.266619500000004],[11.6944514,52.2665741],[11.694732400000001,52.2665656],[11.6949883,52.26656860000001],[11.695412800000001,52.266612900000005],[11.6959599,52.2666004],[11.696427600000002,52.2665723],[11.6970325,52.266624],[11.6971333,52.266636000000005],[11.6977568,52.2666996],[11.699184500000001,52.2668309],[11.6995169,52.2668625],[11.699680200000001,52.2669305],[11.6998824,52.267022600000004],[11.699994400000001,52.267103000000006],[11.700408300000001,52.267444000000005],[11.7006116,52.267632400000004],[11.7012534,52.268064800000005],[11.701582700000001,52.268374900000005],[11.7016953,52.2685304],[11.7017398,52.2687102],[11.7017378,52.2688557],[11.701815300000002,52.269021900000006],[11.7022537,52.270226300000004],[11.702296,52.2704096],[11.7023068,52.2705015],[11.702242400000001,52.270619700000005],[11.7021458,52.270751000000004],[11.7017918,52.271007100000006],[11.701584500000001,52.271202200000005],[11.701394800000001,52.2713484],[11.7012017,52.2714732],[11.701073000000001,52.2716373],[11.7009228,52.271762],[11.700558000000001,52.2719656],[11.6999639,52.272166000000006],[11.6992998,52.27243970000001],[11.698739900000001,52.2726558],[11.698602500000002,52.272731400000005],[11.6979254,52.272956300000004],[11.6975163,52.2730455],[11.697045200000002,52.273173500000006],[11.696802900000002,52.2733508],[11.696502500000001,52.2734887],[11.6960557,52.2736449],[11.6955691,52.273808100000004],[11.695193600000001,52.2738929],[11.6946893,52.2739661],[11.6945136,52.273988200000005],[11.6943889,52.2740007],[11.6941099,52.2740073],[11.693873900000002,52.2740401],[11.693595,52.274132],[11.693240900000001,52.274283000000004],[11.692618600000001,52.27459150000001],[11.6924577,52.2747491],[11.692274600000001,52.275063100000004],[11.6921575,52.2752874],[11.692075500000001,52.2754975],[11.6921497,52.275597700000006],[11.6921955,52.275795200000005],[11.6925632,52.276250600000004],[11.6927912,52.2764796],[11.692956200000001,52.276723800000006],[11.693460900000002,52.2773741],[11.6936043,52.27750940000001],[11.693949,52.277768800000004],[11.6943353,52.277952600000006],[11.6946249,52.2781298],[11.694882400000001,52.2782283],[11.6954189,52.2783595],[11.695805100000001,52.278431700000006],[11.6962557,52.2784514],[11.6965132,52.2784843],[11.6967385,52.278504000000005],[11.696899400000001,52.2785762],[11.696974500000001,52.2786484],[11.6970282,52.278760000000005],[11.6970475,52.2788825],[11.697035600000001,52.278981900000005],[11.696942400000001,52.2791275],[11.696824300000001,52.279278500000004],[11.6966205,52.279436100000005],[11.696470300000001,52.279567300000004],[11.6964381,52.27968550000001],[11.6963845,52.2799021],[11.696363,52.280013700000005],[11.696427400000001,52.2801975],[11.6965239,52.280295900000006],[11.696609800000001,52.2803878],[11.696599,52.2804863],[11.6965347,52.280624100000004],[11.696416600000001,52.2809261],[11.6963308,52.281077],[11.696212800000001,52.2811886],[11.6959982,52.2812739],[11.695805100000001,52.2813199],[11.6956442,52.281385500000006],[11.6955369,52.281457700000004],[11.695472500000001,52.2815365],[11.6954189,52.2816678],[11.6953438,52.2818581],[11.695182800000001,52.2821207],[11.694861000000001,52.2826195],[11.6947966,52.282777],[11.6947644,52.282895200000006],[11.6947644,52.2830067],[11.6947966,52.283216800000005],[11.694785900000001,52.283400500000006],[11.694753700000001,52.2835449],[11.694678600000001,52.2836434],[11.694496200000001,52.2837418],[11.6939276,52.2838665],[11.693240900000001,52.283984700000005],[11.692908300000001,52.284010900000006],[11.6925757,52.28410280000001],[11.6923075,52.284221],[11.691824700000002,52.284529400000004],[11.6916209,52.2847066],[11.691567200000001,52.2848051],[11.6915887,52.2849495],[11.691631600000001,52.285422000000004],[11.691642300000002,52.2855992],[11.6917389,52.28573050000001],[11.6918783,52.2858486],[11.692082200000002,52.285934000000005],[11.6925865,52.2861702],[11.693670500000001,52.2866207],[11.6945606,52.2869381],[11.694950500000001,52.287067400000005],[11.6953438,52.287141500000004],[11.695654900000001,52.287200600000006],[11.6957944,52.2872531],[11.6958695,52.287331900000005],[11.6960197,52.2874106],[11.6963094,52.287561600000004],[11.696609800000001,52.2876534],[11.696996,52.28783060000001],[11.6974037,52.2880406],[11.697865,52.2883294],[11.698519500000002,52.2887232],[11.698777000000002,52.2889004],[11.699055900000001,52.28910380000001],[11.699656800000001,52.289615700000006],[11.6999262,52.289907400000004],[11.700171500000002,52.2901497],[11.700375600000001,52.290416300000004],[11.7005151,52.2906394],[11.700708200000001,52.290823200000005],[11.7009013,52.290980700000006],[11.701030000000001,52.2911316],[11.701115900000001,52.291328500000006],[11.701191000000001,52.291650000000004],[11.701298300000001,52.2917944],[11.701523600000002,52.291965000000005],[11.701909800000001,52.292122500000005],[11.702392600000001,52.2922865],[11.702693,52.2923981],[11.7030256,52.2925818],[11.703304600000001,52.2927656],[11.703637200000001,52.2929887],[11.703755200000002,52.293041200000005],[11.703937600000001,52.2930805],[11.704323800000001,52.293100200000005],[11.7046457,52.2930805],[11.7049353,52.293041200000005],[11.705171400000001,52.292975600000005],[11.705386,52.2929362],[11.705750700000001,52.292909900000005],[11.7061048,52.292916500000004],[11.7064803,52.2928968],[11.7068236,52.292818100000005],[11.707285,52.2926081],[11.7074888,52.292509700000004],[11.707639,52.2923915],[11.707767800000001,52.2922865],[11.707918000000001,52.2922078],[11.7083042,52.2920634],[11.7086582,52.291997800000004],[11.7092269,52.291873100000004],[11.7095917,52.291741900000005],[11.709924200000001,52.291591000000004],[11.710299800000001,52.291394100000005],[11.7106002,52.2912825],[11.7109328,52.2912103],[11.7112868,52.291203800000005],[11.7118984,52.291236600000005],[11.7123919,52.291295600000005],[11.712939100000002,52.291426900000005],[11.713336,52.291545000000006],[11.7137866,52.291709100000006],[11.7142265,52.2919191],[11.714569800000001,52.2921684],[11.7148059,52.2923587],[11.7149561,52.292535900000004],[11.7150526,52.292818100000005],[11.7152028,52.2930871],[11.715353,52.2932708],[11.7154925,52.2934677],[11.7154925,52.2936318],[11.7154067,52.2939402],[11.715267200000001,52.294333900000005],[11.7151063,52.2945701],[11.714881,52.2947604],[11.714162100000001,52.295305000000006],[11.713754400000001,52.295659300000004],[11.713454,52.2959218],[11.7132716,52.296099000000005],[11.712853200000001,52.296427],[11.712585,52.296637000000004],[11.712458400000001,52.296755100000006],[11.7123919,52.296827300000004],[11.7122548,52.297101700000006],[11.7122524,52.297201300000005],[11.712349000000001,52.2972997],[11.7124992,52.2973719],[11.7126172,52.297385000000006],[11.712735200000001,52.297358800000005],[11.7129069,52.297352200000006],[11.7131214,52.2973719],[11.7134648,52.2974113],[11.7138942,52.2974814],[11.7140429,52.2975125],[11.714115600000001,52.2975659],[11.714140800000001,52.2976247],[11.714256500000001,52.2976946],[11.714355300000001,52.2977787],[11.7145366,52.2978444],[11.714724100000002,52.2978601],[11.7149709,52.297879200000004],[11.7153068,52.297827700000006],[11.7155929,52.2978395],[11.715994,52.2979022],[11.716349800000001,52.297949100000004],[11.7166969,52.297964400000005],[11.7173379,52.297969],[11.717938700000001,52.2979227],[11.7183571,52.2978771],[11.7188011,52.297813600000005],[11.719312700000001,52.297762600000006],[11.719744200000001,52.29777120000001],[11.720103100000001,52.297748500000004],[11.7204171,52.297654],[11.720669000000001,52.2975347],[11.7209532,52.297397000000004],[11.721185100000001,52.29729450000001],[11.7214968,52.297207300000004],[11.7217458,52.2971252],[11.721994200000001,52.2970241],[11.7225009,52.296745200000004],[11.7226681,52.2966373],[11.7228685,52.2965548],[11.7231295,52.2964727],[11.7235267,52.2963886],[11.7239111,52.2963371],[11.7243708,52.296303400000006],[11.724836700000001,52.296273500000005],[11.7253518,52.2962171],[11.7257273,52.296131800000005],[11.7260492,52.2960858],[11.726360300000001,52.29605960000001],[11.726789400000001,52.296066200000006],[11.727165000000001,52.2960727],[11.7277014,52.296053],[11.728409500000001,52.2959546],[11.7286558,52.295899500000004],[11.728924500000002,52.2958824],[11.7292678,52.2957971],[11.729621900000001,52.295679],[11.729793500000001,52.2956331],[11.7299866,52.2955806],[11.730233400000001,52.295574],[11.730523100000001,52.295567500000004],[11.730769800000001,52.295534700000005],[11.731081000000001,52.295469100000005],[11.731284800000001,52.2954166],[11.7316067,52.2952984],[11.7317829,52.2952044],[11.7319486,52.2951781],[11.7322106,52.2951549],[11.732500400000001,52.2951872],[11.7328405,52.2952853],[11.733194600000001,52.2953313],[11.733376900000001,52.2953181],[11.7335808,52.295305000000006],[11.7337632,52.2952394],[11.7339778,52.295141],[11.734409600000001,52.2949308],[11.7346008,52.2948685],[11.734914,52.294853700000004],[11.7351501,52.2948663],[11.7352652,52.2949507],[11.7355227,52.295141],[11.7357197,52.2952323],[11.735984100000001,52.2952853],[11.7362201,52.295344400000005],[11.7364347,52.2953641],[11.736638300000001,52.295425200000004],[11.7368567,52.295513400000004],[11.7370569,52.295652800000006],[11.7373425,52.2957662],[11.7376363,52.2958299],[11.737874600000001,52.2959418],[11.738140600000001,52.2961449],[11.738472400000001,52.2963079],[11.738677000000001,52.296479500000004],[11.738892300000002,52.296688800000005],[11.7391017,52.296902900000006],[11.7392778,52.29712910000001],[11.739417300000001,52.2973981],[11.739567500000001,52.2975556],[11.7399263,52.297747900000005],[11.7400655,52.2978621],[11.740212000000001,52.2979818],[11.740340300000002,52.2980218],[11.7404528,52.298025200000005],[11.7407155,52.2980346],[11.7408376,52.2980749],[11.7409303,52.298157700000004],[11.7409967,52.2985102],[11.7410843,52.298589500000006],[11.741299900000001,52.2987301],[11.7415356,52.298954300000005],[11.7417178,52.299201800000006],[11.742002900000001,52.299464900000004],[11.7423801,52.2999044],[11.7425586,52.300058],[11.7427969,52.3002522],[11.7432367,52.3005409],[11.7434217,52.30066],[11.743628500000002,52.3007544],[11.7438132,52.30080220000001],[11.7443053,52.3009964],[11.7445993,52.3012232],[11.7448783,52.301459400000006],[11.7450285,52.3015972],[11.7451465,52.301721900000004],[11.7453222,52.301815100000006],[11.745518,52.301846000000005],[11.746187200000001,52.3018859],[11.746723600000001,52.301971200000004],[11.7472601,52.302063000000004],[11.7475799,52.302103300000006],[11.747880100000001,52.3021747],[11.7481419,52.3022403],[11.748493900000001,52.3022861],[11.7487621,52.302279500000004],[11.748966900000001,52.302235700000004],[11.749148400000001,52.302176100000004],[11.7495001,52.3020846],[11.750156800000001,52.3019121],[11.7505324,52.301780900000004],[11.751047300000002,52.3015327],[11.751356000000001,52.3013398],[11.7515406,52.301084100000004],[11.7515731,52.300875500000004],[11.7517472,52.3006487],[11.751959600000001,52.300517600000006],[11.7523753,52.300420100000004],[11.752796100000001,52.3004425],[11.7533477,52.300450100000006],[11.7538177,52.3004054],[11.754302800000001,52.300347800000004],[11.7545117,52.300326000000005],[11.7547277,52.3003438],[11.7553476,52.300341],[11.7556591,52.3003634],[11.7559397,52.3003835],[11.756165300000001,52.3004515],[11.7563581,52.300586800000005],[11.756689900000001,52.3009746],[11.7570604,52.3011959],[11.757757400000001,52.3017125],[11.758222400000001,52.3020507],[11.758580100000001,52.3025925],[11.7589009,52.303211100000006],[11.7592654,52.30382770000001],[11.759598100000002,52.304628300000005],[11.7598476,52.3054561],[11.7600999,52.30628900000001],[11.760225400000001,52.306461000000006],[11.7603136,52.306576500000006],[11.7605535,52.306694500000006],[11.760826000000002,52.3069982],[11.7616951,52.307824100000005],[11.762653700000001,52.308744600000004],[11.7633343,52.309384400000006],[11.763717600000001,52.3097426],[11.764133900000001,52.3100833],[11.7648454,52.3105008],[11.765772700000001,52.311004700000005],[11.7670024,52.3110487]]}},{"type":"Feature","properties":{"osmType":"way","osmId":164088812,"name":"Ohre","waterway":"river"},"geometry":{"type":"LineString","coordinates":[[10.945376900000001,52.6016933],[10.945462800000001,52.6017032]]}},{"type":"Feature","properties":{"osmType":"way","osmId":164088814,"name":"Ohre","waterway":"river"},"geometry":{"type":"LineString","coordinates":[[10.945462800000001,52.6017032],[10.946278000000001,52.6017827],[10.9463329,52.6017869],[10.946699,52.601839700000006],[10.9467677,52.6018467],[10.952645500000001,52.602579000000006],[10.952732500000002,52.6025859]]}},{"type":"Feature","properties":{"osmType":"way","osmId":164088815,"name":"Ohre","waterway":"river"},"geometry":{"type":"LineString","coordinates":[[10.941978,52.601434700000006],[10.942031400000001,52.601440100000005],[10.9421225,52.6014703],[10.9421912,52.60147430000001],[10.9422422,52.6014684],[10.942288300000001,52.6014527],[10.942315800000001,52.6014416],[10.9426501,52.6010654],[10.9426907,52.601041900000006],[10.942852400000001,52.6010665],[10.943032,52.6011016],[10.9438592,52.601256400000004],[10.9440871,52.601229100000005],[10.9443151,52.601236400000005],[10.944534,52.601296500000004],[10.9449389,52.6015187],[10.945376900000001,52.6016933]]}},{"type":"Feature","properties":{"osmType":"way","osmId":174693192,"name":"Ohre","waterway":"river"},"geometry":{"type":"LineString","coordinates":[[11.239266200000001,52.433289800000004],[11.2504478,52.4325795],[11.2508458,52.4325075],[11.2514483,52.432343],[11.254964600000001,52.431178900000006],[11.257414,52.4302356],[11.2591067,52.429599200000006],[11.2626878,52.426365600000004],[11.2634206,52.425820800000004],[11.2642488,52.425269300000004],[11.266025500000001,52.424156100000005],[11.267321,52.423349],[11.268417000000001,52.422631900000006],[11.2689518,52.4221942],[11.269502200000002,52.421593900000005],[11.270804700000001,52.4201489],[11.2719929,52.418662600000005],[11.2725696,52.418066100000004],[11.2734231,52.4173375],[11.274166000000001,52.4168432],[11.279990000000002,52.4134814],[11.282426800000001,52.4120794],[11.2834122,52.4115058],[11.290074200000001,52.407707],[11.2909754,52.407164],[11.2921744,52.406367200000005],[11.2975565,52.4024713],[11.298225500000001,52.4019909],[11.301963500000001,52.3993066],[11.3027096,52.3987947],[11.3032331,52.398403200000004],[11.3034411,52.3982746],[11.303926800000001,52.3978399],[11.3043908,52.3973619],[11.306663700000001,52.3949177],[11.3069302,52.3946284],[11.3076655,52.3938611],[11.307869100000001,52.393651500000004],[11.3080973,52.3934368],[11.308256400000001,52.393312400000006],[11.3084393,52.393164500000005],[11.319434000000001,52.3855635],[11.3197416,52.385332500000004],[11.319932300000001,52.3851893],[11.3202955,52.3848661],[11.3206281,52.384466700000004],[11.3207354,52.383975500000005],[11.3207783,52.383504],[11.3207676,52.3831635],[11.3207032,52.3828885],[11.3205208,52.3824759],[11.3202955,52.3821616],[11.319437200000001,52.381297100000005],[11.3192012,52.381009000000006],[11.3190375,52.380631400000006],[11.3189329,52.3801969],[11.318922200000001,52.379836700000006],[11.3189758,52.3794765],[11.319126,52.3791425],[11.3192634,52.3788746],[11.319387800000001,52.37864080000001]]}},{"type":"Feature","properties":{"osmType":"way","osmId":328327953,"name":"Ohre","waterway":"river"},"geometry":{"type":"LineString","coordinates":[[10.941132000000001,52.602025600000005],[10.9411819,52.601968600000006]]}},{"type":"Feature","properties":{"osmType":"way","osmId":328327954,"name":"Ohre","waterway":"river"},"geometry":{"type":"LineString","coordinates":[[10.9411819,52.601968600000006],[10.941206300000001,52.601933200000005]]}},{"type":"Feature","properties":{"osmType":"way","osmId":328327955,"name":"Ohre","waterway":"river"},"geometry":{"type":"LineString","coordinates":[[10.941692000000002,52.601475400000005],[10.941978,52.601434700000006]]}},{"type":"Feature","properties":{"osmType":"way","osmId":328327956,"name":"Ohre","waterway":"river"},"geometry":{"type":"LineString","coordinates":[[10.941206300000001,52.601933200000005],[10.941291000000001,52.601825500000004],[10.9413146,52.6018016],[10.941474000000001,52.6016782],[10.9415873,52.601581],[10.941692000000002,52.601475400000005]]}}]}