{"type":"FeatureCollection","features":[{"type":"Feature","properties":{"osmType":"way","osmId":39514576,"name":"Pareyer Verbindungskanal","waterway":"canal"},"geometry":{"type":"LineString","coordinates":[[11.971122300000001,52.409761700000004],[11.9713904,52.4091278],[11.9716693,52.4080414],[11.971983700000001,52.4073201],[11.972531400000001,52.406534400000005],[11.973108600000002,52.405958000000005],[11.974174300000001,52.405149400000006],[11.9753626,52.4044633],[11.976404,52.4040334],[11.976840600000001,52.4039039]]}},{"type":"Feature","properties":{"osmType":"way","osmId":165574618,"name":"Pareyer Verbindungskanal","waterway":"canal"},"geometry":{"type":"LineString","coordinates":[[11.978864100000001,52.4032568],[11.978940900000001,52.403225500000005],[11.9810732,52.402531100000004],[11.983458200000001,52.401732900000006],[11.9836933,52.401634300000005],[11.984168,52.4014353],[11.9843653,52.4013526],[11.9851807,52.400921600000004],[11.986760700000001,52.3994817],[11.9870137,52.398876],[11.9882456,52.395926200000005],[11.9885602,52.395402000000004],[11.990264600000001,52.3925448],[11.9903825,52.3923635],[11.990404700000001,52.3923294],[11.991745100000001,52.3911996],[11.993265200000002,52.3904542],[11.9951384,52.389919400000004],[11.9966358,52.38971840000001],[11.9981386,52.3895908],[11.9985943,52.3895521],[12.003125800000001,52.3899053]]}}]}