{"type":"FeatureCollection","features":[{"type":"Feature","properties":{"osmType":"way","osmId":6061838,"name":"Rothenseer Verbindungskanal","waterway":"canal"},"geometry":{"type":"LineString","coordinates":[[11.667340600000001,52.225332],[11.6663913,52.225945900000006],[11.665670100000002,52.2265577],[11.6655428,52.227226],[11.666000200000001,52.2285923]]}},{"type":"Feature","properties":{"osmType":"way","osmId":7715448,"name":"Rothenseer Verbindungskanal","waterway":"canal"},"geometry":{"type":"LineString","coordinates":[[11.685874100000001,52.1907658],[11.685659600000001,52.1900829],[11.6855124,52.189220500000005],[11.6845212,52.1857826],[11.6842498,52.1848414],[11.6843961,52.1827442]]}},{"type":"Feature","properties":{"osmType":"way","osmId":24064718,"name":"Rothenseer Verbindungskanal","waterway":"canal"},"geometry":{"type":"LineString","coordinates":[[11.6694385,52.223988600000006],[11.6707222,52.22318490000001],[11.671317700000001,52.222816200000004],[11.6729275,52.2218157],[11.6730427,52.2217538],[11.6731662,52.2216971],[11.6733367,52.22164],[11.6735279,52.2215804],[11.674475200000002,52.2213044]]}},{"type":"Feature","properties":{"osmType":"way","osmId":131957415,"name":"Rothenseer Verbindungskanal","waterway":"canal"},"geometry":{"type":"LineString","coordinates":[[11.674475200000002,52.2213044],[11.6758702,52.2200508],[11.676776700000001,52.2190378],[11.6779896,52.2177876],[11.679556000000002,52.216170600000005],[11.6803369,52.21524],[11.680754100000001,52.2147749],[11.6812257,52.214249200000005],[11.6830678,52.212219600000005],[11.6858065,52.208602000000006],[11.6871767,52.206572400000006],[11.6876802,52.2055895],[11.6883029,52.2038603],[11.6884335,52.2030515],[11.6877604,52.2003221]]}},{"type":"Feature","properties":{"osmType":"way","osmId":326830394,"name":"Rothenseer Verbindungskanal","waterway":"canal"},"geometry":{"type":"LineString","coordinates":[[11.6877604,52.2003221],[11.688398300000001,52.1989692],[11.687676300000001,52.1963183],[11.6871749,52.194872700000005],[11.686828,52.193872500000005],[11.6863899,52.1925037]]}}]}