{"type":"FeatureCollection","features":[{"type":"Feature","properties":{"osmType":"way","osmId":4407409,"name":"Saale","waterway":"river"},"geometry":{"type":"LineString","coordinates":[[11.748067500000001,51.659634200000006],[11.747389,51.6604146],[11.7463539,51.661731200000006],[11.745280000000001,51.6632869],[11.7448096,51.66431660000001],[11.7440706,51.6657674],[11.7430748,51.666948600000005],[11.7420951,51.6675021],[11.741813700000002,51.667635100000005],[11.740929600000001,51.6679357],[11.7364077,51.6687832],[11.7353071,51.6690466],[11.734292,51.6693902],[11.733356,51.670107200000004],[11.732618100000002,51.6711229],[11.7319943,51.6734403],[11.7315646,51.6746744],[11.730799300000001,51.676138200000004],[11.728697,51.6783699],[11.7264437,51.679936600000005],[11.724907100000001,51.68065300000001],[11.7238994,51.681019600000006],[11.723455600000001,51.681116],[11.7226847,51.681283400000005],[11.721757100000001,51.681330200000005],[11.719978600000001,51.681406900000006],[11.7183504,51.6815762],[11.7166004,51.6819672],[11.7159612,51.68224420000001],[11.7139626,51.683294000000004],[11.712031600000001,51.6851788],[11.711296,51.686526],[11.7110017,51.688087],[11.7102859,51.689342800000006],[11.7090945,51.6905617],[11.7079927,51.691191800000006],[11.7070296,51.691620900000004],[11.703445100000001,51.6926156],[11.7014633,51.6929597],[11.696955200000001,51.6930963],[11.694086400000002,51.6935062],[11.691290400000002,51.694682500000006],[11.689715000000001,51.6961017],[11.6888736,51.6967325],[11.6873187,51.6975586],[11.6852972,51.698404100000005],[11.684449200000001,51.6991257],[11.683792700000001,51.6996843],[11.6832615,51.700527300000005],[11.6830358,51.700885500000005],[11.682706000000001,51.701429100000006],[11.681043,51.7035192]]}},{"type":"Feature","properties":{"osmType":"way","osmId":4407462,"name":"Saale","waterway":"river"},"geometry":{"type":"LineString","coordinates":[[11.681043,51.7035192],[11.680591300000001,51.704449000000004],[11.6802481,51.70501530000001],[11.679097700000002,51.706267100000005],[11.6787349,51.706577700000004]]}},{"type":"Feature","properties":{"osmType":"way","osmId":8048469,"name":"Saale","waterway":"river"},"geometry":{"type":"LineString","coordinates":[[11.781460800000001,51.1629811],[11.781460800000001,51.163322],[11.7814305,51.1640698],[11.781477500000001,51.164847400000006],[11.781583300000001,51.1654002],[11.7816729,51.1655961],[11.7818915,51.1661086],[11.7822393,51.1664383]]}},{"type":"Feature","properties":{"osmType":"way","osmId":23135447,"name":"Saale","waterway":"river"},"geometry":{"type":"LineString","coordinates":[[12.0053529,51.3643994],[12.0048259,51.365106000000004],[12.0041755,51.3657753],[12.0034153,51.366384200000006],[12.0027185,51.367004800000004],[12.001654700000001,51.36814570000001],[12.0011258,51.368569900000004],[11.9997112,51.3696129],[11.998945200000001,51.370376400000005],[11.9986721,51.3707057],[11.998440100000002,51.371135],[11.998178800000002,51.3717247],[11.9981247,51.3718468],[11.9978999,51.372575100000006],[11.9979071,51.3734552],[11.997692500000001,51.3750398],[11.997417100000002,51.375862000000005],[11.9960556,51.377606],[11.9953228,51.3788349],[11.9948631,51.380355300000005],[11.9948102,51.3812628],[11.9950197,51.3826826],[11.9950463,51.383947600000006],[11.9946654,51.386391700000004],[11.994416500000002,51.3873125],[11.9943331,51.387984200000005],[11.9944348,51.388955700000004],[11.9946353,51.3895652],[11.9950484,51.3907785],[11.9950661,51.3908305],[11.995170700000001,51.391454100000004],[11.9950884,51.392178300000005],[11.9946061,51.393288500000004],[11.9939782,51.394151300000004],[11.993337200000001,51.394809300000006],[11.992448600000001,51.395309100000006],[11.991631,51.3956552],[11.9904922,51.395944],[11.990020600000001,51.396027800000006],[11.9870938,51.396866300000006],[11.986310300000001,51.397171900000004],[11.9851025,51.3976988],[11.9840329,51.3982874],[11.9830979,51.3989174],[11.982178600000001,51.3996609],[11.9810277,51.4006995],[11.9789814,51.4027733],[11.9786014,51.403218300000006],[11.977951200000001,51.4045209],[11.977514600000001,51.4055709],[11.9773978,51.40585170000001],[11.977300000000001,51.40608700000001],[11.9772064,51.4063121],[11.977136100000001,51.4064811],[11.976772400000002,51.4069706],[11.9759597,51.407450700000005],[11.975472100000001,51.4075726],[11.974938900000001,51.407649000000006],[11.972989700000001,51.4076748],[11.971872000000001,51.407826500000006],[11.970945500000001,51.40807160000001],[11.970171800000001,51.408574900000005],[11.969374100000001,51.409129],[11.9680107,51.4095285],[11.9665245,51.4097212],[11.9643125,51.40975460000001],[11.962662900000002,51.409605000000006],[11.961304700000001,51.409285100000005],[11.9600199,51.408700200000006],[11.9577837,51.4074783],[11.9565947,51.4071148],[11.955361700000001,51.4068027],[11.9542011,51.4068752],[11.953158400000001,51.407147],[11.951762400000002,51.407777100000004],[11.951266100000002,51.4081264],[11.9509626,51.4085113],[11.9505178,51.409075400000006],[11.950349200000002,51.409621400000006],[11.9505131,51.410573600000006],[11.950764600000001,51.411219200000005],[11.951961800000001,51.4122313],[11.9537489,51.412758000000004],[11.954328700000001,51.4129827],[11.9546162,51.413434200000005],[11.954671800000002,51.414050100000004],[11.954472,51.4147346]]}},{"type":"Feature","properties":{"osmType":"way","osmId":23915077,"name":"Saale","waterway":"river"},"geometry":{"type":"LineString","coordinates":[[11.7856114,51.8959035],[11.7861264,51.8966767],[11.785928100000001,51.897234000000005],[11.7853613,51.8976921],[11.7833065,51.8982565],[11.780761100000001,51.8986152],[11.778597600000001,51.899003300000004],[11.7771399,51.899541600000006],[11.776240000000001,51.9003723],[11.7762934,51.900674900000006],[11.7763895,51.901219000000005],[11.7765614,51.901456],[11.7771532,51.9015525],[11.7781467,51.90169040000001],[11.7793375,51.901931700000006],[11.780667800000002,51.9020816],[11.7813713,51.9023109],[11.7817384,51.902740800000004],[11.782124900000001,51.90306],[11.7838761,51.9047306],[11.785831700000001,51.9065845],[11.7892066,51.9084871]]}},{"type":"Feature","properties":{"osmType":"way","osmId":23915120,"name":"Saale","waterway":"river"},"geometry":{"type":"LineString","coordinates":[[11.7892066,51.9084871],[11.791714,51.9107415],[11.7926444,51.91131540000001],[11.793699100000001,51.9117869],[11.794701100000001,51.9124629],[11.795715300000001,51.9134109],[11.796719900000001,51.9146888],[11.797912700000001,51.915500300000005],[11.7998259,51.916151000000006],[11.8012069,51.916469000000006],[11.803182000000001,51.9165256],[11.8048856,51.916546000000004],[11.806627200000001,51.9164868],[11.8100962,51.9162382],[11.810906800000001,51.9162072],[11.812955800000001,51.9160649],[11.814168500000001,51.915756300000005],[11.8158347,51.9151098],[11.816383400000001,51.914816900000005],[11.8170108,51.914395400000004],[11.817215500000001,51.9139556],[11.8171268,51.913185500000004],[11.8167027,51.9125236],[11.815832200000001,51.911720200000005],[11.8154564,51.9109853],[11.8151852,51.9101197],[11.8150569,51.9089991],[11.815117,51.9070175],[11.815659,51.9058007],[11.8167825,51.904905600000006],[11.8178917,51.904339300000004],[11.819127700000001,51.9040577],[11.8205916,51.904018400000005],[11.8219332,51.9041993],[11.8232262,51.9046419],[11.823993900000001,51.9050281],[11.8248014,51.9058775],[11.825299900000001,51.907006900000006],[11.8254234,51.9080248],[11.825209000000001,51.9090451],[11.8250866,51.9099973],[11.8251868,51.9110231],[11.8253695,51.9119563],[11.8258404,51.9131031],[11.8266921,51.9145873],[11.8274983,51.915964200000005],[11.8280407,51.917286700000005],[11.8286987,51.9186077],[11.8295372,51.919772300000005],[11.830873200000001,51.9212356],[11.832285200000001,51.9222832],[11.834057000000001,51.922995400000005],[11.835738500000001,51.923458700000005],[11.8371616,51.923576000000004],[11.8387355,51.9234249],[11.8398509,51.9227976],[11.8406637,51.922000100000005],[11.8414608,51.920980500000006],[11.841970100000001,51.9194296],[11.842333100000001,51.9181729],[11.842777400000001,51.916977100000004],[11.843568900000001,51.915933200000005],[11.844838800000002,51.915038100000004],[11.847429,51.913897500000004],[11.8500802,51.9132771],[11.8534058,51.9131457],[11.856152100000001,51.9133981],[11.8582052,51.9136941],[11.8610918,51.9144784],[11.8649067,51.9161313],[11.8667897,51.916703000000005],[11.8687819,51.917059200000004],[11.870655300000001,51.9172099],[11.872056,51.9171689],[11.8734122,51.9169582],[11.8743966,51.916708],[11.8744396,51.916696200000004],[11.877117100000001,51.915829900000006],[11.878774400000001,51.915500400000006],[11.8807138,51.915432],[11.881802500000001,51.915663800000004],[11.8826026,51.915900300000004],[11.8835253,51.9165654],[11.8840336,51.9173021],[11.8845916,51.918598200000005],[11.884490300000001,51.919662],[11.883707900000001,51.9206628],[11.883422000000001,51.9209715],[11.882254600000001,51.9215427],[11.880840300000001,51.921935100000006],[11.878667400000001,51.9224375],[11.873169800000001,51.923188200000006],[11.8688371,51.923715400000006],[11.867332300000001,51.9240927],[11.8665059,51.9246702],[11.8662285,51.92502390000001],[11.8661021,51.925429300000005],[11.865942,51.927887500000004],[11.8641436,51.9305971],[11.8645995,51.9318809],[11.8658026,51.933028400000005],[11.8664068,51.9333454],[11.867141,51.933657200000006],[11.867558500000001,51.933787],[11.868223100000002,51.9339085],[11.8689421,51.9339546],[11.8726357,51.9336367],[11.8759265,51.9329911],[11.880563400000002,51.930831500000004],[11.882204600000001,51.9306703],[11.8838018,51.930565],[11.887254700000002,51.9313973],[11.8885257,51.9319846],[11.8922374,51.9337401],[11.893332800000001,51.9340321],[11.894233300000002,51.934016500000006],[11.8970626,51.9337687],[11.8988922,51.934138100000006],[11.8996171,51.934662],[11.9003154,51.9356894],[11.9001558,51.9366184],[11.8994683,51.9374953],[11.8975681,51.939170600000004],[11.8958104,51.941575900000004],[11.8961903,51.9433274],[11.897528600000001,51.94455790000001],[11.899482500000001,51.945418700000005],[11.901778700000001,51.9459445],[11.9040373,51.945959200000004],[11.906492,51.945700800000004],[11.9090261,51.945250900000005],[11.9118437,51.9453156],[11.9141095,51.9461268],[11.9147744,51.946477],[11.915941700000001,51.947244600000005],[11.916662800000001,51.948249700000005],[11.91718,51.9495445],[11.9169523,51.950770000000006],[11.9167456,51.9511855],[11.916323400000001,51.9517979],[11.9146801,51.9538816],[11.9136707,51.9549439],[11.914265,51.955436600000006]]}},{"type":"Feature","properties":{"osmType":"way","osmId":24834210,"name":"Saale","waterway":"river"},"geometry":{"type":"LineString","coordinates":[[11.9551867,51.419281600000005],[11.9553043,51.419733300000004],[11.9552662,51.4201933],[11.955195900000001,51.4209425],[11.9549473,51.4216458],[11.9539801,51.422432400000005],[11.9530974,51.4233751],[11.9527082,51.4242095],[11.952541100000001,51.4250021],[11.9523604,51.42644670000001],[11.9520611,51.4275815],[11.9522905,51.4284327],[11.9528297,51.4297284],[11.953030100000001,51.4304518],[11.9530553,51.431164300000006],[11.952420700000001,51.432757800000005],[11.9510512,51.433832900000006],[11.9501711,51.4343944],[11.949133300000002,51.434778800000004],[11.9455471,51.4350603],[11.9450502,51.435165700000006],[11.9384756,51.4373305],[11.9323052,51.4383829],[11.9283517,51.439441200000005],[11.927366200000002,51.43956],[11.9262356,51.439487],[11.923703900000001,51.438980300000004],[11.922730300000001,51.4389406],[11.921243200000001,51.4391496],[11.919292,51.4399177],[11.9169864,51.4409556],[11.914859100000001,51.442689300000005],[11.9145152,51.4448841],[11.915560800000002,51.4464903],[11.916288600000001,51.4471063],[11.918370000000001,51.4483771],[11.9216405,51.449844600000006],[11.924911000000002,51.4503478],[11.928054600000001,51.4504363],[11.9291307,51.450660000000006],[11.930006800000001,51.4511375],[11.9302165,51.451405900000005],[11.930395,51.451669300000006]]}},{"type":"Feature","properties":{"osmType":"way","osmId":30115797,"name":"Saale","waterway":"river"},"geometry":{"type":"LineString","coordinates":[[11.7328632,51.794986800000004],[11.7326242,51.795230200000006],[11.7325583,51.795277500000005],[11.7322603,51.7954767],[11.732143500000001,51.7956407],[11.732140000000001,51.7958251],[11.7323471,51.7963971],[11.733126,51.7972848],[11.7333873,51.7974425],[11.7335902,51.7975171],[11.7339544,51.797573500000006],[11.734151500000001,51.797583],[11.734355500000001,51.79753770000001],[11.7346201,51.797449],[11.7346629,51.797434700000004],[11.7350422,51.797296100000004],[11.7355616,51.7972016],[11.735881000000001,51.7971584]]}},{"type":"Feature","properties":{"osmType":"way","osmId":30115803,"name":"Saale","waterway":"river"},"geometry":{"type":"LineString","coordinates":[[11.735881000000001,51.7971584],[11.7360752,51.7971694],[11.7366427,51.797262100000005],[11.7375839,51.797565000000006],[11.738398700000001,51.797928000000006],[11.738838300000001,51.7981386],[11.739218500000002,51.798374200000005],[11.7424017,51.8005591],[11.7425473,51.8006559],[11.742720100000001,51.8008018],[11.7430827,51.801046400000004],[11.743487100000001,51.8012637],[11.7439113,51.8014604],[11.7455782,51.802136000000004],[11.746472800000001,51.80248460000001],[11.7471975,51.802760000000006],[11.747478500000001,51.802858],[11.7484377,51.8031713],[11.750446100000001,51.803613000000006],[11.7520805,51.803753300000004],[11.752751100000001,51.803754100000006],[11.7541018,51.803673100000005],[11.7545131,51.803618300000004],[11.7553468,51.8034539],[11.756415700000002,51.803177500000004],[11.757259900000001,51.802913700000005],[11.7587895,51.802195000000005],[11.7619454,51.8004862],[11.7628368,51.8001627],[11.7637994,51.79989380000001],[11.765193100000001,51.7997001],[11.7674514,51.7995412],[11.768593200000002,51.799579300000005],[11.770863700000001,51.79983300000001],[11.774818600000001,51.800356300000004],[11.7756849,51.8004977],[11.776647800000001,51.800786800000004],[11.7785632,51.8016103],[11.779894800000001,51.8024307],[11.780848500000001,51.803535100000005],[11.7815303,51.8047594],[11.7817258,51.805134],[11.7821081,51.8060637],[11.782247,51.807286500000004],[11.781780000000001,51.808435200000005],[11.7812997,51.8099032],[11.7814967,51.8112295],[11.782493,51.8126614],[11.783198500000001,51.8139181],[11.783497,51.8173443],[11.784703100000002,51.818711400000005],[11.7870048,51.8201344],[11.788487100000001,51.8216808],[11.788692500000002,51.8231784],[11.788372500000001,51.82465070000001],[11.7875814,51.825531500000004],[11.7865309,51.8262225],[11.7845297,51.8272367],[11.782778500000001,51.828067600000004],[11.7818395,51.829087],[11.7811372,51.8304193],[11.7804117,51.8326714],[11.7796886,51.8349065],[11.779228900000001,51.8368624],[11.7784206,51.837859800000004],[11.7772194,51.8387401],[11.774792300000001,51.8396266],[11.7729108,51.840329700000005],[11.7711386,51.841345000000004],[11.7679729,51.847148700000005],[11.765224600000002,51.8502845],[11.7636195,51.8537921],[11.764057000000001,51.858624400000004],[11.765339,51.868218500000005],[11.7684428,51.8726788],[11.770695700000001,51.8779144],[11.7736239,51.8834676],[11.774819,51.8884838],[11.7753321,51.8903024],[11.775640500000002,51.8908204],[11.7770069,51.892336300000004],[11.7787822,51.8935363],[11.7856114,51.8959035]]}},{"type":"Feature","properties":{"osmType":"way","osmId":48460780,"name":"Saale","waterway":"river"},"geometry":{"type":"LineString","coordinates":[[11.954472,51.4147346],[11.9542319,51.4151771],[11.9533999,51.4158125],[11.9526213,51.4165483],[11.952584700000001,51.4166523],[11.952512500000001,51.4168571],[11.9524174,51.4173994],[11.952761800000001,51.4181055],[11.9535762,51.4186959],[11.9551867,51.419281600000005]]}},{"type":"Feature","properties":{"osmType":"way","osmId":48460882,"name":"Saale","waterway":"river"},"geometry":{"type":"LineString","coordinates":[[11.9460133,51.462746300000006],[11.9466146,51.4627868],[11.9471255,51.4626712],[11.947655000000001,51.462656200000005],[11.947672500000001,51.462764],[11.9486822,51.464763500000004]]}},{"type":"Feature","properties":{"osmType":"way","osmId":48460991,"name":"Saale","waterway":"river"},"geometry":{"type":"LineString","coordinates":[[11.956324400000002,51.487534200000006],[11.9560332,51.487693300000004],[11.955003000000001,51.4880719],[11.9542979,51.48848580000001],[11.9528212,51.489516300000005]]}},{"type":"Feature","properties":{"osmType":"way","osmId":48461133,"name":"Saale","waterway":"river"},"geometry":{"type":"LineString","coordinates":[[11.9598584,51.479297900000006],[11.9597599,51.4800192],[11.959845300000001,51.4803943]]}},{"type":"Feature","properties":{"osmType":"way","osmId":48461455,"name":"Saale","waterway":"river"},"geometry":{"type":"LineString","coordinates":[[11.953995,51.511850700000004],[11.9536241,51.5121995],[11.9529913,51.5126537],[11.951445600000001,51.514325400000004],[11.950500100000001,51.5155395],[11.950320000000001,51.5165481],[11.9506051,51.517341900000005],[11.951426600000001,51.5192479]]}},{"type":"Feature","properties":{"osmType":"way","osmId":48461661,"name":"Saale","waterway":"river"},"geometry":{"type":"LineString","coordinates":[[11.747226900000001,51.6462237],[11.750516300000001,51.64708],[11.754740900000002,51.649483700000005],[11.756139600000001,51.6510739],[11.7562806,51.651610700000006],[11.755799300000001,51.6525985],[11.754279700000001,51.654793700000006],[11.7522988,51.656294700000004],[11.7497369,51.6576931]]}},{"type":"Feature","properties":{"osmType":"way","osmId":88549066,"name":"Saale","waterway":"river"},"geometry":{"type":"LineString","coordinates":[[11.681043,51.7035192],[11.6783047,51.704790800000005],[11.678163300000001,51.705096700000006],[11.6776379,51.706233700000006],[11.675692100000001,51.7074124],[11.675579200000001,51.707538500000005],[11.6748066,51.70840140000001],[11.6737338,51.710034400000005]]}},{"type":"Feature","properties":{"osmType":"way","osmId":95192294,"name":"Saale","waterway":"river"},"geometry":{"type":"LineString","coordinates":[[12.060489,51.2947557],[12.0600036,51.29536340000001]]}},{"type":"Feature","properties":{"osmType":"way","osmId":95192295,"name":"Saale","waterway":"river"},"geometry":{"type":"LineString","coordinates":[[12.0600036,51.29536340000001],[12.0588008,51.2963195]]}},{"type":"Feature","properties":{"osmType":"way","osmId":95198190,"name":"Saale","waterway":"river"},"geometry":{"type":"LineString","coordinates":[[11.803252500000001,51.5837182],[11.802535800000001,51.583865900000006],[11.8001394,51.5840727],[11.7980557,51.584101700000005],[11.7926325,51.584219600000004],[11.7897464,51.5836192],[11.789581700000001,51.5833275],[11.7892186,51.582751300000005],[11.788716500000001,51.5822134],[11.7882245,51.581940200000005],[11.7873272,51.5810448]]}},{"type":"Feature","properties":{"osmType":"way","osmId":95198191,"name":"Saale","waterway":"river"},"geometry":{"type":"LineString","coordinates":[[11.7873272,51.5810448],[11.7857461,51.580364],[11.7834233,51.579959200000005],[11.780364200000001,51.580189700000005],[11.778155100000001,51.5807949],[11.775229900000001,51.5809465],[11.7716407,51.5803577],[11.7709626,51.580305100000004],[11.7682278,51.5800932],[11.7653692,51.580554500000005],[11.763803900000001,51.581161200000004],[11.761977100000001,51.582365],[11.7606824,51.584926900000006],[11.760081300000001,51.5853927],[11.7589196,51.586277100000004],[11.7585727,51.586541200000006],[11.7567509,51.589048500000004],[11.7559506,51.590149800000006],[11.7555464,51.592112300000004],[11.7554014,51.5946506],[11.755308900000001,51.5967167],[11.7556246,51.597947100000006],[11.7562349,51.5990759],[11.7580729,51.6002608],[11.7594294,51.6008737],[11.761035900000001,51.601510000000005],[11.762568700000001,51.6023757],[11.7635018,51.6033113],[11.7641267,51.6045159],[11.764101400000001,51.6072095],[11.7638928,51.608944],[11.763407800000001,51.6104647],[11.7620359,51.6115379],[11.7613897,51.6120433],[11.759057100000001,51.612838100000005],[11.754774900000001,51.6140209],[11.752681,51.6150735],[11.751546600000001,51.6159595],[11.749756000000001,51.6177329],[11.7489702,51.619061800000004],[11.748663700000002,51.6201932],[11.7485718,51.620952700000004],[11.748511500000001,51.6214516],[11.7489003,51.6230765],[11.7494858,51.624477000000006],[11.7511411,51.6278833],[11.7518072,51.6303586],[11.7513935,51.6322466],[11.751923300000001,51.6333981],[11.752577400000002,51.6352775],[11.752598800000001,51.6361574],[11.752283400000001,51.637029500000004],[11.7509913,51.6381492],[11.747973700000001,51.639744500000006],[11.7470342,51.640241200000006],[11.745602,51.641350300000006],[11.745132,51.642176400000004],[11.7450051,51.6431064],[11.745272700000001,51.6443213],[11.746071,51.6454633],[11.747226900000001,51.6462237]]}},{"type":"Feature","properties":{"osmType":"way","osmId":95304326,"name":"Saale","waterway":"river"},"geometry":{"type":"LineString","coordinates":[[12.0012384,51.3504444],[12.0013529,51.3509455],[12.001602400000001,51.3512825],[12.0020147,51.351718000000005],[12.002218300000001,51.3517851],[12.0037573,51.352292500000004],[12.004990900000001,51.352515700000005],[12.0063923,51.3525621],[12.007482600000001,51.352498000000004]]}},{"type":"Feature","properties":{"osmType":"way","osmId":95304328,"name":"Saale","waterway":"river"},"geometry":{"type":"LineString","coordinates":[[12.007482600000001,51.352498000000004],[12.008291600000002,51.3526333],[12.0087255,51.352784500000006],[12.009043700000001,51.352964],[12.009277800000001,51.353277500000004],[12.009261200000001,51.3535638],[12.0090506,51.35376230000001],[12.0082033,51.354248600000005],[12.0076465,51.3544228],[12.007216300000001,51.354461500000006],[12.0060474,51.354320400000006],[12.0051574,51.354244900000005],[12.004274700000002,51.3542829],[12.003859,51.354355000000005],[12.003581200000001,51.354539100000004],[12.0032758,51.3547415],[12.003237700000001,51.3548721],[12.003270200000001,51.354986100000005],[12.003657800000001,51.355490800000005],[12.0037494,51.3556844],[12.003771200000001,51.3558881],[12.003762,51.3560833],[12.003672300000002,51.356261800000006],[12.0034349,51.356481300000006],[12.003237400000002,51.3566428],[12.0029388,51.356844],[12.002719800000001,51.357078300000005],[12.002640000000001,51.357260100000005],[12.0026352,51.3574008],[12.0026943,51.3581153],[12.0027614,51.3587739]]}},{"type":"Feature","properties":{"osmType":"way","osmId":95305247,"name":"Saale","waterway":"river"},"geometry":{"type":"LineString","coordinates":[[11.961766500000001,51.2054795],[11.9621546,51.2051165],[11.962350500000001,51.204864900000004],[11.962485200000001,51.20453860000001],[11.962753800000002,51.2032286],[11.962954600000002,51.202866500000006],[11.9630386,51.2027325],[11.963099900000001,51.2026789],[11.963426400000001,51.202488],[11.9636904,51.2024132],[11.9639795,51.202334400000005]]}},{"type":"Feature","properties":{"osmType":"way","osmId":95305448,"name":"Saale","waterway":"river"},"geometry":{"type":"LineString","coordinates":[[11.952162000000001,51.2065398],[11.953790000000001,51.207041700000005],[11.9550724,51.207353700000006],[11.956086500000001,51.2074281],[11.956457100000002,51.2074318],[11.9571869,51.207342100000005],[11.957728000000001,51.207262300000004],[11.9606598,51.2064613]]}},{"type":"Feature","properties":{"osmType":"way","osmId":95306420,"name":"Saale","waterway":"river"},"geometry":{"type":"LineString","coordinates":[[11.869499900000001,51.1875907],[11.8701673,51.187631700000004],[11.8707299,51.1876474],[11.871525400000001,51.1876459],[11.8719356,51.187545],[11.872093600000001,51.1874702],[11.8727829,51.187288200000005],[11.873313300000001,51.1871413],[11.8736964,51.1870521]]}},{"type":"Feature","properties":{"osmType":"way","osmId":95306428,"name":"Saale","waterway":"river"},"geometry":{"type":"LineString","coordinates":[[11.8736964,51.1870521],[11.874673300000001,51.186942800000004]]}},{"type":"Feature","properties":{"osmType":"way","osmId":106695976,"name":"Saale","waterway":"river"},"geometry":{"type":"LineString","coordinates":[[11.9528212,51.489516300000005],[11.952072900000001,51.490269700000006],[11.9513695,51.491336700000005]]}},{"type":"Feature","properties":{"osmType":"way","osmId":128727588,"name":"Saale","waterway":"river"},"geometry":{"type":"LineString","coordinates":[[11.707442700000001,51.050070000000005],[11.7074893,51.050255],[11.7076936,51.0507459],[11.7078477,51.0511424],[11.707885800000001,51.0512406],[11.708427700000001,51.052142],[11.7087851,51.0525876],[11.708986300000001,51.052986000000004],[11.709064300000001,51.0532965],[11.709052400000001,51.0533428],[11.708842200000001,51.053896],[11.7086135,51.05425940000001],[11.708310500000001,51.0547022],[11.7082625,51.0548475],[11.7083466,51.05521],[11.7085839,51.0557236],[11.708737000000001,51.0560841],[11.708851200000002,51.056586300000006],[11.7088902,51.057101700000004],[11.7088722,51.0577927],[11.7088181,51.058145700000004],[11.7086229,51.0583874],[11.708199400000002,51.05878190000001],[11.707169200000001,51.0593804],[11.706078900000001,51.0599089],[11.705264900000001,51.0602506],[11.7047513,51.060401600000006],[11.7042257,51.0605753],[11.704015400000001,51.0606433],[11.703631000000001,51.060698],[11.7030633,51.0607282],[11.702633800000001,51.0607886],[11.7022531,51.060883200000006],[11.7016177,51.0610378],[11.7004274,51.0613467],[11.6999686,51.0614709],[11.6997006,51.061539800000006],[11.6989917,51.0619626],[11.698060600000002,51.062604400000005],[11.6969854,51.0633368],[11.695537600000002,51.06450340000001],[11.694304800000001,51.0657178],[11.6940478,51.0659794],[11.6936934,51.0665306],[11.6932369,51.0673309],[11.692864400000001,51.0680896],[11.6925761,51.068954100000006],[11.692540000000001,51.06966370000001],[11.6928104,51.0702488],[11.693375000000001,51.071147200000006],[11.6941079,51.0721475],[11.6941819,51.072288],[11.6944984,51.0729514],[11.6946366,51.0733855],[11.694906900000001,51.0739815],[11.6956127,51.07502890000001],[11.6960212,51.075329],[11.6962074,51.0754516],[11.696655000000002,51.075608300000006],[11.697018400000001,51.075676200000004],[11.6973879,51.075711000000005],[11.697940500000001,51.075763],[11.698331000000001,51.0758196],[11.6986884,51.0759649],[11.699343200000001,51.0764141],[11.701064200000001,51.077661400000004],[11.7014457,51.078063400000005],[11.701466700000001,51.0782521],[11.7014337,51.0783804],[11.7012534,51.078523800000006],[11.7010948,51.078584500000005],[11.7004695,51.0788238],[11.7001451,51.078997400000006],[11.6999349,51.0793314],[11.6997517,51.0800277],[11.6994813,51.080822100000006],[11.698928700000002,51.0816467],[11.6984331,51.0822694],[11.697940500000001,51.082901500000006],[11.697592100000001,51.0833864],[11.6973248,51.0838015],[11.6972527,51.0840034],[11.697267700000001,51.084293900000006],[11.697420900000001,51.0847015],[11.6976101,51.0850845],[11.6977513,51.08536],[11.697790300000001,51.085592000000005],[11.6975861,51.086046700000004],[11.6971115,51.0864807],[11.696832200000001,51.086669300000004],[11.696570900000001,51.086841],[11.6963246,51.087293800000005],[11.6960993,51.087918300000005],[11.695753900000001,51.088614500000006],[11.695504600000001,51.0889691],[11.6953124,51.089350200000005],[11.695276300000002,51.089550200000005],[11.6953454,51.089701100000006],[11.6956217,51.089938800000006],[11.6960157,51.0901514],[11.696697,51.090401],[11.6969373,51.0905652],[11.6970875,51.090818000000006],[11.6971836,51.0911217],[11.697090500000002,51.0913556],[11.6968081,51.0916593],[11.695753900000001,51.0920913],[11.695267300000001,51.092161100000006],[11.6942611,51.0921649],[11.6937265,51.0922045],[11.693405100000001,51.0922649],[11.6926512,51.092563000000006],[11.6922938,51.0926648],[11.692059500000001,51.09264030000001],[11.6918492,51.0925686],[11.6915338,51.0925762],[11.6911974,51.092546000000006],[11.690837,51.092432800000005],[11.6901852,51.092100800000004],[11.6896746,51.0918536],[11.689103900000001,51.0916933],[11.688446200000001,51.0915594],[11.6879205,51.091574400000006],[11.687431,51.0916216],[11.686993000000001,51.091753000000004],[11.686556900000001,51.0918951],[11.6861875,51.092123400000006],[11.685848100000001,51.0924667],[11.6855267,51.0930308],[11.6854306,51.093459],[11.6854095,51.0939476],[11.6854876,51.0942626],[11.6855747,51.0946512],[11.6855267,51.0948719],[11.685283400000001,51.095154900000004],[11.684793800000001,51.0955698],[11.684531300000002,51.095753800000004],[11.684466400000002,51.0957967],[11.6842442,51.0959433],[11.683901700000002,51.096164],[11.683466200000002,51.0963055],[11.6831779,51.0963659],[11.6826372,51.096354500000004],[11.681784200000001,51.0962168],[11.6807089,51.0961056],[11.679756800000002,51.096096100000004],[11.678726600000001,51.096096100000004],[11.678282000000001,51.0961433],[11.6778916,51.0962904],[11.6772098,51.096650700000005],[11.676299700000001,51.0973656],[11.675885200000002,51.0977447],[11.675605800000001,51.0980107],[11.675497700000001,51.098218200000005],[11.6753961,51.0985007]]}},{"type":"Feature","properties":{"osmType":"way","osmId":128727589,"name":"Saale","waterway":"river"},"geometry":{"type":"LineString","coordinates":[[11.6658241,51.108282700000004],[11.6659349,51.1084936],[11.666144300000001,51.108645],[11.666523600000001,51.108808700000004],[11.666993900000001,51.108930300000004],[11.6675787,51.1090469],[11.668037,51.10912870000001],[11.6684915,51.1092577],[11.670073,51.109826700000006],[11.671341400000001,51.110312900000004],[11.671524300000002,51.1103594],[11.6719015,51.1103734],[11.6720859,51.110398],[11.6722675,51.110424300000005],[11.6724519,51.110485700000005],[11.672644700000001,51.1105436],[11.6730861,51.1107225],[11.6736394,51.1109523],[11.6747291,51.1112558],[11.675483100000001,51.111352100000005],[11.677083900000001,51.111448700000004],[11.6778998,51.111525900000004],[11.679416900000001,51.1116487],[11.6802775,51.111675000000005],[11.680895000000001,51.1116645],[11.6816019,51.111654],[11.6823703,51.1115891],[11.683107900000001,51.1114715],[11.683745,51.1113312],[11.6842311,51.111171600000006],[11.6846726,51.1109646],[11.6850023,51.1107401],[11.685264,51.110496000000005],[11.685642900000001,51.1101496],[11.685959,51.1098171],[11.6863404,51.109577200000004],[11.686660400000001,51.1093825],[11.686901500000001,51.1092026],[11.687099,51.1089235],[11.6872729,51.108720100000006],[11.6874211,51.1086357],[11.687608800000001,51.108565000000006],[11.688029400000001,51.108403]]}},{"type":"Feature","properties":{"osmType":"way","osmId":128727965,"name":"Saale","waterway":"river"},"geometry":{"type":"LineString","coordinates":[[11.7822393,51.1664383],[11.7826237,51.166714600000006],[11.783043000000001,51.1669568]]}},{"type":"Feature","properties":{"osmType":"way","osmId":128727966,"name":"Saale","waterway":"river"},"geometry":{"type":"LineString","coordinates":[[11.783043000000001,51.1669568],[11.783653200000002,51.1671843],[11.784437700000002,51.1673071],[11.788110000000001,51.167548800000006],[11.7887432,51.1676328],[11.789297000000001,51.167835800000006],[11.7899252,51.1680943],[11.7902386,51.1682232],[11.790813700000001,51.1684022],[11.791295100000001,51.168452900000005],[11.7928288,51.168453400000004],[11.793201600000002,51.1684721],[11.7935701,51.1685469],[11.794182500000002,51.168739900000006],[11.794594700000001,51.168903500000006],[11.794962100000001,51.1691377],[11.7953893,51.1694965],[11.7958409,51.1698705],[11.796126300000001,51.1701203],[11.796413900000001,51.170328600000005],[11.796722800000001,51.1704328],[11.7968676,51.1704609],[11.7970316,51.170470200000004],[11.797398000000001,51.170442200000004],[11.7978283,51.170395400000004],[11.7982586,51.170395400000004],[11.798576,51.170450200000005],[11.798725500000002,51.1705115],[11.798894200000001,51.1706702],[11.798956200000001,51.170810100000004],[11.7989846,51.1708742],[11.7989545,51.17115750000001],[11.7988882,51.1715504],[11.798859700000001,51.172106400000004],[11.7988478,51.172650100000006],[11.798906200000001,51.172917500000004],[11.799013400000002,51.173121900000005],[11.7991981,51.173324300000004],[11.7994742,51.1734827],[11.799671400000001,51.173526300000006],[11.801183,51.1738689],[11.801454300000001,51.1740112],[11.801728800000001,51.174153000000004],[11.8018935,51.174319000000004],[11.8020066,51.17455390000001],[11.802033600000001,51.1752441],[11.8021141,51.1756826]]}},{"type":"Feature","properties":{"osmType":"way","osmId":160043677,"name":"Saale","waterway":"river"},"geometry":{"type":"LineString","coordinates":[[11.8021141,51.1756826],[11.802203400000002,51.175803200000004],[11.8022735,51.175908500000006],[11.8023638,51.176017],[11.8024865,51.176096],[11.802683100000001,51.176183200000004],[11.8028337,51.1762499],[11.8032406,51.1763379],[11.803710500000001,51.176399700000005],[11.804288600000001,51.17641690000001],[11.804787600000001,51.1763977],[11.805293,51.176354100000005],[11.806116300000001,51.176269100000006],[11.8065557,51.1762524],[11.807728500000001,51.17622780000001],[11.8089229,51.1761819],[11.8097729,51.1759843],[11.8116049,51.175442200000006],[11.8125429,51.175258400000004],[11.8137447,51.175139],[11.8183246,51.174822000000006],[11.819013400000001,51.1746934],[11.819504400000001,51.1745463],[11.820347100000001,51.174201800000006],[11.821482900000001,51.173613700000004],[11.8220252,51.173397800000004],[11.8230584,51.173103700000006],[11.824897700000001,51.172566200000006],[11.825855500000001,51.1723687],[11.8260848,51.172318100000005],[11.827250000000001,51.1721343],[11.8275213,51.1720428],[11.827770300000001,51.1719505],[11.8282319,51.171665700000005],[11.8283553,51.1715694],[11.8295803,51.1706135],[11.8310092,51.169327],[11.8313976,51.1689273],[11.8315306,51.1686666],[11.8318153,51.167778600000005],[11.831888500000002,51.167218000000005],[11.8318373,51.166896300000005],[11.831668700000002,51.1666022]]}},{"type":"Feature","properties":{"osmType":"way","osmId":160043680,"name":"Saale","waterway":"river"},"geometry":{"type":"LineString","coordinates":[[11.866455700000001,51.1870934],[11.867334600000001,51.1872854],[11.869499900000001,51.1875907]]}},{"type":"Feature","properties":{"osmType":"way","osmId":160679165,"name":"Saale","waterway":"river"},"geometry":{"type":"LineString","coordinates":[[11.961766500000001,51.2054795],[11.961734300000002,51.205294],[11.9616848,51.205119100000005],[11.961598700000001,51.204883200000005],[11.9613721,51.20457630000001],[11.9610192,51.2043291]]}},{"type":"Feature","properties":{"osmType":"way","osmId":160679168,"name":"Saale","waterway":"river"},"geometry":{"type":"LineString","coordinates":[[11.9474266,51.2057519],[11.949087700000002,51.205809900000006],[11.950043800000001,51.2060163],[11.9513323,51.2062072],[11.952162000000001,51.2065398]]}},{"type":"Feature","properties":{"osmType":"way","osmId":160679171,"name":"Saale","waterway":"river"},"geometry":{"type":"LineString","coordinates":[[11.9606598,51.2064613],[11.960783200000002,51.2064339],[11.9609067,51.2063998],[11.961165900000001,51.2062516],[11.9613706,51.206003100000004],[11.9615214,51.2058162],[11.9615842,51.205646800000004],[11.961766500000001,51.2054795]]}},{"type":"Feature","properties":{"osmType":"way","osmId":160679172,"name":"Saale","waterway":"river"},"geometry":{"type":"LineString","coordinates":[[11.959130700000001,51.2059209],[11.9592813,51.205933800000004],[11.9594793,51.2059574],[11.9597967,51.2060145],[11.9601392,51.2060637],[11.960178800000001,51.206078000000005],[11.9603623,51.20614440000001],[11.960538300000001,51.2062685],[11.9606598,51.2064613]]}},{"type":"Feature","properties":{"osmType":"way","osmId":160823339,"name":"Saale","waterway":"river"},"geometry":{"type":"LineString","coordinates":[[11.9809324,51.2069356],[11.980792000000001,51.2069908],[11.9805594,51.2071392],[11.9801023,51.207464200000004],[11.979636500000002,51.2078829],[11.979210100000001,51.2082836],[11.9788767,51.2084653],[11.978499900000001,51.2086915],[11.978183900000001,51.2089354],[11.9780808,51.209003800000005]]}},{"type":"Feature","properties":{"osmType":"way","osmId":160823344,"name":"Saale","waterway":"river"},"geometry":{"type":"LineString","coordinates":[[11.9776419,51.20677310000001],[11.9775535,51.2068096],[11.977451400000001,51.206867100000004],[11.977316400000001,51.206956600000005],[11.9772081,51.2070273],[11.977139500000002,51.207129],[11.977102700000001,51.2072482],[11.977092,51.207333600000005],[11.9770958,51.2074196],[11.977128100000002,51.207484900000004],[11.9771593,51.2075356],[11.977215900000001,51.207618000000004],[11.977341500000001,51.2077803],[11.9775626,51.2080357],[11.9776988,51.20815270000001],[11.9777939,51.2082478],[11.977953300000001,51.208426300000006],[11.978015200000002,51.2085109],[11.9780501,51.2085902],[11.9780724,51.208738600000004],[11.9780808,51.209003800000005]]}},{"type":"Feature","properties":{"osmType":"way","osmId":160823349,"name":"Saale","waterway":"river"},"geometry":{"type":"LineString","coordinates":[[11.977589100000001,51.204188800000004],[11.977864,51.2042325],[11.9780776,51.204305100000006],[11.9783194,51.204393100000004],[11.9784754,51.2044756],[11.9787558,51.2046367],[11.9791035,51.2049413],[11.9793704,51.2052397],[11.9800938,51.2061694],[11.9809324,51.2069356],[11.9801178,51.206716],[11.979855,51.206843500000005],[11.9795444,51.206988800000005],[11.9793591,51.207117100000005],[11.979181500000001,51.2072562],[11.9788928,51.2075599],[11.9786449,51.207889200000004],[11.978374700000002,51.2083158],[11.978274800000001,51.2084781],[11.978174800000001,51.2086497],[11.9780808,51.209003800000005]]}},{"type":"Feature","properties":{"osmType":"way","osmId":160823354,"name":"Saale","waterway":"river"},"geometry":{"type":"LineString","coordinates":[[11.9780808,51.209003800000005],[11.977929900000001,51.2092388],[11.977738200000001,51.2094876],[11.977605800000001,51.2097021],[11.977514500000002,51.2099623],[11.9775009,51.210159600000004],[11.9775465,51.210331200000006],[11.977590800000002,51.210466200000006],[11.9776652,51.2106543],[11.977793,51.2108487],[11.9779482,51.2110518],[11.978094200000001,51.21120620000001],[11.9782814,51.211314800000004],[11.9784503,51.2113778],[11.9788203,51.211381800000005],[11.9792719,51.2116265],[11.9800251,51.2118696],[11.982106600000002,51.212645900000005],[11.9829152,51.212883600000005],[11.983462000000001,51.2130032],[11.983857200000001,51.213078700000004],[11.984302000000001,51.213159000000005],[11.984691900000001,51.2132349],[11.9849511,51.213296500000006],[11.985083000000001,51.2133703],[11.985228300000001,51.2134573],[11.985448100000001,51.213611400000005],[11.986432,51.214424400000006],[11.986960600000002,51.2148866],[11.987347900000001,51.215314400000004],[11.9876252,51.2156898],[11.9877351,51.2159045],[11.9878551,51.216233300000006],[11.9879026,51.2165782],[11.9879209,51.2168502],[11.987876700000001,51.217179800000004],[11.987787500000001,51.2175075],[11.987657100000002,51.2177189],[11.9874202,51.2180429],[11.987109400000001,51.2183743],[11.986922000000002,51.2186358],[11.9868302,51.2188111],[11.986691500000001,51.219084800000005],[11.9866601,51.219225800000004],[11.986647000000001,51.219363400000006],[11.986647000000001,51.219633900000005],[11.9867098,51.2199584],[11.9867644,51.2200964],[11.9867883,51.220156700000004],[11.9869143,51.2203316],[11.987199200000001,51.220710600000004],[11.987369300000001,51.220945],[11.987532100000001,51.221124700000004]]}},{"type":"Feature","properties":{"osmType":"way","osmId":160823360,"name":"Saale","waterway":"river"},"geometry":{"type":"LineString","coordinates":[[11.9800938,51.2061694],[11.9796724,51.2063118],[11.9793341,51.206385100000006],[11.978954700000001,51.2064474],[11.978624900000002,51.206498200000006],[11.978329200000001,51.206563800000005],[11.977999500000001,51.206653900000006],[11.9776419,51.20677310000001]]}},{"type":"Feature","properties":{"osmType":"way","osmId":163744365,"name":"Saale","waterway":"river"},"geometry":{"type":"LineString","coordinates":[[11.7210997,51.135208600000006],[11.721013300000001,51.1352276],[11.720765,51.135332500000004],[11.720373200000001,51.135493700000005],[11.7198045,51.135943100000006],[11.7196732,51.13608970000001],[11.719227400000001,51.1364189],[11.7190577,51.1365302],[11.7189226,51.136620400000005],[11.7185491,51.1369978],[11.717921400000002,51.1375608],[11.717698200000001,51.13791500000001],[11.7175718,51.13821900000001],[11.717517,51.1385018],[11.717554900000001,51.1387397],[11.717707500000001,51.1391694],[11.7179172,51.1396516],[11.7183933,51.1407564],[11.7186924,51.14141720000001],[11.7190673,51.1420674],[11.7194254,51.1425933],[11.719657100000001,51.142833800000005],[11.7205417,51.143444300000006],[11.721118,51.1437864],[11.7219108,51.144176400000006],[11.7229682,51.1445808],[11.7249019,51.145294400000004],[11.726056100000001,51.145759500000004],[11.727105100000001,51.14617440000001],[11.7274674,51.146377900000005],[11.728309900000001,51.146954],[11.7290513,51.147485200000006],[11.729456,51.147999600000006],[11.7295811,51.148232900000004],[11.729650900000001,51.148459]]}},{"type":"Feature","properties":{"osmType":"way","osmId":163744744,"name":"Saale","waterway":"river"},"geometry":{"type":"LineString","coordinates":[[11.729650900000001,51.148459],[11.729666400000001,51.14853170000001],[11.7296717,51.1486748],[11.7296537,51.148987500000004],[11.729608500000001,51.1492422],[11.7296942,51.149483100000005],[11.729911900000001,51.149891700000005],[11.7301642,51.1501366],[11.7305185,51.150325],[11.7311852,51.150438],[11.731984,51.15050960000001],[11.732692700000001,51.150487000000005],[11.733395400000001,51.1505133],[11.7347587,51.1506339],[11.7358458,51.1507092],[11.736848700000001,51.1506527],[11.7383024,51.1505336],[11.7396475,51.1503438],[11.7414913,51.1501366],[11.742248,51.1500349],[11.743311100000001,51.1498653],[11.7439117,51.1497146],[11.744596300000001,51.1494924],[11.7455393,51.1490177],[11.7469987,51.148509000000004],[11.7479356,51.1482679],[11.749365000000001,51.1480984],[11.7499322,51.148118200000006],[11.750073700000002,51.148124800000005],[11.750465,51.148093800000005],[11.7520436,51.1479854],[11.753671200000001,51.1479439],[11.7542769,51.1479682],[11.754879800000001,51.148005000000005],[11.7560195,51.148124800000005],[11.756782300000001,51.148241600000006],[11.7576712,51.148505300000004],[11.7586501,51.1488293],[11.7592087,51.148968700000005],[11.7599414,51.1491759],[11.761022500000001,51.149548900000006],[11.7614693,51.1496373],[11.7619337,51.149801000000004],[11.7624247,51.150074700000005],[11.763473300000001,51.1507243],[11.7655147,51.1519903],[11.7660248,51.1522833],[11.766303,51.152447],[11.7670288,51.1529997],[11.767509200000001,51.1535346],[11.7681819,51.1549059],[11.7681579,51.1554106],[11.767989700000001,51.1559229],[11.7673891,51.1569626],[11.767305,51.157399500000004],[11.767348,51.157714600000006],[11.767473200000001,51.1580324],[11.767953700000001,51.1586878],[11.7684221,51.159064400000005],[11.7688786,51.1593055],[11.7696473,51.159524000000005],[11.7703921,51.1596671],[11.771208900000001,51.159697200000004],[11.772101500000002,51.159603100000005],[11.772590200000002,51.159471200000006],[11.7730347,51.1593281],[11.7738034,51.158733000000005],[11.7747644,51.158017300000004],[11.775581200000001,51.157505],[11.776325700000001,51.1571122],[11.776860800000001,51.1569258],[11.7771878,51.1568352],[11.7774383,51.156816600000006],[11.777897000000001,51.1568459],[11.778665700000001,51.156995],[11.779035100000002,51.1571389],[11.7792262,51.157320000000006],[11.7792294,51.157358800000004],[11.7793621,51.157823400000005],[11.779684900000001,51.1587742],[11.7800446,51.1595177],[11.7809554,51.161092800000006],[11.781295100000001,51.161833200000004],[11.781414000000002,51.162549600000006],[11.781460800000001,51.1629811]]}},{"type":"Feature","properties":{"osmType":"way","osmId":163993818,"name":"Saale","waterway":"river"},"geometry":{"type":"LineString","coordinates":[[11.688029400000001,51.108403],[11.6883525,51.108312500000004],[11.6896106,51.1080259],[11.6902868,51.107836400000004],[11.690627600000001,51.1076891],[11.691287,51.1071803],[11.6918164,51.1067696],[11.6919632,51.106699600000006],[11.6921476,51.106626000000006],[11.692365500000001,51.1065909],[11.6927567,51.106608400000006],[11.693622900000001,51.1067453],[11.6942488,51.1068961],[11.694846700000001,51.10717330000001],[11.695455800000001,51.1075207],[11.695969900000001,51.1079592],[11.696629300000001,51.108601300000004],[11.696991,51.1091333],[11.697466,51.1099929],[11.6976057,51.1102981],[11.697636500000002,51.1105504],[11.697689500000001,51.110866400000006],[11.697639200000001,51.111333],[11.6975856,51.1115616],[11.6975107,51.111876800000005],[11.6972872,51.112427600000004],[11.697074800000001,51.112897700000005],[11.696929500000001,51.113308200000006],[11.697024500000001,51.114027300000004],[11.697153,51.114560600000004],[11.697398900000001,51.115185000000004],[11.6977454,51.115819900000005],[11.6981421,51.11639520000001],[11.6983824,51.116598700000004],[11.6987065,51.1166618],[11.6991312,51.116630300000004],[11.6995559,51.11653200000001],[11.699991800000001,51.1164058],[11.7004389,51.1161813],[11.700919500000001,51.1159182],[11.701249200000001,51.115686600000004],[11.7017577,51.115262200000004],[11.7025903,51.1146693],[11.7032106,51.114223800000005],[11.7036353,51.1138239],[11.7038924,51.1135748],[11.704020900000002,51.1133608],[11.7040824,51.1131152],[11.7041047,51.1127223],[11.704146300000001,51.1124036],[11.704166200000001,51.1122662],[11.704210900000001,51.112150500000006],[11.7044568,51.111768100000006],[11.704575400000001,51.1115347],[11.704697000000001,51.1113015],[11.7048815,51.111112000000006],[11.705742,51.11056120000001],[11.7064964,51.110091100000005],[11.7067814,51.1099613],[11.7071167,51.109908700000005],[11.707642,51.109877100000006],[11.708077900000001,51.109891100000006],[11.7084858,51.1099648],[11.708960800000002,51.1101192],[11.709625800000001,51.1103998],[11.710464,51.110827900000004],[11.7115425,51.1115821],[11.7123808,51.112154000000004],[11.713481600000001,51.113185400000006],[11.714459600000001,51.1141817],[11.714845100000002,51.114616700000006],[11.7152866,51.115290200000004],[11.715566,51.116055],[11.7157225,51.1165461],[11.7157225,51.116886300000004],[11.7155772,51.1173073],[11.715180400000001,51.117812400000005],[11.7146495,51.1182719],[11.714196900000001,51.11867530000001],[11.714057200000001,51.1189279],[11.713911900000001,51.119447],[11.713800200000001,51.1204607],[11.713884,51.1216814],[11.713939900000002,51.1220532],[11.7141354,51.1225091],[11.714375700000002,51.122758100000006],[11.714850700000001,51.1230247],[11.7154431,51.1232878],[11.7165551,51.1237507],[11.717337500000001,51.124122500000006],[11.717845,51.1245768],[11.7182613,51.1250924],[11.718607800000001,51.1256781],[11.718772600000001,51.126106],[11.718800600000002,51.126472500000006],[11.718788400000001,51.1266082],[11.718755900000001,51.126956500000006],[11.7187307,51.1275053],[11.7187196,51.1277613],[11.718795,51.1281436],[11.7189347,51.12840490000001],[11.7191638,51.128681900000004],[11.719379,51.1288433],[11.7197226,51.1290186],[11.7203415,51.1293116],[11.7210303,51.1295955],[11.7218098,51.1298796],[11.722743000000001,51.130225],[11.7228688,51.130295100000005],[11.7228939,51.1303775],[11.7228939,51.1304512],[11.7228464,51.1306055],[11.7222988,51.131608400000005],[11.7220312,51.1321882],[11.7216897,51.132888400000006],[11.721312500000002,51.1336546],[11.721153200000002,51.1344015],[11.7211364,51.1348661],[11.7211636,51.13513510000001]]}},{"type":"Feature","properties":{"osmType":"way","osmId":165460400,"name":"Saale","waterway":"river"},"geometry":{"type":"LineString","coordinates":[[11.666090200000001,51.107629800000005],[11.6658611,51.108056600000005],[11.6658241,51.108282700000004]]}},{"type":"Feature","properties":{"osmType":"way","osmId":165536029,"name":"Saale","waterway":"river"},"geometry":{"type":"LineString","coordinates":[[11.6753961,51.0985007],[11.675377500000002,51.09871570000001],[11.6753634,51.099104600000004],[11.6752508,51.099707900000006],[11.675103,51.1001807],[11.674951700000001,51.100757400000006],[11.674758200000001,51.1011419],[11.674611200000001,51.101286900000005],[11.6745119,51.101384900000006],[11.673931300000001,51.1016788],[11.6730234,51.1020368],[11.6726153,51.1021693],[11.6719924,51.102286400000004],[11.6714681,51.1023859],[11.671045900000001,51.102558200000004],[11.670672300000001,51.102848300000005],[11.670497000000001,51.1029758],[11.6699832,51.103492800000005],[11.669582100000001,51.1038751],[11.6686888,51.1047572],[11.6683822,51.1050637],[11.667689000000001,51.1056691],[11.666767100000001,51.106411400000006],[11.666496200000001,51.1068003],[11.6662037,51.107419],[11.666090200000001,51.107629800000005]]}},{"type":"Feature","properties":{"osmType":"way","osmId":166120369,"name":"Saale","waterway":"river"},"geometry":{"type":"LineString","coordinates":[[11.6787349,51.706577700000004],[11.677825200000001,51.7073393]]}},{"type":"Feature","properties":{"osmType":"way","osmId":166120384,"name":"Saale","waterway":"river"},"geometry":{"type":"LineString","coordinates":[[11.677825200000001,51.7073393],[11.6777478,51.7074033],[11.6775295,51.70758360000001],[11.676123,51.708597700000006],[11.6750269,51.7093933],[11.6737338,51.710034400000005]]}},{"type":"Feature","properties":{"osmType":"way","osmId":166123533,"name":"Saale","waterway":"river"},"geometry":{"type":"LineString","coordinates":[[11.9469819,51.463671100000006],[11.9470846,51.4637578],[11.9479138,51.46425],[11.9486822,51.464763500000004]]}},{"type":"Feature","properties":{"osmType":"way","osmId":166123536,"name":"Saale","waterway":"river"},"geometry":{"type":"LineString","coordinates":[[11.946493400000001,51.463316000000006],[11.9469819,51.463671100000006]]}},{"type":"Feature","properties":{"osmType":"way","osmId":168716351,"name":"Saale","waterway":"river"},"geometry":{"type":"LineString","coordinates":[[12.024523400000001,51.244844300000004],[12.0246294,51.244863300000006],[12.025059500000001,51.2449293],[12.025722100000001,51.2449688],[12.0265426,51.2449713],[12.0280848,51.244954],[12.028877600000001,51.2449713],[12.029915,51.24507010000001],[12.0311062,51.245267600000005],[12.0318872,51.245317],[12.033082400000001,51.245307100000005],[12.033855500000001,51.245302200000005],[12.034952,51.2454182],[12.0359894,51.2456923],[12.0373187,51.2460553],[12.038207100000001,51.2464111],[12.038597600000001,51.2466753],[12.0388342,51.246914800000006],[12.0390946,51.2473741],[12.0392524,51.247754300000004],[12.0393115,51.2479888],[12.0392445,51.2482802],[12.0390315,51.248776400000004],[12.038901300000001,51.249312200000006],[12.038902100000001,51.249375900000004],[12.038925,51.2496949],[12.0391419,51.250376300000006],[12.0392326,51.250941700000006],[12.039260200000001,51.2513614],[12.0392127,51.251684000000004],[12.0391577,51.2518576],[12.039019600000001,51.2521909],[12.03885,51.252657500000005],[12.0384477,51.253264800000004],[12.038120300000001,51.2536968],[12.0376273,51.2541683],[12.037359,51.254543600000005],[12.037256500000002,51.2548077],[12.037244600000001,51.2549707],[12.0372801,51.255200200000004],[12.0373788,51.2554249],[12.037576000000001,51.2556619],[12.037942800000001,51.2558865],[12.0383846,51.256032100000006],[12.038794800000002,51.25623950000001],[12.0396902,51.2566962],[12.0402661,51.256962800000004],[12.0411259,51.2572837],[12.0417571,51.257476000000004],[12.042206700000001,51.2575651],[12.043035000000001,51.2576836],[12.043823900000001,51.257792200000004],[12.044526000000001,51.2578613],[12.045027000000001,51.2579823],[12.045378000000001,51.258174800000006],[12.045531800000001,51.2583106],[12.0457567,51.258619100000004],[12.0458198,51.2588833],[12.0457646,51.2590511],[12.045591,51.259312800000004],[12.045311,51.25949790000001],[12.0447745,51.2597151],[12.044167100000001,51.259841],[12.0429206,51.260073000000006],[12.0420095,51.260235900000005],[12.0416387,51.260396400000005],[12.0414297,51.260566700000005],[12.041354700000001,51.2607469],[12.041378400000001,51.260969],[12.041528300000001,51.26119610000001],[12.0419227,51.2616972],[12.042269800000001,51.2620106],[12.0429364,51.2624179],[12.043760800000001,51.2627758],[12.0444274,51.262975700000005],[12.0452794,51.263109],[12.046103800000001,51.263173200000004],[12.0468808,51.263311400000006],[12.0475869,51.263518700000006],[12.0483797,51.2637507],[12.049480200000001,51.263977800000006],[12.050182300000001,51.264130800000004],[12.050963300000001,51.2643159],[12.0513065,51.264506000000004],[12.051551,51.264767600000006],[12.0519809,51.2651921],[12.052261000000001,51.2655327],[12.0527817,51.2660041],[12.053128800000001,51.2661991],[12.0536139,51.266352100000006],[12.054517200000001,51.2665249],[12.0551601,51.2665421],[12.055665000000001,51.266586600000004],[12.0562725,51.2667124],[12.056820700000001,51.2669099],[12.0573177,51.267183800000005],[12.058213100000001,51.2677021],[12.0587338,51.268134],[12.0594769,51.2687054],[12.0599305,51.269097800000004],[12.0603013,51.269487700000006],[12.060443300000001,51.269778900000006],[12.060561600000002,51.2701318],[12.060593200000001,51.270534100000006],[12.0605458,51.2707636],[12.0604078,51.270914100000006],[12.0602579,51.2710499],[12.0600646,51.271148600000004],[12.0597372,51.27123],[12.0593941,51.271272],[12.0587757,51.271337700000004],[12.0565312,51.2713545],[12.054643500000001,51.271355400000004],[12.0537066,51.2714507],[12.052967800000001,51.271731900000006],[12.0526859,51.272179900000005],[12.052876300000001,51.272708800000004],[12.0533715,51.273823900000004],[12.0535438,51.2745024],[12.0530375,51.275472900000004],[12.0521542,51.2761939],[12.050538300000001,51.27676],[12.0485821,51.277251],[12.048109400000001,51.27745770000001],[12.0478625,51.2777253],[12.047815100000001,51.2779973],[12.0480499,51.278741100000005],[12.048739300000001,51.2798395],[12.0492658,51.280338900000004],[12.050244800000002,51.2808148],[12.0515509,51.281268000000004],[12.0539983,51.2816308],[12.054876400000001,51.2818435],[12.055676700000001,51.282426900000004],[12.0561723,51.283417400000005],[12.0564257,51.2842508],[12.056581300000001,51.2846156],[12.0570783,51.2849875],[12.0574077,51.2851932],[12.0580116,51.285494500000006],[12.0585207,51.2854791],[12.0599965,51.285506000000005],[12.061084500000002,51.285499300000005],[12.061537300000001,51.2857575],[12.0617847,51.2861394],[12.0620217,51.2869411],[12.0620271,51.2872483],[12.0620648,51.2893934],[12.0619853,51.2903407],[12.0618177,51.2922765],[12.0615529,51.292885600000005]]}},{"type":"Feature","properties":{"osmType":"way","osmId":200856730,"name":"Saale","waterway":"river"},"geometry":{"type":"LineString","coordinates":[[11.9486822,51.464763500000004],[11.9495942,51.4651584],[11.9508703,51.465394200000006]]}},{"type":"Feature","properties":{"osmType":"way","osmId":200856734,"name":"Saale","waterway":"river"},"geometry":{"type":"LineString","coordinates":[[11.9513695,51.491336700000005],[11.9500802,51.49299310000001],[11.950059300000001,51.4932912],[11.950181500000001,51.493879500000006],[11.951422800000001,51.495785100000006],[11.951450600000001,51.4963435],[11.9511932,51.4967837]]}},{"type":"Feature","properties":{"osmType":"way","osmId":200856737,"name":"Saale","waterway":"river"},"geometry":{"type":"LineString","coordinates":[[11.9460133,51.462746300000006],[11.9460835,51.4629125],[11.9461955,51.463095],[11.946493400000001,51.463316000000006]]}},{"type":"Feature","properties":{"osmType":"way","osmId":200856739,"name":"Saale","waterway":"river"},"geometry":{"type":"LineString","coordinates":[[11.6737338,51.710034400000005],[11.6727032,51.710532400000005],[11.6724568,51.7106858],[11.670724,51.7116897],[11.6701993,51.712168600000005],[11.669748400000001,51.7126923],[11.6691569,51.714142200000005],[11.6688071,51.7151853],[11.668513200000001,51.716209000000006],[11.6685884,51.716770100000005],[11.668697600000002,51.7173901],[11.6696361,51.718741300000005],[11.671045300000001,51.720414600000005],[11.6723429,51.722316600000006],[11.6738709,51.7232441],[11.6749256,51.723640800000005],[11.6761757,51.7239316],[11.6782173,51.723884600000005],[11.682459300000001,51.7232676],[11.684488400000001,51.72333020000001],[11.6863661,51.7239717],[11.6906811,51.72723190000001],[11.6920777,51.72797490000001],[11.696272200000001,51.729160900000004],[11.6992776,51.730253700000006],[11.702563900000001,51.731913000000006],[11.7046399,51.7334273],[11.7057874,51.734882600000006],[11.7061471,51.736579000000006],[11.7065379,51.7388878],[11.7073374,51.740499400000004],[11.709311300000001,51.7426563],[11.7104794,51.7436413],[11.7115723,51.7447342],[11.712058,51.7459373],[11.7124263,51.7472724],[11.7119943,51.7487993],[11.710335,51.7512636],[11.710151300000001,51.753352400000004],[11.7106492,51.754547900000006],[11.711045,51.7566131],[11.7096994,51.7584299],[11.709279,51.7586014],[11.7073639,51.7593825],[11.705919000000002,51.7595983],[11.701110900000002,51.7597649],[11.6993899,51.760088100000004],[11.6976642,51.760729600000005],[11.6956433,51.7626684],[11.694555000000001,51.7636778],[11.691986400000001,51.765186400000005],[11.691435100000001,51.7658038],[11.691284300000001,51.7660946],[11.6911868,51.7663972],[11.6912365,51.7668363],[11.6913649,51.767330900000005],[11.6922107,51.7683492],[11.693407800000001,51.76903050000001],[11.695321300000002,51.769754400000004],[11.6974782,51.770575300000004],[11.698045700000002,51.770845400000006],[11.699343800000001,51.771553600000004],[11.6998899,51.7730502],[11.6995909,51.775746100000006],[11.6995538,51.7767192],[11.6997911,51.7777043],[11.700582200000001,51.7785455],[11.701724200000001,51.7792669],[11.7029888,51.7796711],[11.704525700000001,51.77989590000001],[11.7074678,51.78031300000001],[11.7094413,51.7811486],[11.711044900000001,51.782755],[11.7115193,51.783220400000005],[11.712488400000002,51.7840222],[11.713032400000001,51.784408400000004],[11.714924700000001,51.785538700000004],[11.715558600000001,51.78582960000001],[11.7178015,51.786665400000004],[11.718756800000001,51.787010800000004],[11.7197636,51.78729310000001],[11.7214364,51.787607300000005],[11.7224617,51.787991100000006],[11.724684100000001,51.7893355],[11.726255,51.790537500000006],[11.7269772,51.7911524],[11.727447100000001,51.791529000000004],[11.7281524,51.7920212],[11.728549800000001,51.79223],[11.7288107,51.792356600000005],[11.7291092,51.7924768],[11.729616700000001,51.792655100000005],[11.7311905,51.793173100000004],[11.7322571,51.7935394],[11.7325277,51.7936964],[11.732876300000001,51.79407500000001],[11.732969,51.7943112],[11.7329611,51.794702400000006],[11.7328632,51.794986800000004]]}},{"type":"Feature","properties":{"osmType":"way","osmId":200856740,"name":"Saale","waterway":"river"},"geometry":{"type":"LineString","coordinates":[[11.960518100000002,51.4813915],[11.9605245,51.481438600000004],[11.960558200000001,51.481576000000004],[11.960586900000001,51.4817357],[11.9607553,51.482669400000006],[11.9605191,51.483971600000004],[11.960287800000001,51.485246800000006],[11.9599937,51.4856558],[11.9592463,51.4859595],[11.958707100000002,51.486102],[11.958408400000001,51.4861809],[11.9577299,51.4863602]]}},{"type":"Feature","properties":{"osmType":"way","osmId":200856742,"name":"Saale","waterway":"river"},"geometry":{"type":"LineString","coordinates":[[11.950966900000001,51.5200636],[11.9500454,51.5207294],[11.948967000000001,51.5211923],[11.947769200000002,51.5214988],[11.9464851,51.521672800000005],[11.944990500000001,51.5215237]]}},{"type":"Feature","properties":{"osmType":"way","osmId":206542996,"name":"Saale","waterway":"river"},"geometry":{"type":"LineString","coordinates":[[11.831668700000002,51.1666022],[11.831470000000001,51.1663677],[11.831163100000001,51.1660922],[11.8298807,51.164810200000005],[11.829323800000001,51.163978400000005],[11.8290453,51.1633167],[11.8289281,51.162884700000006],[11.8289281,51.1625309],[11.8289595,51.162381200000006],[11.8290526,51.1619381],[11.8292652,51.1612993],[11.8292432,51.1606789],[11.8290526,51.1598425],[11.828920700000001,51.158914100000004],[11.828913400000001,51.158486700000005],[11.829103900000002,51.1581145],[11.8293677,51.157870900000006],[11.8301225,51.1575124],[11.8314269,51.1571447],[11.8321976,51.157073700000005],[11.8325774,51.1570344],[11.8337278,51.157039000000005],[11.8345119,51.1570023],[11.8353661,51.1567993],[11.8359555,51.15655640000001],[11.8368202,51.1559819],[11.8374577,51.1552603],[11.837765500000001,51.1548007],[11.8382272,51.1543871],[11.838798800000001,51.1541191],[11.8395904,51.1538095],[11.840645100000001,51.1536679],[11.841653,51.1536254],[11.842472800000001,51.153659100000006],[11.843200900000001,51.153759900000004],[11.844190800000002,51.153995],[11.844929700000002,51.1542868],[11.8458079,51.154565000000005],[11.8464747,51.154696],[11.846995000000001,51.154741900000005],[11.847305500000001,51.1547375],[11.8478448,51.154729800000005],[11.848618100000001,51.1546615],[11.8495415,51.154440900000004],[11.850567400000001,51.1541283],[11.851292800000001,51.1540502],[11.8522887,51.15412370000001],[11.853399600000001,51.154263900000004],[11.8552975,51.154388000000004],[11.8563161,51.1545259],[11.857327300000001,51.1548522],[11.8580418,51.155201500000004],[11.8598005,51.1564333],[11.8610395,51.1576298],[11.861590900000001,51.158575400000004],[11.8619015,51.1591249],[11.862994800000001,51.1600516],[11.8640752,51.1607313],[11.865720600000001,51.161278700000004],[11.8671156,51.161649800000006],[11.867575500000001,51.1619072],[11.8679129,51.162195700000005],[11.868087800000001,51.162514900000005],[11.868095700000001,51.162973],[11.868029700000001,51.163683000000006],[11.867656,51.1644067],[11.8667767,51.1660058],[11.8658204,51.167899000000006],[11.865127900000001,51.169279700000004],[11.864709900000001,51.1702242],[11.8641316,51.1717006],[11.8637922,51.1725988],[11.8636,51.174425500000005],[11.8635379,51.1746879],[11.8634939,51.174828000000005],[11.863376500000001,51.1753122],[11.863171300000001,51.1757027],[11.862237,51.1771636],[11.8616618,51.178222500000004],[11.861520700000002,51.1787136],[11.8614621,51.179235000000006],[11.861456200000001,51.179457400000004],[11.8614236,51.1806751],[11.861500600000001,51.183712500000006],[11.861779,51.184645],[11.8620941,51.185228300000006],[11.863046800000001,51.185908100000006],[11.8641953,51.186350700000006],[11.8658379,51.186944100000005],[11.866455700000001,51.1870934]]}},{"type":"Feature","properties":{"osmType":"way","osmId":244842348,"name":"Saale","waterway":"river"},"geometry":{"type":"LineString","coordinates":[[12.0027614,51.3587739],[12.0027831,51.358986200000004],[12.002737000000002,51.3594146],[12.0025983,51.3597739],[12.002002800000001,51.360415700000004],[12.001979100000002,51.3605001],[12.0019878,51.360576200000004],[12.002040500000001,51.360667500000005],[12.0024636,51.361344700000004],[12.0026831,51.3616558],[12.002957100000001,51.36196],[12.0036114,51.362389300000004],[12.0043894,51.362846600000005],[12.004693900000001,51.3631359],[12.004886500000001,51.363501500000005],[12.0051497,51.363997700000006],[12.0053529,51.3643994]]}},{"type":"Feature","properties":{"osmType":"way","osmId":244842349,"name":"Saale","waterway":"river"},"geometry":{"type":"LineString","coordinates":[[11.921348100000001,51.525494300000005],[11.919099600000001,51.524541000000006],[11.918678100000001,51.524484],[11.9175547,51.5243322],[11.9158301,51.524307500000006],[11.9142013,51.524827],[11.912729800000001,51.525540400000004],[11.912051700000001,51.526224600000006],[11.9105492,51.528831100000005],[11.9096334,51.529681700000005],[11.908393100000001,51.53032820000001],[11.904225100000001,51.532144300000006],[11.9004308,51.53381],[11.896779500000001,51.5348398],[11.894338900000001,51.535197700000005],[11.8917053,51.535325400000005],[11.8864605,51.535331400000004],[11.881233400000001,51.534997800000006],[11.877905100000001,51.5340076],[11.874409700000001,51.533350500000005],[11.8724092,51.5333905],[11.8710448,51.533377],[11.8687216,51.533354],[11.865914,51.531934],[11.863078600000001,51.5313619],[11.8604897,51.5316369],[11.858816500000001,51.5321422],[11.8570688,51.5323003],[11.8486898,51.530190000000005],[11.8440925,51.5281317],[11.8425747,51.5277363],[11.8411346,51.5276889],[11.8350269,51.5286382],[11.833289500000001,51.5296961],[11.833186600000001,51.5297588],[11.8320523,51.530461700000004],[11.8295551,51.5310848],[11.823890700000002,51.5312131],[11.8222193,51.531868100000004],[11.8209277,51.5329343],[11.8195175,51.5350394],[11.819360300000001,51.536454600000006],[11.8199324,51.5378118],[11.821612700000001,51.538891500000005],[11.822134700000001,51.5394279],[11.8228141,51.5401261],[11.8222828,51.542946400000005],[11.8219329,51.5441237],[11.8221989,51.5454038],[11.8233353,51.5468745],[11.8238339,51.547881700000005],[11.8232032,51.550114300000004],[11.8211394,51.5524021],[11.820541500000001,51.55375170000001],[11.820438000000001,51.5551012],[11.821581700000001,51.5565134],[11.825951600000002,51.5583393],[11.827473300000001,51.55932060000001],[11.828687700000001,51.560642900000005],[11.829228200000001,51.563548700000005],[11.8295718,51.564384000000004],[11.8303595,51.5662992],[11.8306792,51.5666698],[11.8314441,51.5675564],[11.831968700000001,51.568291200000004],[11.832009600000001,51.5692224],[11.8310951,51.57074780000001],[11.830392300000002,51.5716218],[11.829534200000001,51.5724299],[11.828090600000001,51.573185800000005],[11.826578600000001,51.5737035],[11.823911800000001,51.5744934],[11.8221358,51.5753129],[11.8204898,51.576577500000006],[11.8201178,51.577138700000006],[11.8194456,51.5781526],[11.818495500000001,51.5793541],[11.8172885,51.5800691],[11.8161766,51.580727800000005],[11.8146096,51.581245200000005],[11.8127697,51.581404000000006],[11.8125163,51.5814308],[11.8122307,51.581456100000004],[11.810317000000001,51.581625800000005],[11.8098591,51.581651400000005],[11.8093711,51.581721400000006],[11.806876800000001,51.5828082],[11.805981500000001,51.5830685],[11.8054372,51.58322810000001],[11.805043000000001,51.5833523],[11.8047038,51.5834312],[11.803252500000001,51.5837182]]}},{"type":"Feature","properties":{"osmType":"way","osmId":244842442,"name":"Saale","waterway":"river"},"geometry":{"type":"LineString","coordinates":[[12.0013962,51.3498001],[12.0012384,51.3504444]]}},{"type":"Feature","properties":{"osmType":"way","osmId":244846368,"name":"Saale","waterway":"river"},"geometry":{"type":"LineString","coordinates":[[11.9639795,51.202334400000005],[11.9643511,51.202320900000004],[11.9647646,51.202364100000004],[11.9650213,51.202395900000006],[11.965799,51.202688300000005],[11.966451000000001,51.2029915],[11.9674434,51.203250800000006],[11.9705797,51.203518100000004],[11.971272200000001,51.2035722],[11.972994400000001,51.2038085],[11.9770713,51.2040999],[11.977589100000001,51.204188800000004]]}},{"type":"Feature","properties":{"osmType":"way","osmId":244846369,"name":"Saale","waterway":"river"},"geometry":{"type":"LineString","coordinates":[[11.9610192,51.2043291],[11.9609217,51.2041321],[11.9608997,51.2040042],[11.9609155,51.203706800000006],[11.9609714,51.2035131],[11.961016,51.203358300000005],[11.9611134,51.2032205],[11.9612423,51.203110200000005],[11.961374300000001,51.203019600000005],[11.961588,51.2029094],[11.961968200000001,51.202765600000006],[11.962653300000001,51.2025864],[11.9631436,51.2024722],[11.9639795,51.202334400000005]]}},{"type":"Feature","properties":{"osmType":"way","osmId":244846370,"name":"Saale","waterway":"river"},"geometry":{"type":"LineString","coordinates":[[11.874673300000001,51.186942800000004],[11.8760255,51.1867973],[11.8766388,51.18679160000001],[11.8768677,51.1867955],[11.8776489,51.186808600000006],[11.8798045,51.187029100000004],[11.8807065,51.187074300000006],[11.8817257,51.187091300000006],[11.882870400000002,51.1871008],[11.884106800000001,51.1872382],[11.8847561,51.1874078],[11.885256100000001,51.187540600000005],[11.8858204,51.1878262],[11.8865534,51.188102300000004],[11.887193900000002,51.188400900000005],[11.887885800000001,51.188419700000004],[11.888113800000001,51.188381500000006],[11.888652500000001,51.1883349],[11.8890764,51.188176600000006],[11.8896175,51.187927900000005],[11.8905375,51.18754920000001],[11.8909073,51.1874813],[11.8912771,51.1874587],[11.8921069,51.187566100000005],[11.892918600000002,51.1878431],[11.8942986,51.188250100000005],[11.895881300000001,51.1885495],[11.8965148,51.1885738],[11.8975512,51.188438600000005],[11.8984114,51.1881823],[11.899105800000001,51.187848800000005],[11.899953700000001,51.18741910000001],[11.900624200000001,51.1871068],[11.901396700000001,51.186899100000005],[11.9020822,51.186746400000004],[11.902542200000001,51.1866842],[11.9030292,51.186656000000006],[11.903413200000001,51.1866111],[11.904075500000001,51.1866616],[11.904887200000001,51.1867182],[11.9054114,51.1867389],[11.9062581,51.186955600000005],[11.9072198,51.1871991],[11.9074896,51.1872964],[11.908819600000001,51.18821620000001],[11.910028200000001,51.1890359],[11.9107485,51.1894062],[11.911435200000001,51.189793400000006],[11.912427300000001,51.1902569],[11.913076700000001,51.190460400000006],[11.914159100000001,51.190630000000006],[11.915557000000002,51.190663900000004],[11.9167205,51.190550800000004],[11.917478200000001,51.190743000000005],[11.9181275,51.191280000000006],[11.918865,51.191960200000004],[11.919264,51.192664900000004],[11.9194534,51.1932697],[11.9195165,51.1937897],[11.919417300000001,51.194287100000004],[11.9192189,51.19484670000001],[11.919092800000001,51.195156000000004],[11.9188828,51.1955947],[11.918416200000001,51.195988400000005],[11.917667600000001,51.1968362],[11.917473800000002,51.1970286],[11.917144400000002,51.19769530000001],[11.9171299,51.1980505],[11.9170542,51.198458300000006],[11.9173519,51.199034700000006],[11.9176856,51.199379500000006],[11.918046400000001,51.199662100000005],[11.9184613,51.19989940000001],[11.9190836,51.2001877],[11.919877300000001,51.2004194],[11.92068,51.200572],[11.9210416,51.200599200000006],[11.9220058,51.20087710000001],[11.922601100000001,51.201086200000006],[11.922998000000002,51.2013236],[11.9234492,51.2016976],[11.9236474,51.202047],[11.9238639,51.2024556],[11.9240682,51.203038400000004],[11.9243869,51.204075700000004],[11.9245519,51.204305600000005],[11.924810800000001,51.2045278],[11.9250544,51.2046634],[11.9253306,51.2047394],[11.9254242,51.2047651],[11.925884100000001,51.2047934],[11.9262449,51.204753800000006],[11.9266237,51.204674700000005],[11.927003000000001,51.204499000000006],[11.927309200000002,51.204228300000004],[11.9275798,51.203844000000004],[11.9278954,51.2034937],[11.928166000000001,51.2032055],[11.928571900000001,51.202962500000005],[11.928910100000001,51.2028169],[11.9295348,51.202702900000006],[11.930089200000001,51.2027007],[11.930623,51.20278020000001],[11.931422600000001,51.202918100000005],[11.931996300000002,51.203141900000006],[11.932746000000002,51.2035591],[11.9333006,51.2038784],[11.933754400000002,51.204177400000006],[11.9341342,51.204587700000005],[11.934724800000001,51.205327800000006],[11.9358803,51.206149200000006],[11.936584400000001,51.2067193],[11.9369461,51.206988800000005],[11.9374578,51.2073392],[11.9377445,51.207512],[11.938300400000001,51.2076737],[11.938614600000001,51.2077101],[11.9388587,51.207711800000006],[11.9392542,51.2077256],[11.939598400000001,51.207702700000006],[11.939908,51.2076536],[11.9401954,51.2075979],[11.940748500000002,51.207408900000004],[11.941407600000002,51.207091000000005],[11.9425559,51.20653780000001],[11.943393100000002,51.2060581],[11.9443126,51.2056655],[11.9446332,51.2055828],[11.9449883,51.205527700000005],[11.9455492,51.2055493],[11.9462414,51.2056538],[11.947175600000001,51.205751400000004],[11.9474266,51.2057519]]}},{"type":"Feature","properties":{"osmType":"way","osmId":244846371,"name":"Saale","waterway":"river"},"geometry":{"type":"LineString","coordinates":[[12.0588008,51.2963195],[12.0584187,51.296736300000006],[12.058073,51.2972995],[12.057302400000001,51.2978472],[12.0563129,51.298137700000005],[12.0547641,51.2983404],[12.054158600000001,51.2984267],[12.0515626,51.298834600000006],[12.050585600000002,51.2993511],[12.050083500000001,51.299873600000005],[12.0500027,51.3001774],[12.0499515,51.3003699],[12.0500485,51.301150400000004],[12.049788900000001,51.3031456],[12.0491638,51.304498],[12.049308900000002,51.305056900000004],[12.049589200000002,51.30556300000001],[12.050579,51.3069526],[12.0511827,51.307648400000005],[12.0511552,51.308263700000005],[12.0510628,51.3088179],[12.0506752,51.3092697],[12.050235,51.3097003]]}},{"type":"Feature","properties":{"osmType":"way","osmId":244846372,"name":"Saale","waterway":"river"},"geometry":{"type":"LineString","coordinates":[[12.0615529,51.292885600000005],[12.0611408,51.293833400000004],[12.060489,51.2947557]]}},{"type":"Feature","properties":{"osmType":"way","osmId":244846373,"name":"Saale","waterway":"river"},"geometry":{"type":"LineString","coordinates":[[12.050235,51.3097003],[12.049771300000002,51.310076900000006],[12.049568200000001,51.310598000000006],[12.0496833,51.3109714],[12.0499349,51.311338600000006],[12.0510242,51.312063800000004],[12.051574500000001,51.3127548],[12.0526234,51.313545600000005],[12.0537305,51.3140523],[12.054404400000001,51.3144471],[12.0549414,51.314942800000004],[12.055225700000001,51.3154654],[12.055330300000001,51.315991100000005],[12.055151400000002,51.3166233],[12.054501700000001,51.3171022],[12.0539672,51.317291700000006],[12.053283500000001,51.3173686],[12.0522691,51.3173321],[12.051714400000002,51.317271700000006],[12.0508301,51.3171364],[12.0498537,51.3171581],[12.0494187,51.3172883],[12.048156700000002,51.317750700000005],[12.047456400000002,51.317835800000005],[12.0470197,51.317787900000006],[12.0465985,51.3176563],[12.0460387,51.3173103],[12.0454383,51.3168407],[12.044777900000001,51.316182500000004],[12.044328700000001,51.3155951],[12.0438842,51.314882100000005],[12.043652000000002,51.3146575],[12.0431209,51.3143735],[12.0424366,51.3141503],[12.0416003,51.314161000000006],[12.0405577,51.3143607],[12.039845600000001,51.3146405],[12.039294700000001,51.3150325],[12.039102900000001,51.315334400000005],[12.039025,51.3156849],[12.039122,51.3160092],[12.03931,51.3163053],[12.039646300000001,51.316697700000006],[12.0400045,51.316958500000005],[12.0402807,51.3172033],[12.040431400000001,51.317499500000004],[12.0405438,51.317815700000004],[12.040605500000002,51.318381],[12.0407925,51.3189356],[12.041001900000001,51.3195685],[12.041281900000001,51.320919700000005],[12.0414431,51.321780000000004],[12.0417948,51.322532800000005],[12.042311100000001,51.323457000000005],[12.0425217,51.3239012],[12.042492500000002,51.3242616],[12.0422262,51.325199500000004],[12.042034800000001,51.32548370000001],[12.041555800000001,51.3259285],[12.0406133,51.3263851],[12.039670200000002,51.3265795],[12.0387719,51.3266919],[12.0369665,51.3268016],[12.035819100000001,51.326907000000006],[12.032816100000002,51.327411600000005],[12.0307594,51.3277938],[12.0295178,51.328067100000005],[12.0281941,51.3285423],[12.027150200000001,51.329081300000006],[12.0258705,51.329879500000004],[12.025602000000001,51.3303081],[12.0250258,51.3315494],[12.024703200000001,51.3322444],[12.0241035,51.333637],[12.023779000000001,51.33400760000001],[12.0234015,51.334225700000005],[12.0225757,51.3344722],[12.0217302,51.3346297],[12.020806,51.3347058],[12.0199165,51.334715900000006],[12.019273100000001,51.3346529],[12.018747600000001,51.3345185],[12.0182844,51.3342777],[12.017973300000001,51.333986],[12.0175468,51.3335008],[12.016906800000001,51.332722200000006],[12.016591400000001,51.332438100000005],[12.016138900000001,51.3322992],[12.0156054,51.3322402],[12.014724900000001,51.3323739],[12.0145177,51.3324317],[12.0136257,51.3326806],[12.012656300000002,51.3330892],[12.012275500000001,51.3334108],[12.0120644,51.333724600000004],[12.0118782,51.3344633],[12.011548300000001,51.335195500000005],[12.0112436,51.335693500000005],[12.010861700000001,51.3360556],[12.010467100000001,51.3362217],[12.0099675,51.3363609],[12.0091649,51.33644760000001],[12.0085327,51.336443],[12.008134100000001,51.336383700000006],[12.006805600000002,51.3360854],[12.006199700000002,51.336109900000004],[12.0055823,51.336254100000005],[12.0047178,51.3366113],[12.0045651,51.3367378],[12.004218900000001,51.3370247],[12.0036319,51.3378074],[12.0034015,51.3385127],[12.0034314,51.339096100000006],[12.0036562,51.339685100000004],[12.0043691,51.340498800000006],[12.0047841,51.3413635],[12.004980100000001,51.341838],[12.0049855,51.3422895],[12.004680800000001,51.3429696],[12.0040749,51.343451],[12.003414000000001,51.343776600000005],[12.002761900000001,51.3438985],[12.001342200000002,51.3439477],[12.0006789,51.344035500000004],[12.000143000000001,51.3442366],[11.999798400000001,51.344726800000004],[11.9996822,51.3454284],[11.9997453,51.345866],[11.9999081,51.3462316],[12.000615100000001,51.347123700000004],[12.0010727,51.347759200000006],[12.001305400000001,51.348362800000004],[12.0014249,51.349165000000006],[12.0013962,51.3498001]]}},{"type":"Feature","properties":{"osmType":"way","osmId":303620392,"name":"Saale","waterway":"river"},"geometry":{"type":"LineString","coordinates":[[11.956747,51.4714091],[11.9568954,51.4715098],[11.9584395,51.4744043],[11.9596011,51.476774000000006],[11.9596163,51.4768051]]}},{"type":"Feature","properties":{"osmType":"way","osmId":303620395,"name":"Saale","waterway":"river"},"geometry":{"type":"LineString","coordinates":[[11.9508703,51.465394200000006],[11.9519631,51.4660103],[11.953812600000001,51.4680533],[11.9552527,51.470516200000006],[11.956129,51.4710953],[11.9565762,51.471321200000006],[11.956747,51.4714091]]}},{"type":"Feature","properties":{"osmType":"way","osmId":337803980,"name":"Saale","waterway":"river"},"geometry":{"type":"LineString","coordinates":[[11.940923600000001,51.455942],[11.942159100000001,51.45772770000001],[11.9458981,51.4592643],[11.9462267,51.459456],[11.9467061,51.4598263],[11.9466161,51.460564600000005],[11.9461188,51.4611439],[11.945918200000001,51.46148650000001],[11.9457605,51.4619057],[11.9460133,51.462746300000006]]}},{"type":"Feature","properties":{"osmType":"way","osmId":337803981,"name":"Saale","waterway":"river"},"geometry":{"type":"LineString","coordinates":[[11.930395,51.451669300000006],[11.9316615,51.4524163],[11.9332034,51.4527483],[11.934936,51.452305],[11.9353248,51.4522843],[11.9357527,51.452261500000006],[11.9366987,51.4522763],[11.9375575,51.452706000000006],[11.9380886,51.453025100000005],[11.9392714,51.4551316],[11.940923600000001,51.455942]]}},{"type":"Feature","properties":{"osmType":"way","osmId":369838598,"name":"Saale","waterway":"river"},"geometry":{"type":"LineString","coordinates":[[11.959845300000001,51.4803943],[11.9601813,51.4810183],[11.960518100000002,51.4813915]]}},{"type":"Feature","properties":{"osmType":"way","osmId":369874994,"name":"Saale","waterway":"river"},"geometry":{"type":"LineString","coordinates":[[11.9511932,51.4967837],[11.9507575,51.49701],[11.949889500000001,51.497718600000006],[11.9491347,51.4987367],[11.9485229,51.500199200000004],[11.948489700000001,51.500335500000006],[11.9482605,51.501277900000005],[11.9484838,51.50206],[11.9485121,51.502106500000004],[11.9486573,51.502345000000005],[11.9487073,51.50242720000001],[11.948986000000001,51.502732200000004],[11.9492411,51.502927],[11.949336,51.5029994],[11.949390000000001,51.503022800000004]]}},{"type":"Feature","properties":{"osmType":"way","osmId":369874998,"name":"Saale","waterway":"river"},"geometry":{"type":"LineString","coordinates":[[11.956670800000001,51.506836500000006],[11.954446800000001,51.5099577],[11.9538531,51.511105400000005],[11.953995,51.511850700000004]]}},{"type":"Feature","properties":{"osmType":"way","osmId":503765622,"name":"Saale","waterway":"river"},"geometry":{"type":"LineString","coordinates":[[11.951426600000001,51.5192479],[11.950966900000001,51.5200636]]}},{"type":"Feature","properties":{"osmType":"way","osmId":503767998,"name":"Saale","waterway":"river"},"geometry":{"type":"LineString","coordinates":[[11.944990500000001,51.5215237],[11.9415977,51.5204783],[11.940635400000001,51.5203751],[11.939771700000001,51.52044],[11.9389807,51.5206462],[11.938355600000001,51.520843600000006],[11.936838700000001,51.521335500000006],[11.9365346,51.521504400000005],[11.9315511,51.5242724]]}},{"type":"Feature","properties":{"osmType":"way","osmId":958295420,"name":"Saale","waterway":"river"},"geometry":{"type":"LineString","coordinates":[[11.7497369,51.6576931],[11.7486896,51.658908600000004],[11.748067500000001,51.659634200000006]]}},{"type":"Feature","properties":{"osmType":"way","osmId":1031503033,"name":"Saale","waterway":"river"},"geometry":{"type":"LineString","coordinates":[[12.0241635,51.244727600000004],[12.0243321,51.2447881],[12.024523400000001,51.244844300000004]]}},{"type":"Feature","properties":{"osmType":"way","osmId":1031503034,"name":"Saale","waterway":"river"},"geometry":{"type":"LineString","coordinates":[[11.987532100000001,51.221124700000004],[11.987770600000001,51.2213688],[11.9886605,51.222385200000005],[11.9889918,51.2227187],[11.989366500000001,51.222926300000005],[11.989753100000001,51.223094200000006],[11.9908181,51.2233833],[11.991891,51.2236303],[11.993658100000001,51.2240132],[11.996190400000001,51.224583800000005],[11.9971055,51.2248704],[11.997795700000001,51.22514210000001],[11.998430800000001,51.2255102],[11.9990264,51.2258708],[11.9998705,51.2264143],[12.000576500000001,51.2267206],[12.001235300000001,51.2269305],[12.001890000000001,51.2270911],[12.002805100000002,51.2272887],[12.003905600000001,51.2275209],[12.004860200000001,51.227706100000006],[12.0059252,51.227864200000006],[12.007242600000001,51.228051900000004],[12.007936800000001,51.228168000000004],[12.0086271,51.228370600000005],[12.009147700000002,51.228560800000004],[12.009852400000002,51.2288239],[12.0118615,51.229600700000006],[12.013593100000001,51.2304157],[12.0152734,51.2312802],[12.016448800000001,51.231974300000005],[12.017498000000002,51.2325991],[12.0186104,51.233179500000006],[12.0190696,51.233479100000004],[12.019466300000001,51.233730300000005],[12.0198213,51.234046400000004],[12.0199475,51.2341897],[12.020192100000001,51.2346243],[12.020527300000001,51.235143],[12.021158400000001,51.235916],[12.022207700000001,51.2369508],[12.0232056,51.237844700000004],[12.0237815,51.238442400000004],[12.024026000000001,51.2387955],[12.024172,51.239136300000006],[12.024254800000001,51.239524],[12.0242942,51.2401488],[12.0242587,51.2406772],[12.0241641,51.2410526],[12.0239156,51.24155390000001],[12.0237926,51.241916],[12.0236119,51.2424478],[12.0234383,51.243075000000005],[12.023394900000001,51.2435787],[12.0234146,51.2439466],[12.023481700000001,51.2441589],[12.023547200000001,51.244263800000006],[12.0236237,51.244339200000006],[12.023801200000001,51.2445244],[12.024021300000001,51.2446667],[12.0241635,51.244727600000004]]}},{"type":"Feature","properties":{"osmType":"way","osmId":1216669880,"name":"Saale","waterway":"river"},"geometry":{"type":"LineString","coordinates":[[11.7211636,51.13513510000001],[11.7210997,51.135208600000006]]}},{"type":"Feature","properties":{"osmType":"way","osmId":1268242788,"name":"Saale","waterway":"river"},"geometry":{"type":"LineString","coordinates":[[11.9577299,51.4863602],[11.957541800000001,51.4864602],[11.957103100000001,51.4866934],[11.956324400000002,51.487534200000006]]}},{"type":"Feature","properties":{"osmType":"way","osmId":1268242789,"name":"Saale","waterway":"river"},"geometry":{"type":"LineString","coordinates":[[11.949390000000001,51.503022800000004],[11.9500583,51.5033126],[11.9522078,51.5040459],[11.953550700000001,51.504372700000005],[11.9544986,51.504710100000004],[11.9553743,51.505078700000006],[11.956215100000001,51.505586900000004],[11.9564325,51.505827100000005],[11.956667300000001,51.5061405],[11.9567534,51.506559900000006],[11.956670800000001,51.506836500000006]]}},{"type":"Feature","properties":{"osmType":"way","osmId":1268403356,"name":"Saale","waterway":"river"},"geometry":{"type":"LineString","coordinates":[[11.9315511,51.5242724],[11.929321600000002,51.525510700000005],[11.928316,51.5258776],[11.9268541,51.526119],[11.925981,51.5262644],[11.925305900000001,51.526257400000006],[11.9224771,51.5257938],[11.921348100000001,51.525494300000005]]}},{"type":"Feature","properties":{"osmType":"way","osmId":1442460229,"name":"Saale","waterway":"river"},"geometry":{"type":"LineString","coordinates":[[11.959676100000001,51.4769407],[11.959982,51.4776741],[11.9600203,51.477909200000006],[11.9598584,51.479297900000006]]}},{"type":"Feature","properties":{"osmType":"way","osmId":1442460230,"name":"Saale","waterway":"river"},"geometry":{"type":"LineString","coordinates":[[11.9596163,51.4768051],[11.9596379,51.4768491],[11.959676100000001,51.4769407]]}}]}