{"type":"FeatureCollection","features":[{"type":"Feature","properties":{"osmType":"way","osmId":235304181,"name":"Saale-Leipzig-Kanal","waterway":"canal"},"geometry":{"type":"LineString","coordinates":[[12.227028500000001,51.356189900000004],[12.2246571,51.3566452],[12.222260700000001,51.3571675],[12.220023300000001,51.357648100000006],[12.2180581,51.3579664],[12.216101,51.3582065],[12.213769300000001,51.3583762],[12.211651900000001,51.3584316],[12.2095137,51.358388600000005],[12.206746,51.3581537],[12.2041526,51.3577985],[12.202156,51.357418200000005],[12.1987053,51.3565849],[12.1946706,51.3556024],[12.1887363,51.354165200000004],[12.1837019,51.352930300000004],[12.177461300000001,51.351432900000006],[12.1716786,51.3500157],[12.1702654,51.349651900000005],[12.1659471,51.348621800000004],[12.1603127,51.34724730000001],[12.1556656,51.346137000000006],[12.151125200000001,51.3450238],[12.147097200000001,51.344032600000006]]}}]}