{"type":"FeatureCollection","features":[{"type":"Feature","properties":{"osmType":"way","osmId":94243865,"name":"Saalealtarm Aderstedt","waterway":"ditch"},"geometry":{"type":"LineString","coordinates":[[11.705499900000001,51.788157600000005],[11.7055185,51.787994700000006],[11.7055077,51.787881000000006],[11.7054255,51.787786600000004],[11.7044545,51.7871576],[11.704237000000001,51.786541500000006],[11.704912400000001,51.785734100000006],[11.7052472,51.7854821],[11.706309200000002,51.784997600000004],[11.7078319,51.784608000000006],[11.709137,51.7841973],[11.7096085,51.7839438],[11.7098388,51.783720900000006],[11.7101118,51.783478300000006],[11.7104332,51.7830888],[11.710609100000001,51.782982000000004],[11.711044900000001,51.782755]]}}]}