{"type":"FeatureCollection","features":[{"type":"Feature","properties":{"osmType":"way","osmId":71001441,"name":"Schweinitzer Fließ","waterway":"stream"},"geometry":{"type":"LineString","coordinates":[[13.301434800000001,51.8131495],[13.301015900000001,51.813203200000004],[13.298440600000001,51.8136299],[13.297319700000001,51.813817900000004],[13.2952308,51.8141685],[13.294060400000001,51.8143648],[13.292850300000001,51.8145679],[13.291762700000001,51.8147504],[13.290913300000001,51.814892900000004],[13.2891195,51.815193900000004],[13.2883598,51.815265700000005],[13.2860378,51.8154374],[13.2817109,51.8157574],[13.281389200000001,51.8158072],[13.2778217,51.816450800000005],[13.276723500000001,51.816648900000004],[13.2759905,51.816830200000005],[13.2744002,51.8172694],[13.2730262,51.8174817],[13.270878900000001,51.817663200000005],[13.268317600000001,51.8179121],[13.266881000000001,51.8180434],[13.264895600000001,51.818388000000006],[13.263851500000001,51.8185693],[13.2637274,51.818635500000006],[13.262756900000001,51.8196573],[13.2626188,51.8197211],[13.2596729,51.819744],[13.2585767,51.8198056],[13.2584306,51.819781600000006],[13.2533267,51.8160152],[13.2523639,51.81553340000001],[13.251333,51.815118000000005],[13.250728800000001,51.814954900000004],[13.249319700000001,51.8149293],[13.247964900000001,51.814815],[13.247087800000001,51.814671600000004],[13.2470247,51.8146719],[13.246300300000001,51.81488160000001],[13.2456831,51.8149865],[13.244811200000001,51.815105800000005],[13.2433837,51.815353800000004],[13.2421749,51.8155998],[13.241776400000001,51.815656100000005],[13.2412001,51.815733],[13.2404428,51.815798400000006],[13.240241000000001,51.8157943],[13.239541200000001,51.8157354],[13.2389355,51.815599500000005],[13.238553600000001,51.8156042],[13.2381022,51.8157974],[13.2374039,51.815938100000004],[13.236532,51.8159501],[13.235880000000002,51.815857],[13.234879900000001,51.8157307],[13.234356100000001,51.8156448],[13.233978,51.81555650000001],[13.233850700000001,51.815473100000006],[13.2335922,51.8151749],[13.2335112,51.8149007],[13.2331485,51.8136151],[13.232992600000001,51.8130784],[13.2329129,51.812974700000005],[13.2327975,51.8128996],[13.230582100000001,51.8120045],[13.2297832,51.811685000000004],[13.2291328,51.8114259],[13.2289566,51.8113985],[13.227883400000001,51.8110159],[13.2232327,51.809316800000005],[13.222111900000002,51.8089073],[13.2219092,51.8087278],[13.220861900000001,51.807800500000006],[13.220667200000001,51.8076135],[13.2194113,51.806407400000005],[13.2192609,51.806295000000006],[13.219040900000001,51.806130700000004],[13.2184681,51.805973900000005],[13.2170193,51.8055773],[13.2143236,51.8049399],[13.213375000000001,51.804635700000006],[13.204126800000001,51.801669800000006],[13.196452200000001,51.799208400000005],[13.1935932,51.7982822],[13.1923259,51.797885],[13.189229500000001,51.796865600000004],[13.188910900000002,51.796781800000005],[13.1883876,51.7965686],[13.1880763,51.796497900000006],[13.187630100000002,51.7964325],[13.187282100000001,51.79640740000001],[13.186395300000001,51.796491],[13.1794411,51.7981428],[13.179165200000002,51.7982067],[13.179142,51.798211900000005]]}},{"type":"Feature","properties":{"osmType":"way","osmId":219149350,"name":"Schweinitzer Fließ","waterway":"stream"},"geometry":{"type":"LineString","coordinates":[[13.1534735,51.815051700000005],[13.1533291,51.8151154],[13.1494335,51.81659440000001],[13.1491634,51.81670080000001],[13.1483392,51.8170255],[13.1460945,51.817223600000005],[13.145811100000001,51.817242400000005],[13.140635900000001,51.8176818],[13.1404735,51.817690500000005],[13.1403891,51.817695],[13.133898100000001,51.8182455],[13.1310014,51.818225600000005],[13.130074800000001,51.8181937],[13.12892,51.818159300000005],[13.1244353,51.8179736],[13.123469700000001,51.81792050000001],[13.121356100000002,51.817661900000004],[13.114207200000001,51.8168182],[13.111834,51.8165308],[13.1115121,51.8164974],[13.110585400000001,51.816391700000004],[13.1099943,51.816329100000004],[13.108728300000001,51.8160837],[13.104780100000001,51.8148965],[13.1028283,51.8142445],[13.102226600000002,51.8140541],[13.101969100000002,51.8139679],[13.1011216,51.8136827],[13.1006709,51.81355670000001],[13.0928818,51.8109764],[13.092420500000001,51.8108968],[13.0843208,51.8107467],[13.084005800000002,51.8107666],[13.083676500000001,51.8108305],[13.083576200000001,51.810862],[13.0791351,51.8122581],[13.0786818,51.812407300000004],[13.077820800000001,51.812672600000006],[13.0775687,51.8127987],[13.0773679,51.8130261],[13.0768207,51.814432200000006],[13.076641,51.814548300000006],[13.076023800000002,51.8147852],[13.0745784,51.815460300000005],[13.0742673,51.8155067],[13.0734571,51.8154339],[13.071277700000001,51.8153352],[13.069765700000001,51.815253500000004],[13.06916,51.815225500000004],[13.068149600000002,51.815186800000006],[13.067712,51.815175100000005],[13.067564,51.8151622],[13.0672926,51.815135000000005],[13.0671125,51.815098000000006],[13.066755700000002,51.815024],[13.065926600000001,51.8147827],[13.064069100000001,51.8142811],[13.063776800000001,51.814261200000004],[13.0634388,51.8142745],[13.061159,51.8144099],[13.0607965,51.814420500000004],[13.0602999,51.814406000000005],[13.058726,51.8142603],[13.0543653,51.813914800000006],[13.054086300000002,51.8138817],[13.0538632,51.8138147],[13.053657300000001,51.8137277],[13.0534131,51.813594800000004],[13.052688600000002,51.813242300000006],[13.051919100000001,51.8128801],[13.0508868,51.8119583],[13.049030100000001,51.810276200000004],[13.0477027,51.809099200000006],[13.0472958,51.808706],[13.047173800000001,51.808541000000005],[13.047091100000001,51.80842560000001],[13.0469936,51.8081193],[13.0468293,51.80772090000001],[13.0466995,51.8073977],[13.046459100000002,51.807236800000005],[13.042930400000001,51.8051424],[13.0422974,51.804815000000005],[13.0416032,51.804582100000005],[13.0411832,51.8045167],[13.0376515,51.804551200000006],[13.0348924,51.804594900000005],[13.034270200000002,51.8044025],[13.032247400000001,51.803612],[13.0309036,51.8030771],[13.0292127,51.8023998],[13.0291198,51.8023231],[13.028999800000001,51.802155600000006],[13.0289303,51.8020123],[13.0288819,51.8017343],[13.028804000000001,51.8014804],[13.0286635,51.801034200000004],[13.0285753,51.8007282],[13.0284527,51.8004985],[13.0282572,51.8002167],[13.0281453,51.8001042],[13.028034100000001,51.799984],[13.0267885,51.7987089],[13.0264903,51.7985539],[13.024647600000002,51.797818400000004],[13.023960500000001,51.7975337],[13.0213634,51.7964939],[13.0199163,51.7958718],[13.0196477,51.7957388],[13.0161224,51.7934658],[13.0160014,51.7933892],[13.015566300000001,51.7931055],[13.0152166,51.792878800000004],[13.0149074,51.7927058],[13.014724000000001,51.792598700000006],[13.014577500000001,51.792526900000006],[13.014068600000002,51.7922413],[13.0140028,51.7921908],[13.0138329,51.792048],[13.013297900000001,51.791488],[13.012837300000001,51.791073000000004],[13.0125101,51.7907992],[13.012176700000001,51.7905547],[13.0121148,51.7904661],[13.012140800000001,51.790359200000005]]}},{"type":"Feature","properties":{"osmType":"way","osmId":219149874,"name":"Schweinitzer Fließ","waterway":"stream"},"geometry":{"type":"LineString","coordinates":[[13.179142,51.798211900000005],[13.1787784,51.7982931],[13.178124,51.798419200000005],[13.177233500000002,51.7986116],[13.174926800000001,51.7991291],[13.1742401,51.799241900000006],[13.1731887,51.7993414],[13.1721695,51.799314900000006],[13.171397,51.799295],[13.1708713,51.7993481],[13.1703858,51.79945420000001],[13.1701729,51.799528200000005],[13.1699807,51.799638300000005],[13.1687282,51.8003797],[13.167592,51.801241600000004],[13.1620229,51.8056891],[13.1609586,51.8065567],[13.1588291,51.808368900000005],[13.1579238,51.8093055],[13.1567611,51.810506800000006],[13.155868300000002,51.811533600000004],[13.155094900000002,51.81267080000001],[13.1541536,51.8142131],[13.1534735,51.815051700000005]]}}]}