{"type":"FeatureCollection","features":[{"type":"Feature","properties":{"osmType":"way","osmId":38437544,"name":"Secantsgraben","waterway":"stream"},"geometry":{"type":"LineString","coordinates":[[11.513108200000001,52.611679200000005],[11.512608100000001,52.611549100000005],[11.5121532,52.6114223],[11.5111734,52.6110848],[11.5107583,52.6109723],[11.510430600000001,52.6109426],[11.50985,52.6109087],[11.5096073,52.610835200000004],[11.509188700000001,52.6106077],[11.5086104,52.6102897],[11.508438100000001,52.6101473],[11.5081971,52.609879400000004],[11.508135300000001,52.609792000000006],[11.5079063,52.6091179],[11.5077791,52.6086687],[11.507654800000001,52.608493300000006],[11.507411300000001,52.608344900000006],[11.5069291,52.6082066],[11.5066082,52.6081322],[11.506353800000001,52.6080733],[11.5058825,52.6080844],[11.5055876,52.6080885],[11.505340200000001,52.6080855],[11.5049126,52.608040800000005],[11.504547500000001,52.6080241],[11.5041854,52.6080168],[11.5031719,52.6079902],[11.501679300000001,52.6079427],[11.5002612,52.607902],[11.5000432,52.607890100000006],[11.499867400000001,52.6078586],[11.499501200000001,52.6077546],[11.4993674,52.6077166],[11.499125900000001,52.607680800000004],[11.4987949,52.607665000000004],[11.49835,52.6076671],[11.497733,52.607637200000006],[11.4971349,52.607570900000006],[11.4968064,52.607547700000005],[11.496504900000001,52.607542],[11.4960377,52.607568400000005],[11.495838200000001,52.6075615],[11.4944799,52.6074398],[11.4930319,52.6073262],[11.4928349,52.607305200000006],[11.492577,52.607246800000006],[11.492311200000001,52.6071564],[11.4921132,52.6070647],[11.4918638,52.606874600000005],[11.4915134,52.6066073],[11.4913437,52.606532400000006],[11.491219200000002,52.6064991],[11.491047400000001,52.606474000000006],[11.4908452,52.6064434],[11.4900841,52.606188800000005],[11.4898222,52.6061343],[11.4894691,52.6060883],[11.48891,52.6061057],[11.4885906,52.60616],[11.488199900000001,52.6062669],[11.4860758,52.607008900000004],[11.4848838,52.607187700000004],[11.4837973,52.6075242],[11.483033800000001,52.6075724],[11.482037700000001,52.607774400000004],[11.4811949,52.607735500000004],[11.48037,52.607694800000004],[11.478442300000001,52.6080326],[11.477640300000001,52.6083276],[11.4771937,52.608425000000004],[11.476822,52.6084668],[11.4759121,52.608492600000005],[11.474895700000001,52.6086837],[11.4735975,52.6088764],[11.472721100000001,52.6089391],[11.4718508,52.6090759],[11.4713331,52.6091349],[11.4706054,52.6091137],[11.469563800000001,52.6090317],[11.4686652,52.6089587],[11.4679561,52.608940600000004],[11.466678400000001,52.6089509],[11.4660474,52.608752700000004],[11.4656806,52.608646900000004],[11.4652905,52.6086278],[11.4646313,52.608669500000005],[11.462913200000001,52.6087781],[11.4616802,52.608825100000004],[11.460700800000001,52.6088632],[11.46043,52.6089263],[11.459524100000001,52.6092183],[11.458688800000001,52.609357900000006],[11.4577211,52.609591900000005],[11.456867500000001,52.60989360000001],[11.456008200000001,52.610434100000006],[11.4550809,52.6109578],[11.4548517,52.6110472],[11.4545954,52.611115100000006],[11.4535207,52.611248800000006],[11.4529204,52.611359900000004],[11.4524877,52.611470800000006],[11.450901400000001,52.611997300000006],[11.4501054,52.6122304],[11.4492261,52.612399100000005],[11.448446500000001,52.612529200000004],[11.4477279,52.612554900000006],[11.447312700000001,52.612492],[11.4465953,52.6123411],[11.4464042,52.6123014],[11.446110800000001,52.612245200000004],[11.4451009,52.6120449],[11.4446273,52.611980100000004],[11.444216,52.6120047],[11.444158400000001,52.612008100000004],[11.443721700000001,52.6120601],[11.4427909,52.612298200000005],[11.442028800000001,52.612256],[11.4417588,52.612241100000006],[11.441164200000001,52.6122997],[11.4396907,52.6124493],[11.439334500000001,52.6124792],[11.4389301,52.612493],[11.4385636,52.6124853],[11.438266800000001,52.612433200000005],[11.4376589,52.612269500000004],[11.4370566,52.6121483],[11.436329200000001,52.6121818],[11.4354414,52.612101100000004],[11.434572600000001,52.6120316],[11.4345073,52.612026400000005],[11.4333548,52.611921300000006],[11.432598200000001,52.611912200000006],[11.4314239,52.61203690000001],[11.430823400000001,52.61212080000001],[11.4302655,52.6122742],[11.430020800000001,52.612428400000006],[11.4298525,52.612596800000006],[11.427529300000002,52.6149361],[11.4269605,52.615524300000004],[11.4268166,52.615661],[11.4263223,52.61613070000001],[11.4255077,52.616940400000004],[11.4251511,52.6172948],[11.424447,52.618007500000004],[11.4229336,52.619539200000006],[11.421724300000001,52.620732000000004],[11.421060200000001,52.621188000000004],[11.4203977,52.621628],[11.4183648,52.623025000000005],[11.4173398,52.6237189],[11.4163232,52.6244175],[11.416241600000001,52.624522400000004],[11.416175800000001,52.6246882],[11.4159389,52.625377500000006],[11.415666700000001,52.62608770000001],[11.415670700000002,52.6261834],[11.4157194,52.626328300000004],[11.415956000000001,52.626783],[11.4163218,52.62741200000001],[11.416371400000001,52.627825],[11.416424300000001,52.627988200000004],[11.416459300000001,52.6280775],[11.4165281,52.628183500000006],[11.4167514,52.6284165],[11.4170388,52.6291863],[11.4170963,52.629416000000006],[11.417197400000001,52.629639000000005],[11.417739300000001,52.630567400000004],[11.4184034,52.6318263],[11.418813100000001,52.632649],[11.4189062,52.6330156],[11.418949900000001,52.633192400000006],[11.4190477,52.6335014],[11.419246300000001,52.633953000000005],[11.41953,52.6347868],[11.419604300000001,52.6349609],[11.419803,52.635271200000005],[11.420289,52.6362583],[11.420793900000001,52.6370967],[11.4212489,52.637824300000005],[11.4220024,52.6388388],[11.422798100000001,52.6398871],[11.4240793,52.6416904],[11.4245215,52.6420242],[11.4247578,52.6422284],[11.424773100000001,52.6422522],[11.4248854,52.642426400000005],[11.4249408,52.64266550000001],[11.424873600000002,52.643110400000005],[11.4247388,52.6434064],[11.424568500000001,52.6436185],[11.4246672,52.6439074],[11.4248568,52.6442515],[11.424860800000001,52.6446988],[11.4246672,52.645658700000006],[11.4245531,52.6464726],[11.424911400000001,52.647595200000005],[11.4253365,52.6486644],[11.4259432,52.649711700000005],[11.426111500000001,52.649947100000006],[11.426286900000001,52.6500532],[11.426496,52.650137900000004],[11.4282076,52.651131400000004],[11.429343600000001,52.651625100000004],[11.429581200000001,52.65177370000001],[11.430070500000001,52.652170500000004],[11.431068300000002,52.6529165],[11.4316133,52.6532573],[11.4320307,52.653378000000004],[11.4335687,52.653547100000004],[11.4358125,52.653871200000005],[11.4378101,52.654145500000006],[11.4396182,52.654414300000006],[11.440502200000001,52.6544606],[11.441029200000001,52.6545269],[11.4413905,52.654582700000006],[11.4435287,52.6549058],[11.4441605,52.6550163],[11.4447709,52.655197300000005],[11.4467116,52.6556982],[11.448526000000001,52.6563044],[11.451022400000001,52.6571675],[11.452367,52.657596000000005],[11.453659,52.658020900000004],[11.454799000000001,52.6584043],[11.456268300000001,52.65889850000001],[11.457544700000001,52.659376800000004],[11.4587,52.6600132],[11.4591276,52.660370300000004],[11.4596227,52.661171800000005],[11.4601649,52.6618757],[11.460637700000001,52.662623100000005],[11.4609058,52.66296010000001],[11.461670300000002,52.663472000000006],[11.462434400000001,52.6640251],[11.467245400000001,52.668305100000005],[11.4696447,52.670478700000004],[11.471038100000001,52.671691100000004],[11.472141500000001,52.672684200000006],[11.4726294,52.673109800000006],[11.472886200000001,52.673455000000004],[11.473055800000001,52.6737443],[11.473387200000001,52.6743096],[11.473774500000001,52.6749116],[11.473966200000001,52.67532610000001]]}}]}