{"type":"FeatureCollection","features":[{"type":"Feature","properties":{"osmType":"way","osmId":27744160,"name":"Tanger","waterway":"river"},"geometry":{"type":"LineString","coordinates":[[11.8503103,52.491373100000004],[11.851866000000001,52.49143],[11.852686100000001,52.491521600000006],[11.853553400000001,52.4916301],[11.854026600000001,52.4916982],[11.8575502,52.492198300000005],[11.8609562,52.492630600000005],[11.865176,52.4930925],[11.8655837,52.4931513],[11.866043000000001,52.493261000000004],[11.8682382,52.4939449],[11.868763900000001,52.494114800000006],[11.869343200000001,52.4942323],[11.8697938,52.4942846],[11.8717787,52.494369500000005],[11.8728408,52.494395600000004],[11.873742100000001,52.494369500000005],[11.874235700000002,52.494381600000004],[11.8744206,52.4944112],[11.874764,52.4944683],[11.8752293,52.4945679],[11.8755217,52.494664300000004],[11.8758838,52.4948211],[11.8762419,52.495029300000006],[11.876880700000001,52.495470600000004],[11.8789992,52.497126],[11.879299600000001,52.497341500000005],[11.8796107,52.4975114],[11.879889700000001,52.4976289],[11.880254500000001,52.497746500000005],[11.8822822,52.49822330000001],[11.8827435,52.4983409],[11.883001,52.4984454],[11.8835589,52.4987197],[11.885736900000001,52.499673300000005],[11.886743000000001,52.50020790000001],[11.887593,52.500659500000005],[11.889202300000001,52.5016327],[11.8901143,52.502220400000006],[11.8902859,52.5024098],[11.8903932,52.5025666],[11.890479000000001,52.5028148],[11.8905756,52.503187000000004],[11.8906614,52.503461300000005]]}},{"type":"Feature","properties":{"osmType":"way","osmId":42221215,"name":"Tanger","waterway":"river"},"geometry":{"type":"LineString","coordinates":[[11.8125538,52.4281048],[11.813304700000002,52.4284076],[11.813424600000001,52.428453600000005],[11.813513100000002,52.4285166],[11.8137834,52.428836100000005],[11.8139164,52.429023],[11.8139409,52.429143100000005],[11.8139663,52.4293258],[11.814013800000001,52.429574900000006],[11.814087500000001,52.4299024],[11.814172600000001,52.430089200000005],[11.8143431,52.430314700000004],[11.8145757,52.4305682],[11.814782500000002,52.430772100000006],[11.815073400000001,52.431048800000006],[11.815520800000002,52.4315268],[11.815686900000001,52.431679],[11.816231400000001,52.432111500000005],[11.816409100000001,52.4323405],[11.8166296,52.4328591],[11.816748400000002,52.4332342],[11.8167912,52.4336922],[11.818182100000001,52.4367351],[11.8183147,52.4368975],[11.8188729,52.4373128],[11.819158700000001,52.4377878],[11.819508800000001,52.4386615],[11.819879,52.4393752],[11.820398800000001,52.440142200000004],[11.8218043,52.4423236],[11.821965200000001,52.442689900000005],[11.8226089,52.444180900000006],[11.8230059,52.444946],[11.823510200000001,52.445848500000004],[11.823832000000001,52.4462016],[11.8247225,52.4471105],[11.8249068,52.4473593],[11.8249609,52.447527900000004],[11.825073100000001,52.448188300000005],[11.8251109,52.4483303],[11.825226800000001,52.44852950000001],[11.826531800000001,52.4499178],[11.826709800000001,52.450076300000006],[11.8269526,52.4502748],[11.827328900000001,52.450495200000006],[11.828915100000001,52.4511333],[11.8295689,52.4514082],[11.8298454,52.451590200000005],[11.830556600000001,52.452152100000006],[11.8328643,52.453943900000006],[11.833423000000002,52.454283600000004],[11.8346698,52.455010400000006],[11.8350319,52.45527130000001],[11.8352172,52.4554641],[11.8352955,52.455701600000005],[11.835364100000001,52.456345500000005],[11.8354192,52.4565677],[11.8355566,52.456914100000006],[11.835747600000001,52.4572961],[11.835891100000001,52.4574384],[11.836381600000001,52.4576986],[11.839624500000001,52.4590486],[11.8401185,52.4591689],[11.8425968,52.459132800000006],[11.843240900000001,52.459138300000006],[11.8435419,52.4592024],[11.843814,52.459321800000005],[11.844027200000001,52.4594444],[11.844220100000001,52.459600800000004],[11.8442778,52.4596688],[11.8443255,52.459725000000006],[11.844383700000002,52.459888400000004],[11.844343400000001,52.460114700000005],[11.8441598,52.46093200000001],[11.8441544,52.4611518],[11.8442726,52.4613695],[11.8443745,52.461476600000005],[11.844637200000001,52.4617525],[11.8450813,52.46222220000001],[11.845132300000001,52.462423400000006],[11.845109500000001,52.4626108],[11.844909600000001,52.462926],[11.8447855,52.4632523],[11.8447689,52.46358600000001],[11.8449402,52.46391860000001],[11.844940000000001,52.4642021],[11.844861,52.464406000000004],[11.844703800000001,52.4646733],[11.8447039,52.465051700000004],[11.8447925,52.4660177],[11.8450144,52.4665898],[11.845202,52.4668671],[11.845451800000001,52.4671631],[11.846761800000001,52.4685593],[11.846878,52.468772200000004],[11.8468873,52.4690123],[11.8468253,52.469177],[11.846703100000001,52.4693369],[11.8464998,52.469575500000005],[11.846418,52.469760900000004],[11.8464094,52.4698879],[11.8464054,52.4699474],[11.8465194,52.470157400000005],[11.8467201,52.4703426],[11.847116300000001,52.4705778],[11.848045500000001,52.4710893],[11.848202500000001,52.4712449],[11.848257700000001,52.471474900000004],[11.8484274,52.4720822],[11.848537100000001,52.472247100000004],[11.848700800000001,52.47242910000001],[11.8492932,52.4730798],[11.8493685,52.473219500000006],[11.8493569,52.4732665],[11.8493413,52.473330100000005],[11.849268200000001,52.473500400000006],[11.8490228,52.473821400000006],[11.848743800000001,52.474056700000006],[11.848282500000002,52.4745076],[11.8476888,52.4748911],[11.847417100000001,52.475152],[11.8473228,52.475285400000004],[11.847247900000001,52.475423500000005],[11.847208,52.4756304],[11.8471855,52.4758354],[11.8471589,52.476075400000006],[11.8472018,52.476206100000006],[11.847326500000001,52.476385],[11.847699400000002,52.4767759],[11.8477955,52.47696800000001],[11.847838000000001,52.4772538],[11.8478937,52.477724],[11.8478873,52.4783495],[11.847915,52.4787187],[11.8479179,52.4789667],[11.8479012,52.4790806],[11.847854700000001,52.4792439],[11.8476627,52.47976430000001],[11.8476274,52.4798831],[11.8476318,52.4799901],[11.8476847,52.480122300000005],[11.8480992,52.480787400000004],[11.8482041,52.481033800000006],[11.848269100000001,52.4812321],[11.848331,52.481523200000005],[11.848382200000001,52.4818815],[11.8483795,52.482528200000004],[11.848397,52.4829352],[11.848428,52.483033400000004],[11.8484736,52.4831347],[11.848559100000001,52.4833166],[11.848732400000001,52.4835451],[11.848941100000001,52.483761200000004],[11.849108600000001,52.4839563],[11.849164400000001,52.4842141],[11.849167600000001,52.484781500000004],[11.849184800000002,52.485599900000004],[11.8491269,52.4860745],[11.8486226,52.488253300000004],[11.848593600000001,52.4887061],[11.8486151,52.4889609],[11.8488404,52.489842800000005],[11.8489155,52.489999600000004],[11.8503103,52.491373100000004]]}},{"type":"Feature","properties":{"osmType":"way","osmId":42221216,"name":"Tanger","waterway":"river"},"geometry":{"type":"LineString","coordinates":[[11.8122901,52.427870600000006],[11.812455400000001,52.4280648],[11.8125538,52.4281048]]}},{"type":"Feature","properties":{"osmType":"way","osmId":101334112,"name":"Tanger","waterway":"river"},"geometry":{"type":"LineString","coordinates":[[11.963825700000001,52.535256600000004],[11.964347100000001,52.5353335],[11.9647343,52.5354157],[11.964800400000001,52.5354268],[11.9651332,52.5354826],[11.965448100000001,52.5356159],[11.9659369,52.535917500000004],[11.9677368,52.53689120000001],[11.9696365,52.537778700000004],[11.9698776,52.5379014],[11.970046700000001,52.5379675],[11.9777424,52.5414122],[11.979016000000001,52.5419806],[11.980937500000001,52.542778600000005]]}},{"type":"Feature","properties":{"osmType":"way","osmId":101334121,"name":"Tanger","waterway":"river"},"geometry":{"type":"LineString","coordinates":[[11.9440535,52.5278536],[11.944730700000001,52.5279023],[11.9452484,52.52796480000001],[11.945666200000002,52.5280265],[11.9460818,52.528121000000006],[11.9465701,52.528236400000004],[11.9470837,52.5283662],[11.947336,52.5284393],[11.9476373,52.528544000000004],[11.948005400000001,52.528716800000005],[11.9492849,52.529346000000004],[11.9503397,52.5298488],[11.9505406,52.5299683],[11.950621900000002,52.5300365],[11.9506727,52.5300997],[11.9507107,52.530188900000006],[11.9507689,52.5303206],[11.9510365,52.53128400000001],[11.9511008,52.5314641],[11.951153000000001,52.5315698],[11.9512263,52.531691800000004],[11.951433100000001,52.531961700000004],[11.951659000000001,52.5321798],[11.952042700000002,52.5323883],[11.9547789,52.53373920000001],[11.955558100000001,52.534051600000005],[11.9558794,52.534170700000004],[11.9562147,52.5342551],[11.9568135,52.5343357],[11.9578061,52.534452200000004],[11.9609568,52.534823200000005],[11.963825700000001,52.535256600000004]]}},{"type":"Feature","properties":{"osmType":"way","osmId":138463016,"name":"Tanger","waterway":"river"},"geometry":{"type":"LineString","coordinates":[[11.7649412,52.37866330000001],[11.7650207,52.3787834]]}},{"type":"Feature","properties":{"osmType":"way","osmId":138463017,"name":"Tanger","waterway":"river"},"geometry":{"type":"LineString","coordinates":[[11.7650207,52.3787834],[11.7661426,52.380478700000005],[11.7662499,52.3806359],[11.7663063,52.3807636],[11.7663197,52.3809161],[11.7662955,52.381197500000006],[11.7662521,52.3815006],[11.7662472,52.3816591],[11.766359300000001,52.3829889],[11.766389400000001,52.383262],[11.7665181,52.383563200000005],[11.7676876,52.385305100000004],[11.7681489,52.385920600000006],[11.769543700000002,52.3872957],[11.7698012,52.387682100000006],[11.7700908,52.388454700000004],[11.7705414,52.3899345],[11.770691600000001,52.390353600000005],[11.770852600000001,52.3906416],[11.772070300000001,52.3922048],[11.7721186,52.392330900000005],[11.7721079,52.3924487],[11.7720558,52.392594100000004],[11.7720328,52.39265820000001],[11.7714552,52.3937101],[11.771324600000002,52.393948],[11.771206600000001,52.3942361],[11.771165400000001,52.3945565],[11.7711208,52.3949039],[11.7708311,52.396979200000004],[11.7708204,52.3975815],[11.7707346,52.398131400000004],[11.7707131,52.398347400000006],[11.7707989,52.3987926],[11.771035000000001,52.399728700000004],[11.7711637,52.3999316],[11.7715929,52.4003178],[11.7718927,52.4005784],[11.773555400000001,52.4013568],[11.773925100000001,52.4015337],[11.775429800000001,52.402194900000005],[11.775699300000001,52.402314000000004],[11.7758999,52.402387000000004],[11.776136900000001,52.4024494],[11.7777405,52.402798700000005],[11.778116,52.402936200000006],[11.7786632,52.403224200000004],[11.7791522,52.4035122],[11.7794156,52.4036373],[11.779729600000001,52.4037226],[11.7817392,52.4041909],[11.7820812,52.404309000000005],[11.782820000000001,52.4046158],[11.783606800000001,52.4049345],[11.7839209,52.4050711],[11.7841809,52.405226500000005],[11.7845896,52.405554800000004],[11.7846886,52.4056404],[11.784777700000001,52.4057018],[11.7856906,52.4063791],[11.7857657,52.4064904],[11.785776400000001,52.4066017],[11.785712,52.407537600000005],[11.785733500000001,52.407727400000006],[11.78583,52.407949900000006],[11.7860768,52.408179000000004],[11.7864201,52.408395000000006],[11.788662400000002,52.4093571],[11.7888663,52.409481400000004],[11.7890165,52.409645000000005],[11.789724600000001,52.4112158],[11.789789,52.411399],[11.789724600000001,52.4115168],[11.788598100000002,52.413251],[11.788555200000001,52.413408100000005],[11.7885766,52.4135324],[11.788705400000001,52.4137222],[11.789370600000002,52.4148347],[11.7895315,52.4151554],[11.790089400000001,52.4157639],[11.7912931,52.4170699],[11.791773800000001,52.417563400000006],[11.793223600000001,52.41895220000001],[11.793565500000001,52.4193694],[11.7937908,52.419788200000006],[11.794095200000001,52.420355300000004],[11.794240400000001,52.4205978],[11.794477500000001,52.4208286],[11.795430300000001,52.421750900000006],[11.795860600000001,52.4220672],[11.7963036,52.422327900000006],[11.7973969,52.4226564],[11.7979008,52.422932700000004],[11.7990367,52.42416],[11.800400600000001,52.425236600000005],[11.8009008,52.425290800000006],[11.802353700000001,52.425045100000006],[11.8027634,52.425035400000006],[11.8037766,52.4255032],[11.805088300000001,52.4261089],[11.805488100000002,52.4262968],[11.8056017,52.426344500000006],[11.8057244,52.426394300000005],[11.805802,52.426406500000006],[11.8058808,52.4264055],[11.8070274,52.426381000000006],[11.807403500000001,52.4264093],[11.808371300000001,52.426572],[11.809359200000001,52.4267072],[11.8110365,52.4269752],[11.8112268,52.427034500000005],[11.811419800000001,52.427118],[11.8118885,52.4274312],[11.812084200000001,52.4276119],[11.8122901,52.427870600000006]]}}]}