{"type":"FeatureCollection","features":[{"type":"Feature","properties":{"osmType":"way","osmId":24986990,"name":"Unstrut","waterway":"river"},"geometry":{"type":"LineString","coordinates":[[11.7425571,51.2114543],[11.742682700000001,51.211483300000005],[11.7429845,51.211541600000004],[11.743367600000001,51.211597600000005]]}},{"type":"Feature","properties":{"osmType":"way","osmId":24986991,"name":"Unstrut","waterway":"river"},"geometry":{"type":"LineString","coordinates":[[11.7425571,51.2114543],[11.7428708,51.211643900000006],[11.7432388,51.2118848],[11.743480700000001,51.2119884],[11.743661600000001,51.212031800000005],[11.7444029,51.212209400000006],[11.744865800000001,51.212240900000005],[11.7450498,51.2122267],[11.7452503,51.2121841],[11.7453865,51.212144300000006],[11.7456838,51.2120675]]}},{"type":"Feature","properties":{"osmType":"way","osmId":24986994,"name":"Unstrut","waterway":"river"},"geometry":{"type":"LineString","coordinates":[[11.768026200000001,51.210269700000005],[11.7687205,51.2100522],[11.769351700000001,51.209712100000004],[11.769840400000001,51.209404000000006],[11.770136500000001,51.209203300000006],[11.770448100000001,51.208899900000006],[11.770301600000002,51.2086935]]}},{"type":"Feature","properties":{"osmType":"way","osmId":39886027,"name":"Unstrut","waterway":"river"},"geometry":{"type":"LineString","coordinates":[[11.631768200000002,51.2494431],[11.6320736,51.249252000000006],[11.6322674,51.2491065],[11.6324661,51.248938200000005],[11.632817300000001,51.248581800000004],[11.6329942,51.24837410000001],[11.6330693,51.2482376],[11.633109500000002,51.248178],[11.633168300000001,51.248125200000004],[11.6333976,51.247963000000006],[11.6336338,51.247831000000005],[11.634324000000001,51.247576900000006],[11.6343932,51.2475451],[11.634505200000001,51.2474937],[11.6347024,51.2473961],[11.6350441,51.247206600000005],[11.6353009,51.247076],[11.635796200000001,51.246856300000005],[11.636092000000001,51.2467358],[11.6364544,51.2465879],[11.636569000000001,51.2465233],[11.636669900000001,51.246422800000005],[11.636821300000001,51.2461774],[11.636883200000002,51.2460152],[11.6368969,51.245798400000005],[11.636940500000001,51.245606],[11.636984100000001,51.245491200000004],[11.637101000000001,51.245337600000006],[11.637218,51.245217000000004],[11.6374679,51.24506340000001],[11.637828,51.2449371],[11.6381742,51.244823700000005],[11.6384067,51.244753100000004],[11.6386122,51.2446873],[11.638837,51.244588300000004],[11.639050200000002,51.2444792],[11.639242900000001,51.2443284],[11.6395478,51.244131800000005],[11.6397428,51.244004000000004],[11.639953700000001,51.243859],[11.6401182,51.243728600000004]]}},{"type":"Feature","properties":{"osmType":"way","osmId":160048792,"name":"Unstrut","waterway":"river"},"geometry":{"type":"LineString","coordinates":[[11.770301600000002,51.2086935],[11.7709694,51.2081554],[11.771186700000001,51.207968900000004],[11.771377800000002,51.207798600000004]]}},{"type":"Feature","properties":{"osmType":"way","osmId":160048793,"name":"Unstrut","waterway":"river"},"geometry":{"type":"LineString","coordinates":[[11.7367194,51.208797100000005],[11.7372572,51.208859200000006],[11.7374209,51.208881700000006],[11.7375685,51.208939400000006],[11.737634600000002,51.2089749],[11.737710300000002,51.20901550000001],[11.737752,51.20905440000001],[11.737789300000001,51.2090892],[11.7379011,51.2092156],[11.7380261,51.209388600000004],[11.738577900000001,51.2104038],[11.7386906,51.2105411],[11.7388498,51.210697200000006],[11.7390638,51.210847400000006],[11.7393687,51.2109912],[11.7397904,51.211124600000005],[11.740218400000002,51.211215200000005],[11.740563600000002,51.211243700000004],[11.741014300000002,51.2112191],[11.7415436,51.2111815],[11.741924000000001,51.2111971],[11.7421865,51.2112515],[11.7423395,51.2113123],[11.742469700000001,51.211384900000006],[11.7425571,51.2114543]]}},{"type":"Feature","properties":{"osmType":"way","osmId":160048796,"name":"Unstrut","waterway":"river"},"geometry":{"type":"LineString","coordinates":[[11.7456838,51.2120675],[11.7460587,51.2121671],[11.7471151,51.212447600000004],[11.747303700000002,51.2125209],[11.7474056,51.212571800000006],[11.747512700000001,51.212625300000006],[11.747948300000001,51.212867],[11.7485345,51.213081300000006],[11.7493906,51.213329800000004],[11.7498673,51.2134403],[11.7503192,51.213497200000006],[11.750760000000001,51.213549],[11.751360700000001,51.2135801],[11.7523636,51.2135904],[11.753248000000001,51.2135473],[11.7547359,51.21341090000001],[11.755829700000001,51.2133246],[11.756526800000001,51.213233100000004],[11.7573754,51.213064],[11.7607672,51.2121682],[11.762023600000001,51.2119179],[11.7630403,51.211628000000005],[11.7652809,51.210917900000005],[11.7665538,51.210576200000006],[11.768026200000001,51.210269700000005]]}},{"type":"Feature","properties":{"osmType":"way","osmId":160048798,"name":"Unstrut","waterway":"river"},"geometry":{"type":"LineString","coordinates":[[11.743367600000001,51.211597600000005],[11.7437342,51.211681500000005],[11.744060500000002,51.2117482]]}},{"type":"Feature","properties":{"osmType":"way","osmId":160048802,"name":"Unstrut","waterway":"river"},"geometry":{"type":"LineString","coordinates":[[11.744060500000002,51.2117482],[11.744260500000001,51.2117865],[11.744990600000001,51.2119008],[11.7456562,51.212060300000005],[11.7456838,51.2120675]]}},{"type":"Feature","properties":{"osmType":"way","osmId":160173770,"name":"Unstrut","waterway":"river"},"geometry":{"type":"LineString","coordinates":[[11.6793578,51.2262664],[11.6794668,51.2263139],[11.679546400000001,51.226342100000004],[11.6798601,51.2264447],[11.680103,51.2264703],[11.6803287,51.2264709],[11.680569700000001,51.2264095],[11.6810089,51.226244900000005],[11.6814596,51.2261091],[11.682008300000001,51.225994500000006],[11.682339800000001,51.2259636],[11.6828009,51.2259563],[11.6833638,51.2259636],[11.6836184,51.2259839],[11.6838662,51.2260404],[11.6841626,51.226151800000004],[11.6845789,51.2264276],[11.685249800000001,51.2268781],[11.6854343,51.2269853],[11.685628300000001,51.227042700000005],[11.6860257,51.227122800000004],[11.6864231,51.2271641],[11.6866737,51.2271591],[11.6871978,51.2271026],[11.6875143,51.227057],[11.688099000000001,51.2269245],[11.688629800000001,51.2268174],[11.6888804,51.22680810000001],[11.6893074,51.226841900000004],[11.6902083,51.2270157],[11.6907014,51.227081500000004],[11.691674,51.227127100000004],[11.6925928,51.2272216],[11.693332100000001,51.2273488],[11.693649,51.227365000000006],[11.693971900000001,51.2273225],[11.6942462,51.2272151],[11.6946692,51.226976500000006],[11.695103600000001,51.2268071],[11.6955755,51.226609],[11.6960174,51.226359300000006],[11.6965535,51.226128200000005],[11.696992700000001,51.2260421],[11.697413000000001,51.22601340000001],[11.6980435,51.226006700000006],[11.6985177,51.2259966],[11.6988652,51.225947600000005],[11.6991913,51.2258666],[11.6994176,51.225762],[11.6997005,51.2255393],[11.7000615,51.225309800000005],[11.700339000000001,51.225028],[11.7006271,51.22463380000001],[11.701107200000001,51.224209],[11.701936,51.223650600000006],[11.702654200000001,51.2229741],[11.7029419,51.2225266],[11.702989500000001,51.2221818],[11.7029419,51.222002800000006],[11.7027514,51.221751000000005],[11.7024313,51.221473],[11.7022949,51.2213435],[11.702257900000001,51.221307200000005],[11.702117000000001,51.2211055],[11.7020274,51.220888300000006],[11.701989300000001,51.2206759],[11.7019531,51.2203406],[11.7019303,51.2195948],[11.7019055,51.2190006],[11.7019646,51.2184517],[11.7021265,51.217806100000004],[11.702246500000001,51.21744210000001],[11.702216,51.2170817],[11.7021379,51.2165328],[11.7021227,51.2162178],[11.702179800000001,51.215976700000006],[11.7023284,51.2157476],[11.702511300000001,51.2155877],[11.702799,51.2155196],[11.7034821,51.2154765],[11.703897000000001,51.21539550000001],[11.704204200000001,51.2152571],[11.704516700000001,51.215064700000006],[11.7049532,51.214582],[11.705206500000001,51.214372700000006],[11.7054813,51.2142343],[11.7059663,51.214072300000005],[11.707356500000001,51.213802300000005],[11.7088414,51.21351000000001],[11.7100323,51.213267],[11.7106951,51.213189400000005],[11.7112487,51.2131795],[11.7120207,51.213165700000005],[11.712829000000001,51.213135400000006],[11.7133733,51.2130577],[11.7139822,51.2129531],[11.7145372,51.2129058],[11.7151677,51.212902400000004],[11.7157119,51.212828200000004],[11.7161592,51.212713400000005],[11.7165472,51.2125311],[11.7168974,51.2122442],[11.717182000000001,51.2118569],[11.717422000000001,51.2116278],[11.7177726,51.211513200000006],[11.7181879,51.2114607],[11.7189042,51.2114702],[11.7196168,51.211510800000006],[11.720096900000001,51.211513200000006],[11.720729400000002,51.211489300000004],[11.7216337,51.211482100000005],[11.7223126,51.211475400000005],[11.7226467,51.211418],[11.7229916,51.2113066],[11.7232233,51.2111682],[11.7234443,51.210850900000004],[11.723676000000001,51.2106179],[11.7239184,51.210466000000004],[11.7244627,51.2102567],[11.725394900000001,51.2100002],[11.7262517,51.209740200000006],[11.726742100000001,51.2096457],[11.727210900000001,51.2096018],[11.727825200000002,51.209598400000004],[11.728757400000001,51.209598400000004],[11.7294041,51.2096153],[11.7297802,51.2096153],[11.7300938,51.2096153],[11.7307728,51.2095883],[11.7313386,51.2095107],[11.731904400000001,51.209409400000006],[11.7328959,51.209220300000005],[11.7341838,51.20897050000001],[11.7352884,51.2088085],[11.7356081,51.208783200000006],[11.7356671,51.2087785],[11.7360428,51.208769700000005],[11.736414700000001,51.208781],[11.7366031,51.208791000000005],[11.7367194,51.208797100000005]]}},{"type":"Feature","properties":{"osmType":"way","osmId":160277892,"name":"Unstrut","waterway":"river"},"geometry":{"type":"LineString","coordinates":[[11.771377800000002,51.207798600000004],[11.771659300000001,51.207533100000006],[11.771970600000001,51.207162100000005],[11.772200300000002,51.2067009],[11.7723209,51.206368100000006],[11.772547000000001,51.2058855],[11.772885500000001,51.2054223],[11.774077700000001,51.2041234],[11.7742844,51.20387830000001],[11.7744139,51.2036366],[11.7745268,51.203300000000006],[11.774606700000001,51.202892500000004],[11.774622,51.202080900000006],[11.7746233,51.201934400000006],[11.774604,51.201616800000004],[11.774529600000001,51.201302500000004],[11.7742403,51.200580900000006],[11.774174200000001,51.20030980000001],[11.774223000000001,51.1999973],[11.7742403,51.1998748],[11.7743257,51.199379300000004],[11.7742871,51.199091],[11.7742079,51.19874170000001],[11.774042600000001,51.198410200000005],[11.7739104,51.1979959],[11.773888300000001,51.1976954],[11.773926900000001,51.1974157],[11.774015100000002,51.1971464],[11.774147300000001,51.1968874],[11.774560600000001,51.196195],[11.7746212,51.1958532],[11.7746267,51.195576900000006],[11.774681800000002,51.1953766],[11.774883,51.19508140000001],[11.7755387,51.1943855],[11.776012600000001,51.1936897],[11.776464500000001,51.193014500000004],[11.776748300000001,51.19240670000001],[11.7768861,51.1921097],[11.7771285,51.191697000000005],[11.7773517,51.1914432],[11.777866900000001,51.1909372],[11.7784235,51.1904952],[11.778712800000001,51.1902983],[11.7791536,51.1900704],[11.7797791,51.1897906],[11.7801869,51.189583400000004],[11.7804844,51.189331300000006],[11.7806653,51.189187600000004],[11.781019,51.1889065],[11.7813551,51.1886871],[11.7816196,51.188545500000004],[11.7818979,51.1884316],[11.782239500000001,51.188328000000006],[11.7826198,51.188239900000006],[11.783129500000001,51.188136300000004],[11.783859600000001,51.188046500000006],[11.7843499,51.188025100000004],[11.784819500000001,51.1879982],[11.785232500000001,51.1879506],[11.7855267,51.187893200000005],[11.7857819,51.18779790000001],[11.786701500000001,51.1872496],[11.7870152,51.187020100000005],[11.7872821,51.1867905],[11.7875061,51.1865365],[11.787673700000001,51.186293500000005],[11.787814000000001,51.186028500000006],[11.787878300000001,51.1857496],[11.7878977,51.185520000000004],[11.7878938,51.1851781],[11.787812,51.1849143],[11.787667800000001,51.184550400000006],[11.7874651,51.184005400000004],[11.787404800000001,51.1838415],[11.7873722,51.183701600000006],[11.787350700000001,51.1834459],[11.787374100000001,51.1829843],[11.787420000000001,51.182635100000006],[11.787795500000001,51.18111510000001],[11.7882247,51.179763300000005],[11.788492900000001,51.1791983],[11.7888362,51.178680400000005],[11.7897911,51.1777455],[11.790831800000001,51.1768712],[11.791185800000001,51.176635700000006],[11.791615,51.176514700000006],[11.7919476,51.176507900000004],[11.7923016,51.1765483],[11.7926879,51.1766761],[11.7934818,51.177194],[11.793975300000001,51.177395800000006],[11.794490300000001,51.177469800000004],[11.79485,51.177428500000005],[11.795370100000001,51.177368900000005],[11.7961104,51.1772007],[11.796538900000002,51.1770556],[11.7968592,51.1768749],[11.7972047,51.1765819],[11.7976661,51.1761246],[11.798331200000002,51.1758084],[11.7991144,51.175573],[11.7997668,51.1754893],[11.800292500000001,51.175496],[11.8008289,51.175543100000006],[11.8014834,51.175718],[11.801947700000001,51.1758527],[11.802006700000002,51.175862800000004]]}},{"type":"Feature","properties":{"osmType":"way","osmId":160277897,"name":"Unstrut","waterway":"river"},"geometry":{"type":"LineString","coordinates":[[11.802006700000002,51.175862800000004],[11.8022735,51.175908500000006]]}},{"type":"Feature","properties":{"osmType":"way","osmId":161143426,"name":"Unstrut","waterway":"river"},"geometry":{"type":"LineString","coordinates":[[11.676874600000001,51.2259989],[11.677610000000001,51.226075900000005]]}},{"type":"Feature","properties":{"osmType":"way","osmId":161143427,"name":"Unstrut","waterway":"river"},"geometry":{"type":"LineString","coordinates":[[11.6761718,51.225979800000005],[11.6765071,51.2258526],[11.676821200000001,51.225751900000006],[11.677262500000001,51.2256676],[11.677662600000001,51.2256161],[11.677946400000002,51.225614300000004],[11.678276100000001,51.225612700000006],[11.678294600000001,51.225686700000004],[11.678346300000001,51.2257995],[11.6784847,51.225898300000004],[11.6790351,51.2261201],[11.6793578,51.2262664]]}},{"type":"Feature","properties":{"osmType":"way","osmId":161143428,"name":"Unstrut","waterway":"river"},"geometry":{"type":"LineString","coordinates":[[11.678276100000001,51.225612700000006],[11.6785479,51.2255698],[11.678853700000001,51.2255532],[11.6791552,51.2255303],[11.679343800000002,51.2255121],[11.6795051,51.2254956],[11.6796389,51.2254896],[11.679883,51.225470300000005],[11.6800533,51.2254543],[11.6802411,51.22547530000001],[11.6807426,51.225604600000004],[11.6813958,51.2257558],[11.681885300000001,51.2258944],[11.682339800000001,51.2259636]]}},{"type":"Feature","properties":{"osmType":"way","osmId":161143429,"name":"Unstrut","waterway":"river"},"geometry":{"type":"LineString","coordinates":[[11.631768200000002,51.2494431],[11.631776400000001,51.249357],[11.631784600000001,51.2492808],[11.631912600000001,51.2490612],[11.6320905,51.248828700000004]]}},{"type":"Feature","properties":{"osmType":"way","osmId":161143430,"name":"Unstrut","waterway":"river"},"geometry":{"type":"LineString","coordinates":[[11.677610000000001,51.226075900000005],[11.677826600000001,51.226095300000004],[11.6782429,51.2261302],[11.6788822,51.226184200000006],[11.6791654,51.2262179],[11.6793578,51.2262664]]}},{"type":"Feature","properties":{"osmType":"way","osmId":161143431,"name":"Unstrut","waterway":"river"},"geometry":{"type":"LineString","coordinates":[[11.6761718,51.225979800000005],[11.676341500000001,51.2259651],[11.6764889,51.225968],[11.676695200000001,51.225983600000006],[11.676874600000001,51.2259989]]}},{"type":"Feature","properties":{"osmType":"way","osmId":161438659,"name":"Unstrut","waterway":"river"},"geometry":{"type":"LineString","coordinates":[[11.6386646,51.2856995],[11.6387522,51.285653100000005],[11.638929500000001,51.2855496],[11.639124800000001,51.2854061],[11.639380000000001,51.2851993],[11.6395119,51.28505680000001],[11.639686600000001,51.2848361],[11.6398151,51.284654],[11.639981200000001,51.284360400000004],[11.6401166,51.2841633],[11.640239900000001,51.283999400000006],[11.6403718,51.283882600000005],[11.640520800000001,51.2837594],[11.6406904,51.283661900000006],[11.640853100000001,51.283594400000005],[11.6410672,51.2835333],[11.6412454,51.2834926],[11.6414646,51.283476500000006],[11.6417474,51.2834901],[11.6420385,51.28350330000001],[11.642547200000001,51.2835515],[11.642783600000001,51.283563300000004],[11.642966900000001,51.2835526],[11.643186100000001,51.283513000000006],[11.6435835,51.283414400000005],[11.643902200000001,51.283283700000005],[11.6443098,51.283079],[11.644553100000001,51.282946200000005],[11.6450104,51.282648300000005],[11.6452228,51.2824898],[11.645445500000001,51.282261600000005],[11.645606500000001,51.2820387],[11.645747,51.281748400000005],[11.645964500000002,51.281284400000004],[11.6461705,51.2809876],[11.646529000000001,51.2806633],[11.6468682,51.2804209],[11.647284800000001,51.2802209],[11.6476482,51.2800663],[11.6480891,51.279836],[11.6483895,51.2796299],[11.648670500000001,51.279414700000004],[11.6490193,51.2790783],[11.649182300000001,51.27886]]}},{"type":"Feature","properties":{"osmType":"way","osmId":161442760,"name":"Unstrut","waterway":"river"},"geometry":{"type":"LineString","coordinates":[[11.632422100000001,51.248427500000005],[11.632500700000001,51.2483275],[11.6326485,51.2481597],[11.6327215,51.2480769],[11.6329127,51.2478721],[11.6329671,51.247595100000005],[11.6329832,51.247370700000005],[11.6329712,51.247247300000005],[11.6329591,51.247102100000006],[11.6329832,51.246961000000006],[11.633112,51.246757900000006],[11.6332582,51.246557200000005],[11.6334406,51.246336500000005],[11.633568,51.246203],[11.6336565,51.245905],[11.6337718,51.245544800000005],[11.633885800000002,51.2452971],[11.6339985,51.245117500000006],[11.634146000000001,51.244942900000005],[11.634315,51.244826200000006],[11.6345004,51.2447104],[11.6348018,51.24463900000001],[11.635155800000001,51.244544100000006],[11.635435300000001,51.2444676],[11.636223600000001,51.2443461],[11.6365662,51.244278900000005],[11.6370883,51.2441304],[11.6376434,51.243967600000005],[11.637758900000001,51.2439363],[11.638021100000001,51.243874600000005],[11.6382329,51.243838800000006],[11.6385473,51.2438281],[11.638941500000001,51.2438255],[11.639478100000002,51.2438177],[11.6399445,51.2437557],[11.6401182,51.243728600000004],[11.6403742,51.24355550000001],[11.640471600000001,51.2435161],[11.640830300000001,51.2431915],[11.6414199,51.2426557],[11.6418674,51.242251],[11.642285900000001,51.242072400000005],[11.642476400000001,51.242026],[11.642674000000001,51.2420106],[11.643231400000001,51.242006200000006],[11.643531300000001,51.2420393],[11.6436936,51.2420503],[11.6439546,51.242103300000004],[11.6442686,51.242174000000006],[11.6446743,51.2422425],[11.645284700000001,51.242319800000004],[11.646045,51.242342],[11.646597100000001,51.242445700000005],[11.647362600000001,51.242620200000005],[11.648202300000001,51.242794800000006],[11.6487599,51.2429489],[11.6494204,51.243156400000004],[11.6497971,51.2432979],[11.650435,51.243610800000006],[11.650834300000001,51.24379630000001],[11.6518037,51.244217600000006],[11.652255700000001,51.2444472],[11.6528484,51.244730100000005],[11.653383400000001,51.244973800000004],[11.653913300000001,51.2452175],[11.6542372,51.24537],[11.6545989,51.245550800000004],[11.6549078,51.2457536],[11.6553523,51.2460649],[11.655603500000002,51.2462802],[11.6558069,51.2465616],[11.656236300000002,51.2470568],[11.656377,51.2472282],[11.6565226,51.247355500000005],[11.6569094,51.247605500000006],[11.6572002,51.2477615],[11.6572201,51.247772000000005],[11.6574519,51.2478963],[11.658135000000001,51.2483129],[11.658674900000001,51.2486807],[11.658853200000001,51.248773500000006],[11.659099300000001,51.2488505],[11.6598553,51.249009300000004],[11.660312300000001,51.249111500000005],[11.6605635,51.249197900000006],[11.660739300000001,51.249319],[11.6609678,51.249506000000004],[11.6610507,51.2496444],[11.661085900000002,51.2498063],[11.661070800000001,51.249944600000006],[11.6610055,51.250145800000006],[11.660912600000001,51.2503187],[11.6606941,51.250590700000004],[11.6606413,51.2507133],[11.660628800000001,51.2508642],[11.660616200000002,51.2509962],[11.6606514,51.251089],[11.6607091,51.251184900000005],[11.6608397,51.251298000000006],[11.661058200000001,51.2514206],[11.6612466,51.251483500000006],[11.6616032,51.251579400000004],[11.6620377,51.251689400000004],[11.6621833,51.251724],[11.662313900000001,51.2517853],[11.6625048,51.2519221],[11.662778600000001,51.25214690000001],[11.663079900000001,51.2523622],[11.6633562,51.2525477],[11.663657500000001,51.25270020000001],[11.6641347,51.2529375],[11.664431,51.2530535],[11.664692200000001,51.25312460000001],[11.6649132,51.25316230000001],[11.6653929,51.2532629],[11.665953,51.253344600000005],[11.6662418,51.253363500000006],[11.666518,51.253354],[11.6668269,51.2533085],[11.667505,51.253167000000005],[11.667879200000002,51.2530963],[11.6680776,51.253072700000004],[11.668276,51.25309],[11.668499500000001,51.2531387],[11.668934,51.253310000000006],[11.669745200000001,51.2536684],[11.669991300000001,51.2537454],[11.670255000000001,51.253803600000005],[11.6708402,51.253871200000006],[11.6714002,51.2538932],[11.6719,51.253886900000005],[11.672131,51.2538665],[11.672387200000001,51.25379890000001],[11.672598200000001,51.2537077],[11.6728141,51.253530100000006],[11.6731256,51.2532377],[11.6736906,51.2528621],[11.673987,51.2527064],[11.6744491,51.252519400000004],[11.6749539,51.2523465],[11.6753532,51.252172],[11.675893100000001,51.251923600000005],[11.6762548,51.2517052],[11.676483300000001,51.251518100000006],[11.6765787,51.2513735],[11.676646600000002,51.251142400000006],[11.6767018,51.2508752],[11.676792200000001,51.2506913],[11.676910300000001,51.2505577],[11.677076000000001,51.250449200000006],[11.6772644,51.2503832],[11.6775356,51.2503344],[11.677852000000001,51.2502653],[11.678105700000001,51.25016],[11.678241300000002,51.2500688],[11.678361800000001,51.249954],[11.6784548,51.2497874],[11.6785653,51.2495673],[11.6787185,51.2494038],[11.6789194,51.249232500000005],[11.679145400000001,51.2490674],[11.679424200000001,51.248842700000004],[11.679612500000001,51.248610000000006],[11.6797657,51.248378900000006],[11.6798888,51.2480959],[11.6799491,51.2478397],[11.6800169,51.2473304],[11.6800294,51.247135400000005],[11.6799943,51.2468823],[11.6799365,51.2467424],[11.6798059,51.246555300000004],[11.679564800000001,51.2463604],[11.679281000000001,51.2461026],[11.6791529,51.245945400000004],[11.6790625,51.245800700000004],[11.679072600000001,51.245648300000006],[11.679120300000001,51.245516200000004],[11.679260900000001,51.2453464],[11.6795246,51.245124700000005],[11.6797356,51.244992700000005],[11.680145000000001,51.244694],[11.6803509,51.244590200000005],[11.680602,51.2444927],[11.680815500000001,51.244433],[11.6810214,51.2443874],[11.681277600000001,51.244359100000004],[11.6815639,51.244323],[11.6816359,51.244306200000004],[11.6817604,51.244277000000004],[11.681931200000001,51.2441795],[11.682107,51.244006600000006],[11.682182300000001,51.243861900000006],[11.682197400000002,51.24366070000001],[11.6821421,51.243428],[11.682041700000001,51.243251900000004],[11.6818659,51.242991],[11.681770400000001,51.242720500000004],[11.6817001,51.242368400000004],[11.6816901,51.2420382],[11.681454,51.2412709],[11.681147600000001,51.2400603],[11.6809819,51.2396169],[11.680896500000001,51.239349600000004],[11.680833100000001,51.2390848]]}},{"type":"Feature","properties":{"osmType":"way","osmId":161442763,"name":"Unstrut","waterway":"river"},"geometry":{"type":"LineString","coordinates":[[11.6330693,51.2482376],[11.632998,51.2481159],[11.6329387,51.247989100000005],[11.6329127,51.2478721]]}},{"type":"Feature","properties":{"osmType":"way","osmId":161442764,"name":"Unstrut","waterway":"river"},"geometry":{"type":"LineString","coordinates":[[11.680833100000001,51.2390848],[11.680739800000001,51.2383716],[11.680698000000001,51.237649100000006],[11.6804278,51.236964400000005],[11.679981300000001,51.2362666],[11.6792409,51.235597000000006],[11.679138,51.235513700000006],[11.6784137,51.234942000000004],[11.6780895,51.234738400000005],[11.6776611,51.2345959],[11.6767628,51.2344073],[11.675838800000001,51.234200200000004],[11.674940300000001,51.2339217],[11.674300800000001,51.2337234],[11.6738111,51.2336077],[11.6734693,51.233558800000004],[11.673102700000001,51.233525],[11.672438600000001,51.233454300000005],[11.6720521,51.233365000000006],[11.6716809,51.23321180000001],[11.671380200000002,51.233014100000005],[11.671137700000001,51.232804200000004],[11.6708926,51.232513700000005],[11.6707874,51.2323286],[11.670717400000001,51.2321316],[11.6706702,51.2319084],[11.6706941,51.2316912],[11.670713600000001,51.2313002],[11.6707192,51.231061800000006],[11.6707345,51.230444500000004],[11.6707569,51.2300137],[11.670820200000001,51.2296744],[11.670959,51.229395700000005],[11.671187100000001,51.2291335],[11.671676900000001,51.2286604],[11.672256500000001,51.2282085],[11.6725998,51.2279689],[11.6729409,51.227742500000005],[11.673474200000001,51.227473800000006],[11.6740533,51.227205500000004],[11.674264800000001,51.2270946],[11.6744526,51.2269737],[11.6748122,51.226667400000004],[11.675308300000001,51.226372100000006],[11.6761718,51.225979800000005]]}},{"type":"Feature","properties":{"osmType":"way","osmId":174763844,"name":"Unstrut","waterway":"river"},"geometry":{"type":"LineString","coordinates":[[11.466151,51.2762795],[11.466268600000001,51.2761939],[11.4663831,51.2761294],[11.4669878,51.2758759],[11.4670751,51.2758352],[11.467138100000001,51.275786000000004],[11.4671827,51.275717500000006],[11.4672031,51.2756333],[11.4671938,51.2755535],[11.4671737,51.275468000000004]]}},{"type":"Feature","properties":{"osmType":"way","osmId":174763846,"name":"Unstrut","waterway":"river"},"geometry":{"type":"LineString","coordinates":[[11.466151,51.2762795],[11.466258700000001,51.276276700000004],[11.466522600000001,51.276270000000004],[11.4668804,51.276282200000004],[11.467064200000001,51.276255500000005],[11.4671964,51.2762121],[11.467307600000002,51.276163200000006],[11.467516700000001,51.2760551],[11.467705200000001,51.2759246],[11.4677866,51.2758302],[11.4678483,51.2757608],[11.467953900000001,51.275586800000006],[11.4679984,51.275455300000004],[11.468004500000001,51.2753182],[11.467976,51.2752241],[11.4679222,51.275124500000004],[11.4678181,51.274995700000005],[11.4677004,51.2748858],[11.46723,51.2745906],[11.467038800000001,51.274449100000005],[11.466953100000001,51.274311100000006]]}},{"type":"Feature","properties":{"osmType":"way","osmId":174763849,"name":"Unstrut","waterway":"river"},"geometry":{"type":"LineString","coordinates":[[11.4670509,51.275031000000006],[11.4669541,51.274645400000004],[11.466953100000001,51.274311100000006]]}},{"type":"Feature","properties":{"osmType":"way","osmId":174765624,"name":"Unstrut","waterway":"river"},"geometry":{"type":"LineString","coordinates":[[11.346328300000001,51.328809400000004],[11.347025400000001,51.328603300000005],[11.3484444,51.3282238],[11.349745200000001,51.327882100000004],[11.35086,51.327587400000006],[11.351491900000001,51.3274053],[11.3518836,51.327283300000005],[11.3522099,51.327142800000004],[11.3525554,51.326972600000005],[11.352941300000001,51.3267247],[11.3536702,51.3262124],[11.3541214,51.325923700000004],[11.3545963,51.3256499],[11.3553631,51.3252846],[11.3560513,51.325029400000005],[11.3567633,51.324778],[11.3575938,51.3245451],[11.358367900000001,51.32436130000001],[11.359358400000001,51.3241396],[11.3601948,51.323917900000005],[11.3611249,51.3236089],[11.3620505,51.3232835],[11.3628105,51.322940100000004],[11.3634839,51.322519],[11.3640155,51.322173500000005],[11.3646445,51.3218108],[11.3647959,51.321729700000006],[11.365192700000001,51.3215377],[11.3652324,51.3215195],[11.3653288,51.321474300000006],[11.3666183,51.320784100000004],[11.366857300000001,51.3206763],[11.3671279,51.3205918],[11.3677541,51.320452700000004],[11.3680833,51.320393100000004],[11.3684306,51.320355400000004],[11.368694000000001,51.320350700000006],[11.368963500000001,51.3203692],[11.370174800000001,51.320462000000006],[11.3707303,51.320487500000006],[11.3710892,51.3204842],[11.371428900000002,51.3204599],[11.371892500000001,51.320410700000004],[11.3722838,51.3203436],[11.3726053,51.3202584],[11.372926300000001,51.3201528],[11.3732336,51.319996100000004],[11.375574100000001,51.3186407],[11.3758347,51.318476000000004],[11.3760513,51.318332000000005],[11.3763377,51.3181306],[11.376638400000001,51.3178836],[11.376942000000001,51.317614000000006],[11.377300700000001,51.3172681],[11.3775489,51.3169909],[11.377845,51.316652000000005],[11.379531700000001,51.3143958],[11.3797061,51.3141813],[11.379930600000002,51.313962800000006],[11.3801798,51.313762100000005],[11.380497400000001,51.313546300000006],[11.38199,51.312628600000004],[11.382341,51.3123918],[11.3827595,51.3120896],[11.383544200000001,51.3114549],[11.3837671,51.3113067],[11.3840786,51.311112800000004],[11.384892800000001,51.310635500000004],[11.3852106,51.3104213],[11.3864532,51.309534600000006],[11.386603200000001,51.309440800000004],[11.386837900000002,51.3093292],[11.3871506,51.309198200000004],[11.3874901,51.3090995],[11.387947700000002,51.309003000000004],[11.3882732,51.3089658],[11.389615000000001,51.308840200000006],[11.389929400000002,51.308801200000005],[11.390164,51.308758100000006],[11.390377200000001,51.308696100000006],[11.390595300000001,51.3086105],[11.390847800000001,51.308481300000004],[11.3912467,51.3082165],[11.391448,51.3080403],[11.3916122,51.3078568],[11.39175,51.30767],[11.3918584,51.307446600000006],[11.3919539,51.307204000000006],[11.392265400000001,51.306321100000005],[11.3923213,51.306215],[11.392414700000002,51.306066300000005],[11.3925266,51.3059488],[11.3926668,51.3058477],[11.3936036,51.305314900000006],[11.3937515,51.305227200000004],[11.393895,51.3051054],[11.3939654,51.3049922],[11.394001600000001,51.304894600000004],[11.394057,51.304627200000006],[11.3940987,51.304425900000005],[11.3941397,51.304315],[11.3942156,51.304177300000006],[11.3943387,51.304050600000004],[11.3945422,51.303905500000006],[11.3958138,51.3030898],[11.396099000000001,51.3029352],[11.396316,51.302826700000004],[11.396539500000001,51.302738700000006],[11.3968067,51.3026661],[11.3970444,51.302628500000004],[11.397332,51.3025991],[11.3976223,51.302589100000006],[11.397923,51.30259100000001],[11.3982376,51.302615700000004],[11.3989677,51.3027285],[11.3993076,51.302775000000004],[11.399700500000002,51.3027986],[11.400011800000001,51.3028002],[11.400340100000001,51.302785400000005],[11.4006869,51.3027377],[11.401021700000001,51.3026562],[11.401538700000001,51.302479600000005],[11.4015844,51.30246270000001],[11.4016804,51.3024312],[11.401897700000001,51.30234960000001],[11.4021282,51.302241],[11.4023266,51.302123200000004],[11.4024944,51.3019837],[11.4026922,51.3017966],[11.403115000000001,51.301352400000006],[11.403344200000001,51.3011611],[11.403553700000002,51.3010449],[11.403826800000001,51.300949700000004],[11.4042185,51.30084050000001],[11.404541100000001,51.3007769],[11.404914400000001,51.300728400000004],[11.405512900000002,51.300694],[11.406106000000001,51.3006648],[11.4066218,51.3006499],[11.406922400000001,51.3006334],[11.4071844,51.3005998],[11.4078014,51.300479100000004],[11.408057000000001,51.3004368],[11.4083459,51.3004023],[11.4089899,51.3003635],[11.4093196,51.3003341],[11.4097033,51.3002936],[11.4100137,51.3002273],[11.410301200000001,51.300129000000005],[11.4105193,51.3000314],[11.411091,51.2997487],[11.4114059,51.2996087],[11.411881800000002,51.299407900000006],[11.415111600000001,51.29824970000001],[11.416954,51.297664600000004],[11.418301900000001,51.2972332],[11.418528100000001,51.297109600000006],[11.418702300000001,51.2969572],[11.418824500000001,51.296791000000006],[11.4188598,51.2967214],[11.4190337,51.296360500000006],[11.4191438,51.296173],[11.419277300000001,51.2959608],[11.419420200000001,51.2957844],[11.4196193,51.295596700000004],[11.4198409,51.2953982],[11.420076700000001,51.295197800000004],[11.420316600000001,51.295016600000004],[11.4206988,51.294774700000005],[11.4210378,51.2946048],[11.421230300000001,51.294503500000005],[11.4217554,51.2942594],[11.4221471,51.2940887],[11.4226401,51.2939176],[11.4233224,51.2936941],[11.425340700000001,51.2930933],[11.425908300000001,51.2929163],[11.4263768,51.2927468],[11.426737300000001,51.29261150000001],[11.4269251,51.292541],[11.427073400000001,51.2924767],[11.427275300000002,51.2923896],[11.427377,51.2923332],[11.427461000000001,51.292287200000004],[11.4275816,51.292219700000004],[11.4278103,51.2920554],[11.428403900000001,51.291514400000004],[11.4286863,51.291297],[11.4289889,51.291123500000005],[11.429286300000001,51.2909725],[11.4296292,51.2908357],[11.4300201,51.2906996],[11.4313699,51.290292],[11.4317834,51.2901949],[11.432237800000001,51.2901114],[11.4334102,51.28992950000001],[11.4339235,51.28983100000001],[11.434431100000001,51.2897224],[11.4349185,51.289600500000006],[11.435373100000001,51.289463000000005],[11.435813600000001,51.2893272],[11.436190700000001,51.2892018],[11.436593,51.2890437],[11.437023,51.288866500000005],[11.4374949,51.288661000000005],[11.4391125,51.2878472],[11.439653,51.287559200000004],[11.4401442,51.2872768],[11.440627600000001,51.2869764],[11.4409843,51.286707],[11.441173500000001,51.2865222],[11.4413336,51.286340100000004],[11.442097,51.285297],[11.442264900000001,51.2850522],[11.442522700000001,51.2845779],[11.4426593,51.2843188],[11.442700400000001,51.284240700000005],[11.4430507,51.283491700000006],[11.4431724,51.283303700000005],[11.4433474,51.283144300000004],[11.4435678,51.2829795],[11.443898,51.2828054],[11.4444222,51.2826007],[11.444923500000002,51.2824478],[11.4457824,51.2822296],[11.4466856,51.2820498],[11.447337500000001,51.2819682],[11.4490482,51.2818253],[11.449530800000002,51.2817729],[11.4499753,51.2817099],[11.4503413,51.28160140000001],[11.4506651,51.281446700000004],[11.4515899,51.2809102],[11.451938,51.2806962],[11.4521496,51.280526800000004],[11.4522721,51.280391400000006],[11.452361300000002,51.2802931],[11.4528487,51.279735300000006],[11.453108700000001,51.279495000000004],[11.453444900000001,51.2792772],[11.453831600000001,51.2791049]]}},{"type":"Feature","properties":{"osmType":"way","osmId":174765626,"name":"Unstrut","waterway":"river"},"geometry":{"type":"LineString","coordinates":[[11.453831600000001,51.2791049],[11.4541836,51.2789651],[11.4545414,51.2787828],[11.454959800000001,51.2785303],[11.4552256,51.278328],[11.4554942,51.2781006],[11.4555763,51.2780289],[11.4564327,51.2772809],[11.456658500000001,51.277161400000004],[11.4569422,51.277041100000005],[11.457275600000001,51.2769393],[11.457685600000001,51.2768561],[11.4584875,51.276737100000005],[11.4591621,51.2766698],[11.460029200000001,51.2765992],[11.4607901,51.276590500000005],[11.4616463,51.2765914],[11.462584600000001,51.2766249],[11.4634199,51.276660500000006],[11.463594800000001,51.2766602],[11.4638123,51.2766408],[11.4654422,51.27635780000001],[11.465924000000001,51.276299],[11.466151,51.2762795]]}},{"type":"Feature","properties":{"osmType":"way","osmId":174765627,"name":"Unstrut","waterway":"river"},"geometry":{"type":"LineString","coordinates":[[11.466953100000001,51.274311100000006],[11.4669713,51.2741563],[11.4670612,51.2740159],[11.467213800000001,51.2738899],[11.4674188,51.2737769],[11.467681800000001,51.2736956],[11.468003600000001,51.27365],[11.4684009,51.27362170000001],[11.468861200000001,51.2736163],[11.4691664,51.273636200000006],[11.469471100000002,51.2736978],[11.469712600000001,51.2737623],[11.470634700000002,51.2741442],[11.471004500000001,51.2742627],[11.471444100000001,51.27435860000001],[11.4741332,51.274667900000004],[11.4745208,51.274669300000006],[11.474901200000001,51.2746208],[11.4758393,51.2743697],[11.4773972,51.2739526],[11.4787727,51.273549300000006],[11.4796153,51.2732876],[11.4801357,51.2730564],[11.480504900000001,51.272818900000004],[11.4807743,51.2725979],[11.4811306,51.272275],[11.481299900000002,51.2720454],[11.4814009,51.271767100000005],[11.4814564,51.2714912],[11.481548700000001,51.2713009],[11.4817152,51.271044800000006],[11.482516500000001,51.2700766],[11.4826729,51.269797600000004],[11.482768,51.2695165],[11.482845500000002,51.2691716],[11.483086100000001,51.267887900000005],[11.4831926,51.267634300000005],[11.4832955,51.2675026],[11.4834531,51.267357100000005]]}},{"type":"Feature","properties":{"osmType":"way","osmId":174765628,"name":"Unstrut","waterway":"river"},"geometry":{"type":"LineString","coordinates":[[11.4834531,51.267357100000005],[11.483614900000001,51.2672383],[11.483793400000001,51.26715840000001],[11.483961500000001,51.267095700000006],[11.484309600000001,51.2670321],[11.484750100000001,51.2669969],[11.4851621,51.266994200000006],[11.4870496,51.2670886],[11.4877078,51.2671483],[11.4883843,51.2672408],[11.4897293,51.267452500000005],[11.490261700000001,51.2675155],[11.4908128,51.267566],[11.4930214,51.2676845],[11.4934606,51.2676723],[11.4938917,51.267622800000005],[11.4954747,51.267278100000006],[11.495719000000001,51.2672352],[11.495867200000001,51.267225100000005],[11.4960416,51.2672268],[11.496314900000002,51.267266000000006],[11.4974153,51.2674657],[11.4978005,51.2675246],[11.4981039,51.2675653],[11.499025600000001,51.2676455],[11.499618600000002,51.267706100000005],[11.4999783,51.267772400000005],[11.500255300000001,51.267842900000005],[11.500507800000001,51.2679496],[11.5008186,51.2681454],[11.501002600000001,51.268336500000004],[11.5027691,51.2702924],[11.503125500000001,51.270594700000004],[11.5034422,51.270809500000006],[11.5043808,51.271412000000005],[11.5052994,51.271926400000005],[11.505930300000001,51.272249900000006],[11.506612800000001,51.2725864],[11.5070317,51.27283550000001],[11.5073833,51.2731104],[11.5077602,51.2733817],[11.507920200000001,51.2734919],[11.5082261,51.273679800000004],[11.5088013,51.27398650000001],[11.5091494,51.274131000000004],[11.509532700000001,51.274210100000005],[11.510008800000001,51.274236],[11.5105622,51.274249000000005],[11.510950300000001,51.274268400000004],[11.5112872,51.2743364],[11.5115452,51.274427800000005],[11.512218800000001,51.2746829],[11.5126649,51.274886200000005],[11.5133928,51.2752823],[11.5136997,51.2754416],[11.5142501,51.2757274],[11.514739200000001,51.275935000000004],[11.5152015,51.2760703],[11.515766900000001,51.2761671],[11.5165252,51.276252400000004],[11.517274400000002,51.2762886],[11.5197278,51.2763307],[11.520264200000002,51.276315700000005],[11.520703200000002,51.276257900000004],[11.5210945,51.276155],[11.5217738,51.275944300000006],[11.5226164,51.2756562],[11.5232731,51.2753845],[11.5239512,51.275094800000005],[11.524483100000001,51.274834600000005],[11.5248883,51.274596200000005],[11.525248300000001,51.274307300000004],[11.525734400000001,51.273835000000005],[11.5262808,51.273316900000005],[11.527439900000001,51.2722892],[11.5279371,51.271875],[11.5282642,51.271601200000006],[11.5285287,51.271346900000005],[11.5286507,51.271150000000006],[11.5287559,51.270912900000006],[11.5289549,51.270264100000006],[11.5291195,51.2699519],[11.5292726,51.2697305],[11.5294828,51.2694965]]}},{"type":"Feature","properties":{"osmType":"way","osmId":174811397,"name":"Unstrut","waterway":"river"},"geometry":{"type":"LineString","coordinates":[[11.5294828,51.2694965],[11.5298409,51.2691712],[11.5302912,51.268886200000004],[11.5307204,51.2686733],[11.5311576,51.268489900000006],[11.5315607,51.268349],[11.532071100000001,51.2682147],[11.5326339,51.268114800000006],[11.533065800000001,51.268062400000005],[11.5336862,51.268033],[11.5342909,51.268041100000005],[11.534848400000001,51.2680804],[11.5355447,51.2681394],[11.5362384,51.2682311],[11.5375917,51.268468600000006],[11.538036700000001,51.26853740000001],[11.5386623,51.2686422],[11.539191,51.268711],[11.540520800000001,51.268827300000005],[11.541039000000001,51.268874800000006],[11.541450000000001,51.268933700000005],[11.5418348,51.2690107],[11.5423217,51.269148300000005],[11.5428808,51.2693305],[11.5433556,51.2695282],[11.543750900000001,51.269728],[11.5442912,51.2700377],[11.5446252,51.2702292],[11.5451277,51.2705239],[11.545537900000001,51.270749200000004],[11.5461329,51.271075800000006],[11.5466067,51.2713297],[11.547104000000001,51.271577],[11.5486798,51.2723123],[11.5488987,51.272405500000005],[11.5490594,51.2724728],[11.549467700000001,51.272625100000006],[11.550001700000001,51.272775700000004],[11.5504546,51.272875600000006],[11.5509336,51.272941100000004],[11.5514676,51.272978800000004],[11.5519806,51.2730132],[11.552378500000001,51.2730557],[11.554423900000002,51.2734315],[11.5549044,51.2735259],[11.5561431,51.273823900000004],[11.5563321,51.2738766],[11.5564855,51.2739193],[11.556804900000001,51.27398590000001],[11.5571377,51.2740147],[11.558596000000001,51.274135400000006],[11.5591402,51.274188],[11.559488100000001,51.2742512],[11.560021200000001,51.27438110000001],[11.560481300000001,51.274521500000006],[11.5620917,51.2751323],[11.562669600000001,51.2753358],[11.5631185,51.2754587],[11.563696400000001,51.275578],[11.566831800000001,51.2760528],[11.5672651,51.2761432],[11.5676298,51.2762309],[11.568002,51.2763683],[11.568308100000001,51.276527900000005],[11.568593700000001,51.2767034],[11.568940600000001,51.2769586],[11.5692926,51.277236200000004],[11.5706953,51.278534900000004],[11.5709861,51.278844400000004],[11.5713024,51.279179500000005],[11.5715319,51.2794826],[11.571746200000002,51.2797762],[11.5719502,51.280133500000005],[11.5722205,51.2806951],[11.5723532,51.281058800000004],[11.5724654,51.2814513],[11.5725215,51.2818565],[11.572608200000001,51.2822904],[11.5726796,51.282635000000006],[11.572720400000001,51.282970000000006],[11.5727466,51.284590300000005],[11.572797000000001,51.285174600000005],[11.572853100000001,51.28547450000001],[11.572980600000001,51.2859179],[11.5730979,51.286428400000005],[11.573455000000001,51.2878034],[11.573506,51.288144700000004],[11.573521300000001,51.2884733],[11.5734958,51.28873170000001],[11.5734244,51.2889774],[11.573327500000001,51.289223],[11.573128500000001,51.2895261],[11.572888800000001,51.289825900000004],[11.572608200000001,51.2901545],[11.5723634,51.2903619],[11.5720624,51.290575600000004],[11.570453800000001,51.2916887],[11.5700125,51.2919392],[11.569537200000001,51.2921897],[11.5690959,51.2924997],[11.568668200000001,51.292809600000005],[11.568043600000001,51.293289400000006],[11.5677041,51.293616300000004],[11.567585600000001,51.2937724],[11.567514000000001,51.2938668],[11.5673714,51.2942107],[11.5673103,51.294503600000006],[11.567357900000001,51.294813500000004],[11.567480100000001,51.295098],[11.5676254,51.2953145],[11.567637900000001,51.2953331],[11.567710900000002,51.2954419],[11.5680096,51.295773000000004],[11.5682676,51.295981000000005],[11.569374300000002,51.296715500000005],[11.569707000000001,51.296906500000006],[11.570094000000001,51.2970678],[11.5705489,51.297203700000004],[11.571064900000001,51.2973395],[11.5717099,51.297471200000004],[11.5722191,51.2975645],[11.572823300000001,51.297645200000005],[11.5734276,51.297674900000004],[11.5748262,51.2976961],[11.5754237,51.297683400000004],[11.575994000000001,51.297641000000006],[11.5768494,51.2975858],[11.5778203,51.2975645],[11.5788998,51.2975433],[11.5794362,51.2975688],[11.5798979,51.297619700000006],[11.580542900000001,51.2977089],[11.580806500000001,51.297752100000004],[11.5842974,51.298324400000006],[11.584854100000001,51.2984093],[11.5853158,51.298456],[11.5858454,51.2984858],[11.5863885,51.2984815],[11.5868163,51.2984433],[11.587284700000001,51.298349900000005],[11.587814300000002,51.298231],[11.5883371,51.29808250000001],[11.5887512,51.297908400000004],[11.5892537,51.297666400000004],[11.589661000000001,51.297411700000005],[11.5900548,51.297123000000006],[11.590186500000002,51.29700020000001],[11.590455400000002,51.296749500000004],[11.5908016,51.2963886],[11.591175100000001,51.296019300000005],[11.591555300000001,51.295705100000006],[11.592057700000002,51.2954122],[11.592770600000001,51.295042800000004],[11.593340900000001,51.294788100000005],[11.593904400000001,51.2946098],[11.5944815,51.294478100000006],[11.594835400000001,51.2943962],[11.5950314,51.294350800000004],[11.5952487,51.294278600000005],[11.5954727,51.2941937],[11.595814500000001,51.2940203],[11.595948,51.2939559],[11.596362200000002,51.2936927],[11.596436800000001,51.293639500000005],[11.5968171,51.2933785],[11.598032400000001,51.292559100000005],[11.5984329,51.2922492],[11.598752000000001,51.2919562],[11.5992137,51.2914977],[11.5996822,51.291107100000005],[11.6000081,51.290839600000005],[11.6003407,51.290618800000004],[11.6006938,51.290449],[11.601263000000001,51.29022500000001],[11.601298100000001,51.2902112],[11.6018276,51.2899946],[11.602235,51.289795100000006],[11.602622,51.289574300000005],[11.602907100000001,51.2893832],[11.603267,51.289111500000004],[11.6035453,51.288852500000004],[11.604421100000001,51.288013400000004],[11.6048404,51.287611500000004],[11.605232,51.2872739],[11.6060438,51.2866341],[11.6061587,51.2865497],[11.6063542,51.28640600000001],[11.6067517,51.2861539],[11.607176500000001,51.2859496],[11.6076555,51.2857757],[11.6081239,51.2856499],[11.608733800000001,51.285527300000005],[11.6092963,51.285464700000006],[11.609866400000001,51.2854353],[11.611418400000002,51.285459200000005],[11.611930200000002,51.2854864],[11.612508400000001,51.2855403],[11.614565800000001,51.2857691],[11.615339,51.285861100000005],[11.616141500000001,51.2859703],[11.6169399,51.286116500000006],[11.617745600000001,51.286295300000006],[11.6181923,51.286399100000004],[11.618551700000001,51.286477500000004],[11.619025500000001,51.28654220000001],[11.6205677,51.286725700000005],[11.621720900000001,51.286841900000006],[11.6227719,51.2869236],[11.6235567,51.286961500000004],[11.6245416,51.2869849],[11.625294400000001,51.286964000000005],[11.6265455,51.2869815],[11.626888500000002,51.287005400000005],[11.627441300000001,51.2870751],[11.6309255,51.2874732],[11.6315443,51.2875298],[11.632079000000001,51.28756550000001],[11.632747700000001,51.287553700000004],[11.6332813,51.287516200000006],[11.6338735,51.2874155],[11.63461,51.287254000000004],[11.6357809,51.286952500000005],[11.6360399,51.286861],[11.6362436,51.2867601],[11.6365812,51.2865218],[11.6368589,51.286280000000005],[11.637137300000001,51.2861239],[11.637447,51.286021100000006],[11.637811800000001,51.285922400000004],[11.638312800000001,51.2858066],[11.6386646,51.2856995]]}},{"type":"Feature","properties":{"osmType":"way","osmId":244848410,"name":"Unstrut","waterway":"river"},"geometry":{"type":"LineString","coordinates":[[11.649182300000001,51.27886],[11.649329400000001,51.2786631],[11.649571600000002,51.278247900000004],[11.6496782,51.278041800000004],[11.649750200000001,51.2779396],[11.649808,51.277857600000004],[11.6499146,51.277794],[11.649953400000001,51.2777424],[11.6499777,51.277630900000005],[11.650011500000002,51.277504500000006],[11.6500503,51.2773515],[11.650096300000001,51.277186300000004],[11.650130200000001,51.277045400000006],[11.6504641,51.276464100000005],[11.650866200000001,51.2757458],[11.651132700000002,51.2751275],[11.651278000000001,51.2748062],[11.6512829,51.2745698],[11.6512393,51.2744213],[11.651060000000001,51.274090900000004],[11.6508032,51.2737332],[11.650333300000002,51.273272500000004],[11.650062,51.2730058],[11.6498924,51.2727603],[11.649718,51.272439000000006],[11.649621100000001,51.2721147],[11.649533900000002,51.271608500000006],[11.649461200000001,51.271269000000004],[11.6492771,51.2709022],[11.6490252,51.2705264],[11.648753800000001,51.270226300000004],[11.648545200000001,51.2700431],[11.648287600000002,51.269823],[11.648038000000001,51.269629],[11.647677100000001,51.269365300000004],[11.6471538,51.269039400000004],[11.646901900000001,51.268919700000005],[11.646635400000001,51.2688287],[11.646102500000001,51.2686665],[11.6454654,51.2684938],[11.645043900000001,51.2683619],[11.6445255,51.2681118],[11.643774500000001,51.2677405],[11.6433151,51.267552300000006],[11.642941700000002,51.267425900000006],[11.642534000000001,51.2673251],[11.6421948,51.2672715],[11.6416433,51.267222200000006],[11.640999200000001,51.2672115],[11.6404305,51.2672158],[11.640187300000001,51.2671879],[11.6399509,51.2671215],[11.639762500000002,51.26704],[11.639598000000001,51.266898600000005],[11.6395055,51.26675710000001],[11.6393274,51.266519100000004],[11.639228000000001,51.2663005],[11.639115,51.2660004],[11.638984800000001,51.2658525],[11.6388478,51.265771],[11.638652500000001,51.2656982],[11.638409300000001,51.265678900000005],[11.638118100000002,51.265691700000005],[11.6377378,51.265736700000005],[11.637378100000001,51.265777500000006],[11.6371143,51.2657882],[11.6368299,51.2657668],[11.6366072,51.2657217],[11.6363023,51.2656124],[11.635863800000001,51.2654281],[11.635572600000001,51.265320900000006],[11.6352472,51.265245900000004],[11.634901200000002,51.265188],[11.63479,51.265172500000006],[11.6345477,51.2651278],[11.6342619,51.265055000000004],[11.6338997,51.264939000000005],[11.6333047,51.264736000000006],[11.6328011,51.2645452],[11.632259900000001,51.264356600000006],[11.6317049,51.264185100000006],[11.631396500000001,51.26406720000001],[11.6311944,51.263955700000004],[11.6309752,51.263833500000004],[11.6307559,51.263722],[11.6302146,51.263520500000006],[11.629923400000001,51.2633833],[11.629731600000001,51.2632654],[11.6294643,51.2631068],[11.629286200000001,51.262948200000004],[11.629094400000001,51.262748800000004],[11.6289402,51.2624572],[11.628885400000001,51.2622943],[11.6288648,51.2621121],[11.628854500000001,51.2617927],[11.628834000000001,51.261411100000004],[11.628772300000001,51.2611688],[11.6285839,51.26090730000001],[11.6283338,51.260575],[11.628046000000001,51.260071200000006],[11.6279638,51.259822500000006],[11.6279467,51.2594495],[11.627994600000001,51.2591836],[11.6280803,51.258750500000005],[11.6281317,51.2584633],[11.628172800000002,51.2582188],[11.6282858,51.2580323],[11.628426300000001,51.2578672],[11.6285565,51.257601400000006],[11.628604500000002,51.2574041],[11.628625000000001,51.257185500000006],[11.6286695,51.257050400000004],[11.6287792,51.2569518],[11.628957300000001,51.2568446],[11.629094400000001,51.256733100000005],[11.6292314,51.2565187],[11.6292828,51.256394300000004],[11.6292828,51.2562957],[11.629210800000001,51.2561885],[11.6289539,51.255999800000005],[11.6287655,51.2558669],[11.628676400000002,51.2557532],[11.6286182,51.2556267],[11.6286147,51.2554445],[11.628683200000001,51.2551336],[11.628738100000001,51.254904200000006],[11.628710700000001,51.2546297],[11.6286593,51.254329600000005],[11.6285702,51.254083],[11.628485000000001,51.2538557],[11.6283989,51.2536263],[11.6282516,51.253156700000005],[11.628220800000001,51.2529873],[11.628241300000001,51.25276220000001],[11.6283235,51.2525392],[11.6284606,51.2523033],[11.6287038,51.252024600000006],[11.628967600000001,51.2518187],[11.629204000000001,51.251630000000006],[11.6296528,51.2513255],[11.630098100000001,51.251094],[11.6303619,51.250901000000006],[11.6305391,51.2507572],[11.6306977,51.2506179],[11.6310128,51.250294100000005],[11.631413700000001,51.249822400000006],[11.631732300000001,51.249487900000005],[11.631768200000002,51.2494431]]}}]}