{"type":"FeatureCollection","features":[{"type":"Feature","properties":{"osmType":"way","osmId":32857914,"name":"Wilhelmskanal","waterway":"stream"},"geometry":{"type":"LineString","coordinates":[[11.036283300000001,52.517782200000006],[11.0371035,52.517030600000005],[11.039735400000001,52.515135900000004],[11.0406434,52.5144728]]}},{"type":"Feature","properties":{"osmType":"way","osmId":315914455,"name":"Wilhelmskanal","waterway":"stream"},"geometry":{"type":"LineString","coordinates":[[11.082544100000002,52.474786],[11.082683000000001,52.4747296]]}},{"type":"Feature","properties":{"osmType":"way","osmId":315914456,"name":"Wilhelmskanal","waterway":"stream"},"geometry":{"type":"LineString","coordinates":[[11.082683000000001,52.4747296],[11.0833019,52.4744783],[11.0882693,52.47227590000001],[11.095135800000001,52.4692565],[11.0988801,52.4675832],[11.0999642,52.4668488],[11.1012155,52.466257000000006],[11.102189200000002,52.4655465],[11.104913400000001,52.463508100000006],[11.105527700000001,52.4629933],[11.1069648,52.4619422],[11.1071515,52.461890600000004],[11.120054000000001,52.458268000000004],[11.1270626,52.4562959],[11.127298600000001,52.456219700000005],[11.127510000000001,52.456111500000006],[11.1317869,52.4534322],[11.1368016,52.450317600000005],[11.14277,52.446589],[11.145668500000001,52.444822900000005],[11.145892,52.444714700000006],[11.146116300000001,52.4446616],[11.1461561,52.444652700000006],[11.147852700000001,52.444273800000005],[11.1500359,52.4437842],[11.1529842,52.4431104],[11.1622161,52.4410024],[11.1644754,52.440507200000006],[11.1662295,52.4400648],[11.1688706,52.439362100000004]]}},{"type":"Feature","properties":{"osmType":"way","osmId":442408908,"name":"Wilhelmskanal","waterway":"stream"},"geometry":{"type":"LineString","coordinates":[[11.0606063,52.502588100000004],[11.0611844,52.5020837],[11.0612648,52.5019433],[11.0614848,52.5010648],[11.062085600000001,52.4986711],[11.062563,52.4968292],[11.062949300000001,52.495179900000004],[11.063560800000001,52.492730300000005],[11.0636842,52.4924625],[11.0640221,52.4921554],[11.064163800000001,52.492031000000004],[11.0642639,52.4919432],[11.0643322,52.4918933],[11.064477700000001,52.4917766],[11.0683351,52.488895600000006],[11.068594500000001,52.488692400000005],[11.0700947,52.487533500000005],[11.0717254,52.486331400000005],[11.072291700000001,52.4856775],[11.072519400000001,52.484913600000006],[11.0726112,52.484144],[11.0729223,52.4824975],[11.0731155,52.4821643],[11.0739952,52.48139320000001],[11.0787052,52.4776491],[11.081638900000002,52.475321300000004],[11.082111000000001,52.474961900000004],[11.082544100000002,52.474786]]}},{"type":"Feature","properties":{"osmType":"way","osmId":976167428,"name":"Wilhelmskanal","waterway":"stream"},"geometry":{"type":"LineString","coordinates":[[11.0414489,52.51413470000001],[11.042205000000001,52.51358320000001],[11.0451422,52.5114536]]}},{"type":"Feature","properties":{"osmType":"way","osmId":976167429,"name":"Wilhelmskanal","waterway":"stream"},"geometry":{"type":"LineString","coordinates":[[11.0406434,52.5144728],[11.0414489,52.51413470000001]]}},{"type":"Feature","properties":{"osmType":"way","osmId":1082123871,"name":"Wilhelmskanal","waterway":"stream"},"geometry":{"type":"LineString","coordinates":[[11.0605183,52.502665400000005],[11.0606063,52.502588100000004]]}},{"type":"Feature","properties":{"osmType":"way","osmId":1082123872,"name":"Wilhelmskanal","waterway":"stream"},"geometry":{"type":"LineString","coordinates":[[11.0455746,52.511139400000005],[11.0481435,52.5098026],[11.0508907,52.5083707],[11.051158500000001,52.508279],[11.0514104,52.508193000000006],[11.0535669,52.5074126],[11.0560828,52.506531100000004],[11.0564315,52.5064331],[11.0566139,52.5062894],[11.058931300000001,52.504108200000005],[11.0590708,52.504036400000004],[11.059837900000002,52.5033474],[11.0605183,52.502665400000005]]}},{"type":"Feature","properties":{"osmType":"way","osmId":1422978553,"name":"Wilhelmskanal","waterway":"stream"},"geometry":{"type":"LineString","coordinates":[[11.1690251,52.4393277],[11.1692874,52.4392599],[11.1752368,52.4376338],[11.181223800000001,52.4360907],[11.1818573,52.435987700000005]]}},{"type":"Feature","properties":{"osmType":"way","osmId":1422978554,"name":"Wilhelmskanal","waterway":"stream"},"geometry":{"type":"LineString","coordinates":[[11.1688706,52.439362100000004],[11.1690251,52.4393277]]}}]}